# 2021 1 1 12 48 39.54 26.1688 99.8688 8.9 0.00 0 0 0 1 20210101124839 eq
BCB012 8.61 1 Pg             
BCB012 14.42 1 Sg             
BCB015 4.75 1 Pg             
BCB015 7.92 1 Sg             
BCB016 2.99 1 Pg             
BCB016 5.02 1 Sg             
YNEYA 2.54 1 Pg             
# 2021 1 1 17 57 56.86 25.5659 99.9621 9.2 0.00 0 0 0 2 20210101175756 eq
BCB006 7.98 1 Sg             
BCB001 9.36 1 Sg             
BCB001 5.68 1 Pg             
BCB012 4.50 1 Pg             
BCB012 7.60 1 Sg             
BCB015 9.16 1 Pg             
BCB015 15.53 1 Sg             
BCB002 4.55 1 Sg             
BCB002 2.72 1 Pg             
BCB003 4.24 1 Pg             
