# 2008 09 30 17 05 26.240 37.610 76.098 136 2.1 0 0 0.679969 1 XJ.200810010105.0003 eq
 XJBCH 47.1 1.0 Pn -0.23
 XJBCH 83.16 0.4 Sn -1.17
 XJKSH 30.55 1.0 Pg  0.80
 XJKSH 54.03 0.4 Sg  1.17
 XJTAG 21.61 1.0 Pg -0.46
 XJTAG 38.14 1.0 Sg -0.99
 XJWUQ 37.32 1.0 Pn -0.15
 XJWUQ 66.16 1.0 Sn -0.51
 XJYCH 24.46 1.0 Pg  0.38
 XJYCH 42.95 1.0 Sg  0.22
 XJYJS 23.74 1.0 Pg  0.37
 XJYJS 42.03 1.0 Sg  0.56
# 2008 10 01 16 20 04.770 37.145 79.231 2 2.2 0 0 1.42754 2 XJ.200810020020.0001 eq
 XJBPM 51.78 0.4 Pn -1.35
 XJBPM 94.51 1.0 Sn  0.21
 XJHTA 17.45 1.0 Sg -0.67
 XJHTA 8.25 0.4 Pg -2.24
 XJHTTZ0 0.41 0.4 Pg -2.49
 XJHTTZ0 3.57 0.4 Sg -1.44
 XJTAG 53.36 1.0 Pn  0.19
 XJTAG 96.24 0.4 Sn  1.90
 XJYCH 28.15 0.4 Pg -1.10
 XJYCH 50.79 1.0 Sg  0.29
 XJYJS 40.76 0.4 Pn -2.17
 XJYJS 76.33 1.0 Sn  0.38
 XJYUT 39.44 1.0 Pn -0.32
 XJYUT 71.98 0.4 Sn  1.74
# 2008 10 01 22 55 16.690 37.374 77.299 1 1.3 0 0 0.877368 3 XJ.200810020655.0001 eq
 XJHTTZ0 25.57 1.0 Pg  0.09
 XJHTTZ0 46.71 0.4 Sg  1.59
 XJTAG 30.89 1.0 Pg -0.31
 XJTAG 55.45 1.0 Sg  0.19
 XJYCH -0.46 0.4 Pg -1.52
 XJYCH 1.41 1.0 Sg -0.52
 XJYJS 23.16 1.0 Pg -0.39
 XJYJS 42.58 1.0 Sg  0.87
# 2008 10 08 08 18 55.870 37.084 78.956 4 3.8 0 0 1.57985 4 XJ.200810081618.0001 eq
 XJAHQ 109.94 0.4 Sn  1.35
 XJAHQ 62.67 1.0 Pn -0.12
 XJAKS 114.7 1.0 Sn -0.50
 XJAKS 66.25 1.0 Pn -0.39
 XJATS 105.88 0.4 Sn  2.32
 XJATS 60.68 1.0 Pn  0.79
 XJBAC 139.64 1.0 Sn  0.34
 XJBAC 79.26 0.4 Pn -1.17
 XJBCH 45.5 0.4 Pn -1.87
 XJBCH 80.24 0.4 Sn -1.74
 XJBPM 54.1 1.0 Pn -0.48
 XJBPM 94.97 1.0 Sn  0.57
 XJCBC 101.03 1.0 Pn  0.48
 XJCBC 176.17 0.4 Sn  2.28
 XJHTA 14.77 1.0 Pg  0.73
 XJHTA 26.62 0.4 Sg  3.21
 XJHTTZ0 4.85 0.4 Pg  2.10
 XJHTTZ0 7.9 0.4 Sg  3.35
 XJKSH 55.44 1.0 Pn -0.69
 XJKSH 97.5 1.0 Sn  0.41
 XJKSZ 101.29 0.4 Sn  2.46
 XJKSZ 56.96 1.0 Pn -0.18
 XJKUC 150.42 0.4 Sn  1.01
 XJKUC 87.15 1.0 Pn  0.96
 XJLTA 167.26 0.4 Sn  1.31
 XJLTA 96.25 1.0 Pn  0.40
 XJSMY 125.97 1.0 Sn  0.70
 XJSMY 73.07 1.0 Pn  0.73
 XJTAG 53.38 0.4 Pn  1.04
 XJTAG 97.71 0.4 Sg  1.21
 XJWUS 113.98 1.0 Sn -0.36
 XJWUS 65.85 1.0 Pn -0.30
 XJYCH 26.37 0.4 Pg  1.86
 XJYCH 44.66 0.4 Sg  4.03
 XJYJB 36.12 0.4 Pg -1.31
 XJYJB 61.77 1.0 Sg -0.48
 XJYJS 42.97 1.0 Pn -0.55
 XJYJS 74.41 1.0 Sn -0.90
 XJYPH 45.91 0.4 Pn -1.95
 XJYPH 78.97 0.4 Sn -3.83
 XZSQHE 125.68 1.0 Sn -0.74
 XZSQHE 72.94 1.0 Pn -0.09
# 2008 10 08 10 28 19.210 37.482 76.561 130 1.9 0 0 0.570789 5 XJ.200810081828.0001 eq
 XJHTTZ0 32.99 0.4 Pn -1.44
 XJHTTZ0 61.16 1.0 Sn -0.06
 XJKSH 32.01 1.0 Pg -0.21
 XJKSH 57.16 1.0 Sg -0.10
 XJTAG 24.89 1.0 Pg -0.01
 XJTAG 44.32 1.0 Sg  0.15
 XJYCH 20.56 1.0 Pg  0.23
 XJYCH 35.71 1.0 Sg -0.32
 XJYJS 24.45 1.0 Pg  0.92
 XJYJS 42.06 1.0 Sg  0.32
# 2008 10 08 15 11 48.700 36.983 78.816 13 2.9 0 0 1.05832 6 XJ.200810082311.0001 eq
 XJHTA 16.39 1.0 Pg  0.09
 XJHTA 29.03 0.4 Sg  1.83
 XJHTTZ0 5.26 1.0 Pg  0.06
 XJHTTZ0 9.5 1.0 Sg  0.86
 XJTAG 51.75 1.0 Pn  0.48
 XJTAG 90.26 0.4 Sn  1.58
 XJYCH 22.83 1.0 Pg -0.17
 XJYCH 39.78 0.4 Sg  1.52
 XJYJB 38.23 1.0 Pg -0.46
 XJYJB 65.72 0.4 Sg  1.35
# 2008 10 09 11 34 08.180 36.644 79.276 8 3.0 0 0 0.75034 7 XJ.200810091934.0001 eq
 XJHTA 12.6 1.0 Pg -0.01
 XJHTA 20.72 1.0 Sg -0.30
 XJHTTZ0 10.85 1.0 Pg  0.67
 XJHTTZ0 17.69 1.0 Sg  0.63
 XJTAG 107.92 1.0 Sg -0.28
 XJTAG 64.68 1.0 Pg  0.04
 XJYCH 30.91 1.0 Pg -0.99
 XJYCH 51.06 0.4 Sg -1.86
 XJYJB 30.75 1.0 Pg  0.31
 XJYJB 50.26 1.0 Sg -0.28
# 2008 10 09 12 05 24.150 36.987 77.020 94 2.1 0 0 0.635643 8 XJ.200810092005.0001 eq
 XJBCH 47.02 1.0 Pn -0.44
 XJBCH 83.57 0.4 Sn -1.03
 XJBPM 45.03 1.0 Pn  0.63
 XJBPM 80.22 0.4 Sn  1.11
 XJHTTZ0 27.67 1.0 Pg -0.34
 XJHTTZ0 49.57 1.0 Sg -0.14
 XJKSH 39.33 1.0 Pg  0.94
 XJKSH 68.04 1.0 Sg -0.29
 XJTAG 28.82 1.0 Pg  0.10
 XJTAG 50.16 1.0 Sg -0.81
 XJYCH 15.35 1.0 Pg -0.14
 XJYCH 27.78 1.0 Sg  0.42
# 2008 10 12 16 15 28.430 37.455 76.136 107 1.8 0 0 0.0966092 9 XJ.200810130014.0001 eq
 XJTAG 19.81 1.0 Pg -0.13
 XJTAG 35.33 1.0 Sg  0.04
 XJYCH 21.29 1.0 Pg  0.18
 XJYCH 37.34 1.0 Sg -0.05
 XJYJS 22.27 1.0 Pg -0.05
 XJYJS 39.57 1.0 Sg  0.01
# 2008 10 22 15 22 58.110 37.822 76.638 5 2.4 0 0 1.10179 10 XJ.200810222322.0001 eq
 XJATS 38.19 1.0 Pg  1.00
 XJATS 66.52 1.0 Sg  0.63
 XJBCH 41.81 1.0 Pn -0.78
 XJBCH 74.44 1.0 Sn  0.02
 XJBPM 36.71 1.0 Pg -0.30
 XJBPM 65.01 1.0 Sg -0.55
 XJKSH 28.8 1.0 Pg  0.71
 XJKSH 51.57 0.4 Sg  1.80
 XJTAG 19.48 0.4 Pg -1.42
 XJTAG 36.06 1.0 Sg -0.97
 XJXKR 37.67 1.0 Pg -0.57
 XJXKR 65.38 0.4 Sg -2.37
 XJYCH 12.78 1.0 Pg -0.12
 XJYCH 24.79 0.4 Sg  1.56
 XJYJS 12.68 1.0 Pg -0.04
 XJYJS 24.32 0.4 Sg  1.39
# 2008 10 25 16 26 28.260 37.333 76.312 82 2.5 0 0 0.825282 11 XJ.200810260026.0001 eq
 XJATS 38.62 1.0 Pn -0.22
 XJATS 69.21 1.0 Sn  0.06
 XJBCH 45.96 0.4 Pn -1.30
 XJBCH 82.38 0.4 Sn -1.88
 XJHTTZ0 34.73 1.0 Pn -0.14
 XJHTTZ0 61.98 1.0 Sn -0.03
 XJKSH 31.66 1.0 Pg  0.76
 XJKSH 56.5 0.4 Sg  1.60
 XJKSZ 35.55 1.0 Pn -0.29
 XJKSZ 63.01 1.0 Sn -0.75
 XJTAG 18.6 0.4 Pg -1.33
 XJTAG 33.84 0.4 Sg -1.40
 XJWUQ 39.9 1.0 Pn  0.28
 XJWUQ 70.52 1.0 Sn -0.01
 XJXKR 41.18 1.0 Pn -0.06
 XJXKR 73.38 1.0 Sn -0.07
 XJYCH 18.36 1.0 Pg  0.67
 XJYCH 31.66 1.0 Sg  0.40
 XJYJS 21.83 1.0 Pg  0.02
 XJYJS 38.27 1.0 Sg -0.34
 XJYPH 31.09 1.0 Pg  0.25
 XJYPH 55.94 0.4 Sg  1.14
# 2008 10 25 18 29 48.080 37.676 76.146 10 1.2 0 0 1.88014 12 XJ.200810260229.0001 eq
 XJKSH 26.21 0.4 Pg -2.58
 XJKSH 46.36 0.4 Sg -1.49
 XJTAG 15.26 1.0 Pg  0.74
 XJTAG 26.69 0.4 Sg  2.42
 XJYCH 19.52 1.0 Pg  0.74
 XJYJS 17.64 0.4 Pg  1.09
 XJYJS 30.32 0.4 Sg  2.78
# 2008 10 26 22 39 35.240 36.813 77.214 106 2.7 0 0 0.83387 13 XJ.200810270639.0001 eq
 XJATS 48.54 1.0 Pn  0.05
 XJATS 86.52 1.0 Sn  0.10
 XJBCH 48 1.0 Pn -0.98
 XJBCH 84.74 0.4 Sn -2.58
 XJBPM 47.51 1.0 Pn  0.38
 XJBPM 84.69 1.0 Sn  0.69
 XJHTA 35.92 1.0 Pg  0.70
 XJHTA 63.92 0.4 Sg  1.28
 XJHTTZ0 26.99 1.0 Pg -0.07
 XJHTTZ0 48.35 1.0 Sg  0.32
 XJKSH 41.5 1.0 Pn -0.22
 XJKSH 73.5 1.0 Sn -0.78
 XJTAG 31.79 1.0 Pg -0.25
 XJTAG 57.41 1.0 Sg  0.50
 XJWUQ 51.07 1.0 Pn  0.70
 XJWUQ 90.19 1.0 Sn  0.40
 XJXKR 45.99 1.0 Pn -0.38
 XJXKR 82.42 1.0 Sn -0.20
 XJYCH 16.93 1.0 Pg -0.49
 XJYCH 30.69 1.0 Sg -0.13
 XJYJS 29.9 1.0 Pg -0.63
 XJYJS 52.85 0.4 Sg -1.39
 XJYPH 39.06 1.0 Pn  0.63
 XJYPH 69.52 0.4 Sn  1.13
 XJYUT 101.93 0.4 Sn -1.23
 XJYUT 57.7 1.0 Pn -0.13
# 2008 10 30 12 05 00.930 36.273 76.841 2 4.1 0 0 0.698135 14 XJ.200810302004.0001 eq
 XJAHQ 131.63 1.0 Sn -0.11
 XJAHQ 74.13 1.0 Pn  0.17
 XJAKS 148.39 1.0 Sn  0.35
 XJAKS 83.9 1.0 Pn  0.88
 XJATS 100.74 0.4 Sn -1.01
 XJATS 57.14 1.0 Pn -0.14
 XJBCH 105.73 0.4 Sn -1.30
 XJBCH 59.69 1.0 Pn -0.51
 XJBPM 101.71 1.0 Sn  0.31
 XJBPM 57.26 1.0 Pn  0.18
 XJHTTZ0 37.65 1.0 Pg -0.75
 XJHTTZ0 66.48 1.0 Sg  0.20
 XJKSH 49.64 1.0 Pn  0.28
 XJKSH 87.9 1.0 Sn  0.38
 XJKSZ 54.77 1.0 Pn  0.61
 XJKSZ 96.82 1.0 Sn  0.68
 XJWUQ 102.83 1.0 Sn -0.87
 XJWUQ 58.32 1.0 Pn -0.04
 XJXKR 102.91 0.4 Sn  1.74
 XJXKR 56.89 1.0 Pn -0.06
 XJYCH 22 0.4 Pg -1.09
 XJYCH 39.08 1.0 Sg -0.78
 XJYJS 37.74 1.0 Pn -0.93
 XJYJS 68.79 1.0 Sn  0.49
 XJYPH 48.28 1.0 Pn  0.47
 XJYPH 84.96 1.0 Sn  0.21
# 2008 10 30 21 03 27.420 36.435 76.386 6 2.2 0 0 1.61635 15 XJ.200810310503.0001 eq
 XJATS 55.13 0.4 Pn -1.36
 XJATS 94.78 0.4 Sn -2.90
 XJHTTZ0 41.59 1.0 Pg -0.70
 XJHTTZ0 67.71 0.4 Sg -2.74
 XJTAG 31.06 1.0 Pg  0.03
 XJTAG 51.23 1.0 Sg -0.32
 XJYCH 24.95 0.4 Pg  1.85
 XJYCH 40.32 0.4 Sg  1.92
 XJYJS 39.28 1.0 Pg  0.18
 XJYJS 64.21 1.0 Sg -0.79
# 2008 10 30 21 32 05.420 36.316 76.405 8 3.0 0 0 1.68505 16 XJ.200810310531.0001 eq
 XJHTA 51.84 0.4 Pn  1.85
 XJHTA 91.17 0.4 Sn  4.72
 XJHTTZ0 41.95 1.0 Pn  0.21
 XJHTTZ0 72.46 1.0 Sn  0.28
 XJTAG 32.25 1.0 Pg -0.75
 XJTAG 55.82 1.0 Sg  0.92
 XJYCH 24.28 1.0 Pg -0.42
 XJYCH 41.32 1.0 Sg  0.27
 XJYJS 40.37 1.0 Pg -0.90
 XJYJS 68.96 1.0 Sg  0.32
# 2008 10 30 22 55 29.390 37.368 79.150 9 2.2 0 0 0.7884 17 XJ.200810310655.0001 eq
 XJHTA 12.52 1.0 Pg  0.27
 XJHTA 19.92 1.0 Sg -0.43
 XJHTTZ0 4.24 1.0 Pg -0.16
 XJHTTZ0 7.03 1.0 Sg -0.17
 XJTAG 100.75 0.4 Sg  1.27
 XJTAG 59.83 1.0 Pg  0.37
 XJYJS 44.37 1.0 Pg -0.47
 XJYJS 73.44 0.4 Sg -1.64
# 2008 10 31 17 22 54.840 36.314 77.148 9 1.6 0 0 1.3987 18 XJ.200811010122.0001 eq
 XJHTTZ0 32.17 1.0 Pg -0.65
 XJHTTZ0 51.98 0.4 Sg -2.51
 XJKSH 52.61 1.0 Pn  0.15
 XJKSH 89.26 0.4 Sn -1.49
 XJTAG 39.68 1.0 Pg -0.61
 XJTAG 65.43 0.4 Sg -1.55
 XJYCH 22.29 0.4 Pg  1.89
 XJYCH 34.36 1.0 Sg  0.47
 XJYJS 40.62 1.0 Pn -0.78
 XJYJS 69.86 0.4 Sn -1.85
# 2008 11 04 13 34 26.750 36.380 78.071 120 2.4 0 0 0.739703 19 XJ.200811042134.0001 eq
 XJBCH 52.49 1.0 Pn  0.06
 XJBCH 93.48 1.0 Sn  0.01
 XJHTTZ0 23.22 1.0 Pg -0.26
 XJHTTZ0 41.61 1.0 Sg -0.04
 XJTAG 44.99 0.4 Pn  1.93
 XJTAG 77.88 0.4 Sn  1.24
 XJYCH 23.87 1.0 Pg -0.14
 XJYCH 42.79 1.0 Sg  0.21
 XJYJS 40.06 1.0 Pn  0.25
 XJYJS 70.76 1.0 Sn -0.10
# 2008 11 04 20 36 35.920 37.720 78.442 8 2.2 0 0 1.21774 20 XJ.200811050436.0001 eq
 XJBCH 39.14 1.0 Pn  0.09
 XJBCH 69.03 0.4 Sn  1.36
 XJHTA 24.58 1.0 Pg -0.02
 XJHTA 42.9 0.4 Sg  2.01
 XJHTTZ0 13.67 1.0 Pg -0.17
 XJHTTZ0 24.18 0.4 Sg  1.11
 XJTAG 45.83 1.0 Pn  0.09
 XJTAG 80.34 0.4 Sn  1.22
 XJXKR 40.44 1.0 Pn -0.26
 XJXKR 72.17 0.4 Sn  1.67
 XJYCH 17.25 1.0 Pg  0.15
 XJYCH 30.47 0.4 Sg  1.87
 XJYJS 32.61 1.0 Pg  0.13
 XJYJS 56.35 0.4 Sg  2.39
# 2008 11 06 10 30 21.980 37.381 76.122 93 1.7 0 0 0.647026 21 XJ.200811061830.0001 eq
 XJKSH 31.08 1.0 Pg  0.94
 XJKSH 54.21 1.0 Sg  0.67
 XJTAG 18.61 1.0 Pg -0.35
 XJTAG 33.52 0.2 Sg  0.00
 XJYCH 19.86 1.0 Pg -0.27
 XJYCH 36.14 1.0 Sg  0.51
 XJYJS 21.47 1.0 Pg -0.72
 XJYJS 38.52 1.0 Sg -0.79
# 2008 11 07 08 43 23.800 36.865 76.962 87 3.1 0 0 0.72933 22 XJ.200811071643.0002 eq
 XJATS 47.27 1.0 Pn  0.67
 XJATS 84.32 0.4 Sn  1.26
 XJBPM 45.66 1.0 Pn -0.20
 XJBPM 81.19 1.0 Sn -0.55
 XJHTTZ0 28.68 1.0 Pg  0.14
 XJHTTZ0 49.6 0.4 Sg -1.06
 XJKSH 39.15 1.0 Pn -0.23
 XJKSH 69.93 1.0 Sn -0.17
 XJTAG 28.78 1.0 Pg  0.06
 XJTAG 50.16 1.0 Sg -0.79
 XJWUQ 48.64 1.0 Pn  0.46
 XJWUQ 86.01 1.0 Sn  0.13
 XJYCH 16.17 1.0 Pg  0.33
 XJYCH 29.04 0.4 Sg  1.07
 XJYJS 27.9 1.0 Pg -0.50
 XJYJS 48.71 0.4 Sg -1.71
 XJYPH 37.22 1.0 Pn  0.33
 XJYPH 66.4 1.0 Sn  0.76
# 2008 11 11 14 38 31.860 37.191 79.405 8 2.2 0 0 1.05546 23 XJ.200811112238.0001 eq
 XJBCH 46.13 1.0 Pn -0.39
 XJBCH 80.93 1.0 Sn  0.47
 XJHTA 14.06 0.4 Sg  1.25
 XJHTA 8.84 0.4 Pg  1.13
 XJHTTZ0 5.42 1.0 Pg  0.05
 XJHTTZ0 9.37 1.0 Sg  0.43
 XJTAG 57.65 1.0 Pn  0.96
 XJTAG 98.64 1.0 Sn  0.62
 XJYCH 31.36 1.0 Pg  0.66
 XJYCH 52.4 0.4 Sg  1.40
 XJYJS 46 1.0 Pn -0.67
 XJYJS 79.45 0.4 Sn -1.36
 XJYUT 38.93 0.4 Pn -1.74
 XJYUT 68.63 0.4 Sn -1.78
# 2008 11 17 19 54 19.670 36.905 77.045 123 1.9 0 0 1.06986 24 XJ.200811180353.0001 eq
 XJHTA 36.29 0.4 Pn -1.20
 XJHTA 65.23 0.4 Sn -1.47
 XJHTTZ0 31.24 0.4 Pg  1.83
 XJHTTZ0 53.9 0.4 Sg  1.66
 XJTAG 31.6 1.0 Pg  0.70
 XJTAG 54.73 1.0 Sg -0.15
 XJYCH 17.85 0.4 Pg -1.06
 XJYCH 33.24 1.0 Sg -0.26
 XJYJS 29.73 1.0 Pg -0.15
 XJYJS 53.2 1.0 Sg  0.12
# 2008 11 19 15 43 41.180 36.810 77.193 4 1.6 0 0 0.786368 25 XJ.200811192343.0001 eq
 XJHTTZ0 28.67 1.0 Pg -0.06
 XJHTTZ0 46.55 0.4 Sg -1.13
 XJTAG 34.74 1.0 Pg -0.41
 XJTAG 57.72 1.0 Sg -0.70
 XJYCH 11.43 1.0 Pg  0.31
 XJYCH 17.07 0.4 Sg -1.47
 XJYJS 33.87 1.0 Pg  0.17
 XJYJS 56.85 1.0 Sg  0.85
# 2008 11 22 20 08 13.340 37.966 77.534 5 2.1 0 0 1.38612 26 XJ.200811230408.0001 eq
 XJBCH 38.81 1.0 Pg  0.11
 XJBCH 64.51 1.0 Sg  0.11
 XJKSH 38.06 0.4 Pg  1.78
 XJKSH 62.23 0.4 Sg  1.91
 XJKSZ 38.49 1.0 Pg  0.20
 XJKSZ 63.21 1.0 Sg -0.40
 XJTAG 34.7 1.0 Pg -0.40
 XJTAG 59.19 1.0 Sg  0.85
 XJWUQ 44.89 0.4 Pg -2.19
 XJWUQ 76.1 0.4 Sg -2.87
 XJXKR 35.35 1.0 Pg  0.50
 XJXKR 59.3 0.4 Sg  1.36
# 2008 11 23 16 15 34.500 37.521 77.975 7 2.2 0 0 1.06913 27 XJ.200811240015.0001 eq
 XJBCH 42.97 1.0 Pn  0.38
 XJBCH 75.15 0.4 Sn  1.36
 XJHTA 29.38 1.0 Pg -0.36
 XJHTA 50.09 1.0 Sg  0.67
 XJHTTZ0 17.71 1.0 Pg  0.28
 XJHTTZ0 30.05 0.4 Sg  1.05
 XJKSH 43.47 1.0 Pn -0.95
 XJKSH 76.17 1.0 Sn -0.70
 XJTAG 40.41 1.0 Pn -0.64
 XJTAG 71.06 1.0 Sn  0.06
 XJYCH 17.2 0.4 Sg  1.47
 XJYCH 9.93 1.0 Pg  0.51
 XJYJS 29.64 1.0 Pg  0.79
 XJYJS 50.7 0.4 Sg  2.72
# 2008 11 25 18 15 07.620 37.461 76.107 9 1.7 0 0 3.49761 28 XJ.200811260214.0001 eq
 XJKSH 31.01 0.4 Pg -1.49
 XJKSH 54.7 1.0 Sg  0.70
 XJTAG 17.51 0.4 Pg  2.43
 XJTAG 33.48 0.4 Sg  8.35
 XJYCH 17.9 1.0 Pg -0.79
 XJYCH 33.6 0.4 Sg  2.52
 XJYJS 20.43 1.0 Pg -0.15
 XJYJS 37.82 0.4 Sg  3.54
# 2008 12 02 22 02 49.610 36.512 76.754 112 2.4 0 0 0.676927 29 XJ.200812030602.0001 eq
 XJHTA 41.01 1.0 Pn  0.09
 XJHTA 74.32 0.4 Sn  1.47
 XJHTTZ0 32.31 1.0 Pg -0.54
 XJHTTZ0 57.96 1.0 Sg -0.44
 XJTAG 31.22 1.0 Pg  0.18
 XJTAG 56.11 1.0 Sg  0.99
 XJYCH 21.05 1.0 Pg -0.71
 XJYCH 38.06 1.0 Sg -0.51
 XJYJS 33.39 1.0 Pg -0.17
 XJYJS 59.3 1.0 Sg -0.35
# 2008 12 03 06 27 28.540 36.166 77.372 6 2.5 0 0 0.575548 30 XJ.200812031427.0001 eq
 XJHTA 41.49 1.0 Pn  0.47
 XJHTA 71.79 1.0 Sn  0.86
 XJHTTZ0 31.42 1.0 Pg -0.06
 XJHTTZ0 53.35 1.0 Sg  0.98
 XJTAG 43.39 1.0 Pn  0.37
 XJTAG 74.72 1.0 Sn  0.29
 XJYCH 22.9 0.2 Pg  0.00
 XJYCH 38.41 1.0 Sg  0.31
 XJYJS 43.18 1.0 Pn -0.79
 XJYJS 76.46 1.0 Sn  0.34
# 2008 12 04 19 13 18.380 37.817 79.018 6 2.3 0 0 1.453 31 XJ.200812050313.0001 eq
 XJBCH 37.78 1.0 Pn  0.12
 XJBCH 65.46 1.0 Sn  0.25
 XJHTA 20.64 0.4 Pg  1.90
 XJHTA 33.89 0.4 Sg  2.68
 XJHTTZ0 11.54 1.0 Pg -0.69
 XJHTTZ0 18.37 0.4 Sg -1.96
 XJTAG 52.2 1.0 Pn  0.44
 XJTAG 88.61 1.0 Sn -0.88
 XJYCH 26.74 1.0 Pg  0.86
 XJYCH 43.04 1.0 Sg  0.12
 XJYJB 41.25 0.4 Pn -1.15
 XJYJB 71.28 0.4 Sn -2.11
 XJYJS 37.78 0.4 Pn -1.58
 XJYJS 65.6 0.4 Sn -2.53
 XJYUT 47.97 1.0 Pn  0.09
 XJYUT 81.36 0.4 Sn -1.48
# 2008 12 04 23 23 28.970 36.425 78.286 134 2.9 0 0 0.778669 32 XJ.200812050723.0001 eq
 XJATS 103.61 1.0 Sn -0.91
 XJATS 58.37 1.0 Pn -0.23
 XJBCH 52.03 1.0 Pn  0.11
 XJBCH 91.95 1.0 Sn -0.62
 XJBPM 56.63 0.4 Pn  1.38
 XJBPM 99.91 0.4 Sn  1.39
 XJHTA 28.67 1.0 Pg  0.48
 XJHTA 51.76 0.4 Sg  1.69
 XJHTTZ0 22.53 1.0 Pg -0.71
 XJHTTZ0 41.07 1.0 Sg -0.17
 XJKSH 53.17 1.0 Pn  0.11
 XJKSH 94.25 1.0 Sn -0.34
 XJKSZ 55.45 1.0 Pn -0.20
 XJKSZ 98.7 1.0 Sn -0.53
 XJTAG 45.51 1.0 Pn  0.30
 XJTAG 81.11 1.0 Sn  0.62
 XJXKR 53.73 0.4 Pn  1.04
 XJXKR 94.66 1.0 Sn  0.72
 XJYCH 24.5 0.4 Pg -1.22
 XJYCH 45.04 1.0 Sg -0.62
 XJYJB 40.1 1.0 Pn  0.64
 XJYJB 70.23 1.0 Sn  0.02
 XJYJS 40.82 1.0 Pn -0.26
 XJYJS 72.77 1.0 Sn -0.35
 XJYPH 47.9 1.0 Pn  0.48
 XJYPH 84.11 1.0 Sn -0.38
 XJYUT 46.28 1.0 Pn -0.75
 XJYUT 82.26 0.4 Sn -1.52
# 2008 12 05 10 24 05.370 36.912 77.065 99 2.5 0 0 0.802406 33 XJ.200812051823.0001 eq
 XJBCH 47.49 1.0 Pn -0.76
 XJBCH 84.59 0.4 Sn -1.42
 XJBPM 46.1 1.0 Pn  0.57
 XJBPM 81.61 1.0 Sn  0.48
 XJHTTZ0 28.34 1.0 Pg  0.44
 XJHTTZ0 50.54 0.4 Sg  1.02
 XJKSH 39.07 1.0 Pn -0.55
 XJKSH 70.43 1.0 Sn -0.10
 XJTAG 29.95 1.0 Pg  0.16
 XJTAG 53.57 1.0 Sg  0.69
 XJXKR 45.1 1.0 Pn  0.03
 XJXKR 81.13 1.0 Sn  0.82
 XJYCH 15.58 1.0 Pg -0.71
 XJYCH 28.4 1.0 Sg -0.40
 XJYJS 27.89 1.0 Pg -0.69
 XJYJS 49.72 0.4 Sg -1.02
 XJYPH 38.03 0.4 Pg  1.32
 XJYPH 66.66 0.4 Sg  1.34
# 2008 12 06 19 15 03.680 37.233 77.351 12 1.0 0 0 1.16357 34 XJ.200812070313.0001 eq
 XJHTTZ0 25.84 1.0 Pg  0.30
 XJHTTZ0 43.88 0.4 Sg  1.46
 XJTAG 33.8 1.0 Pg -0.14
 XJTAG 57.75 0.4 Sg  1.26
 XJYCH 3.24 1.0 Pg -0.15
 XJYCH 6.62 1.0 Sg  0.98
 XJYJS 27.29 0.2 Pg  0.00
 XJYJS 47.56 0.4 Sg  2.16
# 2008 12 09 01 55 27.640 37.239 77.473 1 2.1 0 0 0.851323 35 XJ.200812090955.0001 eq
 XJBCH 45.09 1.0 Pn -0.16
 XJBCH 79.26 1.0 Sn  0.19
 XJBPM 43.4 1.0 Pn -1.00
 XJBPM 77.41 1.0 Sn -0.17
 XJHTA 35 1.0 Pg  0.14
 XJHTA 60.09 0.4 Sg -1.67
 XJHTTZ0 23.45 1.0 Pg  0.68
 XJHTTZ0 41.49 0.4 Sg  1.16
 XJKSH 41.02 1.0 Pn  0.22
 XJKSH 73.19 0.4 Sn  2.04
 XJTAG 34.34 1.0 Pg  0.10
 XJTAG 59.95 1.0 Sg -0.71
 XJWUQ 49.73 1.0 Pn  0.41
 XJWUQ 87.24 1.0 Sn  1.00
 XJYCH 2.64 1.0 Pg -0.54
 XJYCH 5.5 1.0 Sg -0.31
 XJYJS 26.45 1.0 Pg -0.44
 XJYJS 46.71 1.0 Sg -0.93
# 2008 12 09 07 02 19.560 37.344 77.523 7 2.3 0 0 1.10325 36 XJ.200812091502.0001 eq
 XJHTTZ0 23.68 1.0 Pg  0.50
 XJHTTZ0 40.44 0.4 Sg  1.96
 XJKSH 42.03 1.0 Pn -0.73
 XJKSH 73.92 1.0 Sn -0.09
 XJTAG 35.76 1.0 Pg -0.07
 XJTAG 60.59 1.0 Sg  0.97
 XJYCH 3.69 1.0 Pg  0.65
 XJYCH 7.18 0.4 Sg  2.04
 XJYJS 26.89 1.0 Pg  0.04
 XJYJS 46.4 0.4 Sg  1.83
 XJYPH 36.36 1.0 Pg -0.39
 XJYPH 62.05 1.0 Sg  0.97
# 2008 12 09 17 13 20.180 37.196 77.343 8 1.5 0 0 1.44987 37 XJ.200812100113.0001 eq
 XJHTTZ0 25.63 1.0 Pg  0.03
 XJHTTZ0 44.62 0.4 Sg  2.02
 XJKSH 41.57 0.4 Pn -1.59
 XJKSH 73.91 1.0 Sn -0.78
 XJTAG 35.2 0.4 Pg  1.14
 XJTAG 59.34 0.4 Sg  2.67
 XJYCH 3.8 1.0 Pg -0.16
 XJYCH 7.34 1.0 Sg  0.72
 XJYJS 28.44 1.0 Pg  0.58
 XJYJS 48.41 0.4 Sg  2.12
# 2008 12 10 01 09 37.570 37.742 77.026 7 1.4 0 0 1.5481 38 XJ.200812100909.0001 eq
 XJBPM 38.19 0.4 Pn -1.66
 XJBPM 66.88 0.4 Sn -2.01
 XJHTTZ0 31.77 1.0 Pg -0.33
 XJHTTZ0 54.71 0.4 Sg  1.26
 XJKSH 34.17 1.0 Pg  0.30
 XJKSH 58.35 0.4 Sg  2.02
 XJTAG 27.36 1.0 Pg -0.18
 XJTAG 46.85 0.4 Sg  1.19
 XJYCH 16.07 0.4 Sg  2.17
 XJYCH 9.16 1.0 Pg  0.86
 XJYJS 17.57 0.4 Pg  1.01
 XJYJS 30.44 0.4 Sg  2.86
# 2008 12 10 12 04 56.470 37.773 77.047 2 2.0 0 0 1.02741 39 XJ.200812102004.0001 eq
 XJBCH 40.35 1.0 Pn -0.42
 XJBCH 70.92 1.0 Sn -0.20
 XJBPM 37.07 1.0 Pg -0.82
 XJBPM 64.96 0.4 Sg -2.16
 XJHTTZ0 31.13 1.0 Pg  0.41
 XJHTTZ0 54.51 1.0 Sg  0.08
 XJKSH 32.58 1.0 Pg  0.37
 XJKSH 56.85 1.0 Sg -0.22
 XJTAG 25.98 1.0 Pg -0.71
 XJTAG 45.97 0.4 Sg -1.30
 XJWUQ 41.03 1.0 Pn  0.41
 XJWUQ 73.41 0.4 Sn  2.58
 XJYCH 15.15 1.0 Sg  0.32
 XJYCH 8.03 1.0 Pg -0.18
 XJYJS 16.26 1.0 Pg  0.69
 XJYJS 28.8 0.4 Sg  1.16
# 2008 12 10 18 24 08.950 36.917 77.234 6 1.6 0 0 1.49337 40 XJ.200812110224.0001 eq
 XJHTTZ0 28.26 1.0 Pg  0.54
 XJHTTZ0 44.84 0.4 Sg -1.13
 XJTAG 33.57 0.4 Pg -1.13
 XJTAG 54.92 0.4 Sg -2.77
 XJYCH 12.44 0.4 Sg -2.58
 XJYCH 8.89 1.0 Pg -0.16
 XJYJS 32.75 1.0 Pg  0.75
 XJYJS 53.1 1.0 Sg -0.28
# 2008 12 11 05 31 59.940 37.788 77.051 7 2.0 0 0 0.954133 41 XJ.200812111331.0001 eq
 XJBPM 38.35 1.0 Pn -0.87
 XJBPM 68.62 1.0 Sn  0.72
 XJHTTZ0 31.94 1.0 Pg -0.10
 XJHTTZ0 55.23 0.4 Sg  1.81
 XJKSH 33.72 1.0 Pg  0.27
 XJKSH 57.13 0.4 Sg  1.57
 XJTAG 27.45 1.0 Pg -0.40
 XJTAG 46.99 1.0 Sg  0.72
 XJXKR 38.37 1.0 Pn -0.55
 XJXKR 67.98 1.0 Sn  0.59
 XJYCH 15.87 0.4 Sg  1.27
 XJYCH 9.06 1.0 Pg  0.36
 XJYJS 17.31 0.4 Pg  1.29
# 2008 12 11 18 11 24.500 37.433 77.885 4 2.1 0 0 0.771098 42 XJ.200812120211.0001 eq
 XJHTA 30.69 1.0 Pg -0.01
 XJHTA 51.91 1.0 Sg  0.91
 XJHTTZ0 17.87 1.0 Pg -0.34
 XJHTTZ0 30.23 1.0 Sg  0.01
 XJKSH 44.52 1.0 Pn -0.03
 XJKSH 76.17 1.0 Sn -0.87
 XJTAG 39.66 1.0 Pn -0.56
 XJTAG 68.76 1.0 Sn -0.87
 XJYCH 14.41 0.4 Sg  1.16
 XJYCH 8.32 1.0 Pg  0.42
 XJYJS 29.56 1.0 Pg  0.53
 XJYJS 49.83 0.4 Sg  1.60
# 2008 12 15 05 06 17.020 36.554 76.774 95 3.3 0 0 0.493579 43 XJ.200812151306.0002 eq
 XJBPM 50.1 1.0 Pn -0.07
 XJBPM 89.23 1.0 Sn -0.22
 XJHTA 40.06 1.0 Pn -0.01
 XJHTA 71.01 1.0 Sn -0.32
 XJHTTZ0 32.06 1.0 Pg  0.30
 XJHTTZ0 56.79 1.0 Sg  0.37
 XJKSH 42.99 1.0 Pn  0.37
 XJKSH 77.04 0.4 Sn  1.14
 XJKSZ 47.61 1.0 Pn  0.37
 XJKSZ 85.17 1.0 Sn  0.98
 XJTAG 29.89 1.0 Pg -0.12
 XJTAG 53.13 1.0 Sg -0.14
 XJXKR 50.2 1.0 Pn -0.01
 XJXKR 89.04 1.0 Sn -0.49
 XJYCH 19.61 1.0 Pg -0.34
 XJYCH 35.49 1.0 Sg  0.19
 XJYJS 31.61 1.0 Pg -0.73
 XJYJS 56.5 1.0 Sg -0.97
 XJYPH 41.02 1.0 Pn -0.11
 XJYPH 73.45 1.0 Sn  0.21
# 2008 12 15 11 37 26.390 36.828 77.211 116 2.2 0 0 0.809776 44 XJ.200812151937.0001 eq
 XJHTTZ0 29.36 0.4 Pg -1.48
 XJHTTZ0 49.76 0.4 Sg  1.03
 XJTAG 36.46 1.0 Pg -0.26
 XJTAG 60.98 1.0 Sg  0.74
 XJYCH 19.57 1.0 Pg  0.88
 XJYCH 32.82 1.0 Sg  0.05
 XJYJS 34.35 1.0 Pg -0.75
 XJYJS 56.92 1.0 Sg -0.20
# 2008 12 15 22 22 49.100 37.206 77.204 18 1.6 0 0 1.36849 45 XJ.200812160622.0001 eq
 XJHTTZ0 48.76 0.4 Sg  2.77
 XJTAG 31.72 1.0 Pg -0.36
 XJTAG 54.29 1.0 Sg  0.85
 XJYCH 3.88 1.0 Pg -0.59
 XJYCH 6.77 1.0 Sg -0.64
 XJYJS 27.78 1.0 Pg  0.95
 XJYJS 46.25 0.4 Sg  1.71
# 2008 12 19 19 20 36.150 36.698 77.078 7 1.9 0 0 0.727659 46 XJ.200812200320.0001 eq
 XJHTTZ0 30.78 1.0 Pg -0.12
 XJHTTZ0 51.9 1.0 Sg  0.55
 XJTAG 35.26 1.0 Pg  0.38
 XJTAG 59.78 0.4 Sg  1.79
 XJYCH 13.62 1.0 Pg  0.04
 XJYCH 23.23 1.0 Sg  0.55
 XJYJS 34.94 1.0 Pg -0.30
 XJYJS 58.98 1.0 Sg  0.42
