# 2009 02 04 08 41 02.980 36.732 77.153 7 3.4 0 0 1.40374 90 XJ.200902041640.0001 eq
 XJAHQ 117.49 0.4 Sn -1.50
 XJAHQ 68.33 1.0 Pn -0.42
 XJATS 56.55 0.4 Pn  2.16
 XJATS 95.62 0.4 Sn  1.54
 XJBCH 53.13 0.4 Pn -2.31
 XJBCH 92.74 0.4 Sn -3.16
 XJBPM 52.43 1.0 Pn -0.91
 XJBPM 90.78 0.4 Sn -1.46
 XJHTA 40.04 1.0 Pn -0.88
 XJHTA 69.05 0.4 Sn -1.74
 XJHTTZ0 30.62 1.0 Pg  0.92
 XJHTTZ0 51.27 0.4 Sg  1.97
 XJKSH 47.93 1.0 Pn  0.49
 XJKSH 82.7 1.0 Sn  0.60
 XJKSZ 51.02 1.0 Pn -0.36
 XJKSZ 89.74 1.0 Sn  0.88
 XJTAG 35.27 1.0 Pg -0.19
 XJTAG 59.76 1.0 Sg  0.83
 XJWUQ 55.96 1.0 Pn -0.08
 XJWUQ 97.67 1.0 Sn  0.74
 XJXKR 51.65 0.4 Pn -1.07
 XJXKR 89.06 0.4 Sn -2.13
 XJYCH 13.27 1.0 Pg  0.60
 XJYCH 21.6 1.0 Sg  0.49
 XJYJS 34.7 1.0 Pg -0.18
 XJYJS 58.32 1.0 Sg  0.31
 XJYPH 44.37 1.0 Pn -0.17
 XJYPH 75.64 0.4 Sn -1.38
 XJYUT 111.74 0.4 Sn  2.44
 XJYUT 65.62 0.4 Pn  2.40
# 2009 02 04 08 41 13.200 37.380 77.300 12 3.2 0 0 2.74094 91 CB.200902041641.0001 eq
XJBCH 42.8 1.0 Pn -0.50
XJBCH 80.8 0.4 Sn 3.20
XJHTA 33 0.4 +Pn -2.60
XJHTA 62.6 0.4 Sn -1.10
XJKOL 126 0.4 P 3.90
XJKSH 37.6 1.0 +iPn 0.50
XJKSH 71.2 0.4 Sn 4.70
XJWUS 131.9 0.4 Sg 3.50
XJWUS 63.3 1.0 Pn 0.50
GDXNY 112 0.4 ePn 1.80
GDXNY 201.6 0.4 Sn 3.30
# 2009 02 04 14 43 09.000 37.032 76.272 21 2.5 0 0 1.34185 92 XJ.200902042243.0001 eq
 XJBPM 44.89 1.0 Pn -0.99
 XJBPM 80.08 1.0 Sn -0.74
 XJHTTZ0 35.4 0.4 Pn -1.63
 XJHTTZ0 62.36 0.4 Sn -2.53
 XJKSZ 41.1 1.0 Pn -0.53
 XJKSZ 73.67 1.0 Sn  0.50
 XJTAG 22.85 1.0 Pg  0.38
 XJTAG 40.67 0.4 Sg  2.00
 XJYCH 19.79 1.0 Pg  0.47
 XJYCH 35.35 0.4 Sg  2.31
 XJYJS 26.77 1.0 Pg -0.12
 XJYJS 47.55 1.0 Sg  0.88
# 2009 02 05 05 37 33.500 37.254 76.281 97 2.4 0 0 1.33091 93 XJ.200902051337.0001 eq
 XJATS 40.86 1.0 Pn  0.66
 XJATS 73.35 0.4 Sn  1.78
 XJBCH 47.4 0.4 Pn -1.17
 XJBCH 84 0.4 Sn -2.60
 XJBPM 40.88 1.0 Pn -0.45
 XJBPM 72.54 0.4 Sn -1.06
 XJHTTZ0 35.95 1.0 Pn  0.38
 XJHTTZ0 64.03 1.0 Sn  0.76
 XJKSH 34.97 0.4 Pg  2.68
 XJKSH 59.28 0.4 Sg  1.89
 XJTAG 19.88 0.4 Pg -1.20
 XJTAG 35.52 0.4 Sg -1.78
 XJWUQ 41.22 1.0 Pn  0.35
 XJWUQ 74.69 0.4 Sn  1.93
 XJYCH 19.61 1.0 Pg  0.45
 XJYCH 35.07 0.4 Sg  1.18
 XJYJS 23.1 1.0 Pg -0.50
 XJYJS 41.23 1.0 Sg -0.61
 XJYPH 32.73 1.0 Pg  0.32
 XJYPH 57.28 1.0 Sg -0.34
# 2009 02 13 06 36 19.420 37.683 76.838 27 2.3 0 0 1.33029 94 XJ.200902131436.0002 eq
 XJATS 37.43 0.4 Pn  1.58
 XJATS 66.2 0.4 Sn  2.53
 XJBCH 39.51 1.0 Pn -0.93
 XJBCH 71.3 1.0 Sn -0.63
 XJBPM 35.52 1.0 Pg  0.57
 XJBPM 61.43 1.0 Sg -0.62
 XJHTTZ0 32.32 0.4 Pg  2.17
 XJHTTZ0 55.58 0.4 Sg  2.17
 XJKSH 29.49 1.0 Pg  0.39
 XJKSH 52.3 1.0 Sg  0.76
 XJKSZ 32.19 1.0 Pg -0.52
 XJKSZ 57.1 1.0 Sg -0.92
 XJTAG 22.74 1.0 Pg -0.61
 XJTAG 39.64 0.4 Sg -1.53
 XJWUQ 39.32 0.4 Pn  1.34
 XJWUQ 69.34 0.4 Sn  1.85
 XJXKR 35.02 1.0 Pg -0.20
 XJXKR 60.56 0.4 Sg -1.98
 XJYCH 10.91 1.0 Pg -0.96
 XJYCH 19.91 0.4 Sg  1.35
 XJYJS 15.77 0.4 Pg -1.14
 XJYJS 28.69 1.0 Sg -0.93
# 2009 02 14 03 34 54.230 37.668 78.171 6 2.3 0 0 0.858624 95 XJ.200902141134.0001 eq
 XJBCH 39.99 1.0 Pn -0.21
 XJBCH 69.73 1.0 Sn  0.13
 XJBPM 43.65 1.0 Pn -0.14
 XJBPM 75.76 1.0 Sn -0.13
 XJHTA 27.41 1.0 Pg -0.43
 XJHTA 44.58 0.4 Sg -1.67
 XJHTTZ0 16.72 1.0 Pg  0.55
 XJHTTZ0 27.02 1.0 Sg  0.02
 XJKSH 45.53 1.0 Pn  0.73
 XJKSH 78.47 1.0 Sn  0.97
 XJTAG 42.7 1.0 Pn -0.22
 XJTAG 73.97 1.0 Sn -0.26
 XJXKR 40.15 1.0 Pn -0.50
 XJXKR 70.32 1.0 Sn -0.05
 XJYCH 12.71 1.0 Pg -0.36
 XJYCH 21.71 1.0 Sg -0.06
 XJYJS 31.12 0.4 Pg  1.58
 XJYJS 51.26 0.4 Sg  2.19
 XJYPH 34.69 1.0 Pg -1.00
 XJYPH 58.32 0.4 Sg -1.05
# 2009 02 14 03 57 08.250 37.591 78.133 6 2.5 0 0 1.27917 96 XJ.200902141156.0002 eq
 XJBCH 41.32 0.2 Pn  0.00
 XJBCH 71.95 1.0 Sn  0.42
 XJBPM 43.31 0.4 Pn -1.33
 XJBPM 74.33 0.4 Sn -2.86
 XJHTA 27.22 1.0 Pg -0.65
 XJHTA 45.33 1.0 Sg -0.97
 XJHTTZ0 16.28 1.0 Pg  0.37
 XJHTTZ0 26.47 0.2 Sg  0.00
 XJKSH 43.67 0.4 Pn -1.42
 XJKSH 75.86 0.4 Sn -2.26
 XJKSZ 46.62 1.0 Pn  0.32
 XJKSZ 79.41 1.0 Sn -0.72
 XJTAG 42.31 1.0 Pn -0.24
 XJTAG 73.73 1.0 Sn  0.03
 XJWUQ 54.07 0.4 Pn  1.28
 XJWUQ 94.27 0.4 Sn  2.95
 XJYCH 12.32 1.0 Pg  0.28
 XJYCH 19.85 1.0 Sg -0.25
 XJYJS 30.54 1.0 Pg  0.67
 XJYJS 50.93 0.4 Sg  1.26
 XJYUT 55.88 1.0 Pn  0.72
 XJYUT 95.89 1.0 Sn  0.51
# 2009 02 14 14 55 48.900 37.804 77.432 9 1.1 0 0 1.15425 97 XJ.200902142255.0001 eq
 XJHTTZ0 26.87 1.0 Pg -0.14
 XJHTTZ0 46.75 0.4 Sg  1.91
 XJTAG 32.93 1.0 Pg -0.54
 XJTAG 56.62 1.0 Sg  1.00
 XJYCH 14.22 1.0 Sg  1.00
 XJYCH 8.05 1.0 Pg  0.17
 XJYJS 19.87 1.0 Pg  0.51
 XJYJS 34.24 0.4 Sg  2.10
# 2009 02 15 13 52 23.330 36.835 77.343 106 2.8 0 0 0.550233 98 XJ.200902152152.0001 eq
 XJBCH 47.77 1.0 Pn -0.46
 XJBCH 85.05 1.0 Sn -0.90
 XJBPM 47.31 1.0 Pn  0.30
 XJBPM 84.33 1.0 Sn  0.56
 XJHTTZ0 25.66 1.0 Pg -0.17
 XJHTTZ0 46.47 1.0 Sg  0.65
 XJKSH 42.05 1.0 Pn -0.11
 XJKSH 75.34 1.0 Sn  0.27
 XJTAG 33.37 1.0 Pg  0.32
 XJTAG 58.77 1.0 Sg  0.05
 XJXKR 46.49 1.0 Pn  0.50
 XJXKR 82.24 1.0 Sn  0.31
 XJYCH 16.57 1.0 Pg -0.65
 XJYCH 30.3 1.0 Sg -0.15
 XJYJS 30.22 1.0 Pg -0.52
 XJYJS 53.31 0.4 Sg -1.31
# 2009 02 15 23 27 52.580 37.754 76.143 105 3.2 0 0 1.29888 99 XJ.200902160727.0001 eq
XJBCH 43.92 1.0 P -0.90
XJBCH 79.22 0.2 S 0.00
HLFUY 186.92 1.0 eP -0.90
QHHUY 266.92 1.0 +eP 1.00
XJKMY 143.32 1.0 P -0.80
XJKMY 251.72 0.4 S -5.70
GSTSS 307.72 1.0 P 0.30
GDXNY 112.72 1.0 -iP 0.70
GDXNY 201.02 0.4 S 1.30
 XJAHQ 55.08 1.0 Pn  0.24
 XJAHQ 97.69 1.0 Sn -0.12
 XJAKS 119.2 1.0 Sn -0.60
 XJAKS 67.23 1.0 Pn  0.13
 XJBAC 149.95 0.4 Sn -1.81
 XJBAC 84.78 1.0 Pn -0.15
 XJBCH 43.91 1.0 Pn -0.78
 XJBCH 78.4 0.4 Sn -1.22
 XJBPM 35.16 1.0 Pg -0.32
 XJBPM 62.32 1.0 Sg -0.79
 XJHTA 46.94 1.0 Pn  0.03
 XJHTA 83.92 1.0 Sn  0.32
 XJKSH 26.48 1.0 Pg  0.15
 XJKSH 48.15 0.4 Sg  1.43
 XJSMY 125.75 1.0 Sn  0.93
 XJSMY 70.65 1.0 Pn  0.74
 XJTAG 17.08 0.4 Pg -2.13
 XJTAG 32 0.4 Sg -1.99
 XJWUQ 34.75 1.0 Pg  0.24
 XJWUQ 61.95 1.0 Sg  0.59
 XJWUS 111.2 1.0 Sn  0.64
 XJWUS 62.29 1.0 Pn  0.34
 XJXKR 37.76 1.0 Pg  0.22
 XJXKR 67.2 1.0 Sg  0.40
 XJYCH 21.43 1.0 Pg -0.13
 XJYCH 39.16 1.0 Sg  0.98
 XJZSU 85.5 1.0 Pn  0.51
# 2009 02 16 00 52 32.040 37.082 76.913 102 2.2 0 0 1.30502 100 XJ.200902160852.0001 eq
 XJBCH 47.17 1.0 Pn  0.16
 XJBCH 83.65 1.0 Sn -0.13
 XJBPM 42.17 0.4 Pn -1.12
 XJBPM 74.33 0.4 Sn -2.79
 XJHTTZ0 28.52 1.0 Pg -0.82
 XJHTTZ0 52.54 1.0 Sg  0.44
 XJTAG 28.07 1.0 Pg  0.45
 XJTAG 49.61 1.0 Sg  0.62
 XJXKR 44.75 0.4 Pn  1.57
 XJXKR 79.53 0.4 Sn  2.61
 XJYCH 15.47 1.0 Pg -0.76
 XJYCH 28.47 1.0 Sg -0.22
# 2009 02 19 06 39 27.070 37.818 77.412 10 2.0 0 0 0.937923 101 XJ.200902191439.0001 eq
 XJBCH 40.45 1.0 Pn -0.70
 XJBCH 69.79 0.4 Sn -1.41
 XJBPM 39.01 1.0 Pn -0.37
 XJBPM 68.71 1.0 Sn  0.55
 XJHTTZ0 28.28 1.0 Pg  0.90
 XJHTTZ0 47.64 0.4 Sg  2.16
 XJKSH 36.63 1.0 Pn -0.77
 XJKSH 64.07 1.0 Sn -0.53
 XJTAG 33.71 1.0 Pg  0.51
 XJTAG 55.87 1.0 Sg  0.67
 XJYCH 13.6 1.0 Sg  0.05
 XJYCH 7.76 1.0 Pg -0.39
 XJYJS 19.71 1.0 Pg  0.82
 XJYJS 32.72 0.4 Sg  1.23
# 2009 02 22 03 43 04.610 37.972 76.468 4 1.3 0 0 1.08214 102 XJ.200902221143.0001 eq
 XJTAG 19.69 1.0 Pg  0.19
 XJTAG 34.05 0.4 Sg  1.55
 XJYCH 17.68 1.0 Pg  0.61
 XJYCH 30.14 0.4 Sg  1.63
 XJYJS 18.05 1.0 Sg  0.95
 XJYJS 9.39 1.0 Pg -0.81
# 2009 02 22 16 21 59.470 37.281 76.460 120 1.7 0 0 0.95699 103 XJ.200902230021.0001 eq
 XJHTA 41.86 0.4 Pn -1.44
 XJHTA 75.64 0.4 Sn -1.47
 XJHTTZ0 36.4 0.4 Pg  1.69
 XJHTTZ0 61.97 1.0 Sg  0.25
 XJTAG 23.91 1.0 Pg -0.16
 XJTAG 41.84 1.0 Sg -0.84
 XJYCH 20.57 1.0 Pg  0.61
 XJYCH 36.08 1.0 Sg  0.71
 XJYJS 25.4 1.0 Pg  0.63
 XJYJS 43.97 1.0 Sg  0.03
# 2009 02 24 01 10 15.150 36.832 76.967 120 2.3 0 0 0.814453 104 XJ.200902240910.0001 eq
 XJHTTZ0 29.86 1.0 Pg -0.30
 XJHTTZ0 54.32 1.0 Sg  0.74
 XJKSH 41.07 1.0 Pn  0.25
 XJKSH 72.86 1.0 Sn  0.21
 XJTAG 31.53 1.0 Pg  0.94
 XJTAG 54.34 1.0 Sg  0.02
 XJYCH 18.3 1.0 Pg -1.00
 XJYCH 32.93 0.4 Sg -1.24
 XJYJS 30.15 1.0 Pg -0.26
 XJYJS 52.74 0.4 Sg -1.28
 XJYPH 39.04 1.0 Pn  0.61
 XJYPH 69.7 0.4 Sn  1.31
# 2009 02 24 08 59 38.290 37.071 78.904 6 2.4 0 0 1.2275 105 XJ.200902241659.0001 eq
 XJBCH 47.41 1.0 Pn -0.11
 XJBCH 82.95 1.0 Sn  0.72
 XJBPM 55 1.0 Pn  0.54
 XJBPM 95.11 1.0 Sn  0.91
 XJHTA 15.78 1.0 Pg  0.92
 XJHTA 26.62 0.4 Sg  1.92
 XJHTTZ0 3.46 1.0 Pg  0.12
 XJHTTZ0 7.1 0.4 Sg  1.54
 XJKSH 55.55 1.0 Pn -0.27
 XJKSH 97.07 1.0 Sn  0.51
 XJQMO 140.63 1.0 Sn  0.49
 XJQMO 80.86 1.0 Pn -0.04
 XJTAG 52.11 1.0 Pn  0.25
 XJTAG 90.51 1.0 Sn  0.85
 XJXKR 48.25 0.4 Pn -2.23
 XJXKR 84.46 0.4 Sn -2.87
 XJYCH 25.03 0.4 Pg  1.23
 XJYCH 42.17 0.4 Sg  2.66
 XJYJS 43.51 1.0 Pn  0.34
 XJYJS 75.42 1.0 Sn  0.72
 XJYUT 44.6 1.0 Pn -0.74
 XJYUT 77.99 1.0 Sn -0.49
# 2009 02 25 01 34 37.400 37.453 76.123 107 1.6 0 0 1.26163 106 XJ.200902250934.0001 eq
 XJBCH 46.49 0.4 Pn -1.32
 XJBCH 82.26 0.4 Sn -2.95
 XJBPM 39.16 1.0 Pn -0.23
 XJBPM 70.27 1.0 Sn  0.16
 XJHTTZ0 37.77 0.2 Pn  0.00
 XJHTTZ0 67.02 1.0 Sn -0.17
 XJKSH 31.09 0.4 Pg  1.18
 XJKSH 54.08 1.0 Sg  0.97
 XJTAG 19.51 1.0 Pg -0.36
 XJTAG 35.12 1.0 Sg -0.04
 XJWUQ 37.05 0.4 Pn -1.17
 XJWUQ 64.94 0.4 Sn -3.05
 XJYJS 22.3 1.0 Pg -0.07
 XJYJS 39.94 1.0 Sg  0.29
 XJYPH 30.88 1.0 Pg  0.12
 XJYPH 54.93 1.0 Sg  0.29
# 2009 02 25 08 57 33.500 36.417 78.153 123 2.1 0 0 0.827128 107 XJ.200902251657.0002 eq
 XJBCH 51.8 1.0 Pn -0.09
 XJBCH 91.04 0.4 Sn -1.45
 XJHTTZ0 22.32 1.0 Pg -0.67
 XJHTTZ0 41.1 1.0 Sg  0.33
 XJTAG 42.98 1.0 Pn -0.67
 XJTAG 77.57 1.0 Sn -0.13
 XJXKR 53.63 0.4 Pn  1.36
 XJXKR 94.51 0.4 Sn  1.32
 XJYJS 40.2 1.0 Pn  0.24
 XJYJS 70.88 1.0 Sn -0.24
# 2009 03 01 23 20 38.720 36.974 77.140 104 2.0 0 0 1.06101 108 XJ.200903020720.0001 eq
 XJATS 47.01 1.0 Pn  0.85
 XJATS 83.25 1.0 Sn  1.00
 XJBCH 47.05 1.0 Pn -0.22
 XJBCH 83.4 1.0 Sn -0.85
 XJHTA 35.56 1.0 Pg -0.12
 XJHTA 63.95 1.0 Sg  0.49
 XJHTTZ0 27.18 1.0 Pg -0.11
 XJHTTZ0 48.94 1.0 Sg  0.50
 XJKSH 39.4 1.0 Pn -0.03
 XJKSH 70.75 1.0 Sn  0.57
 XJTAG 30.36 1.0 Pg  0.06
 XJTAG 53.92 1.0 Sg  0.12
 XJWUQ 46.39 0.4 Pn -1.67
 XJWUQ 82.81 0.4 Sn -2.83
 XJYCH 15.33 1.0 Pg -0.91
 XJYCH 28.69 1.0 Sg -0.02
 XJYJS 27.71 1.0 Pg -0.59
 XJYJS 49.48 1.0 Sg -0.76
 XJYPH 37.5 0.4 Pn  1.33
 XJYPH 66.55 0.4 Sn  2.20
# 2009 03 04 16 48 24.100 36.874 77.354 113 3.8 0 0 1.39681 109 XJ.200903050048.0002 eq
XJBCH 47.6 1.0 P -0.90
XJBCH 85 1.0 S -0.20
HLFUY 187.3 1.0 +iP -1.00
HLFUY 200 0.4 pP 1.50
HLFUY 201.1 0.4 PP -2.40
HLFUY 333.6 0.4 S -2.80
HLFUY 353.5 0.4 sS 1.10
HLFUY 509.5 0.4 PcP 3.90
XJKMY 146.5 1.0 P -0.30
XJKMY 159 0.2 PP 0.00
XJKMY 256.7 0.4 S -5.20
 XJAHQ 110.42 1.0 Sn  0.45
 XJAHQ 62.46 1.0 Pn  0.82
 XJAKS 126.83 0.4 Sn  1.97
 XJAKS 70.99 0.4 Pn  1.05
 XJATS 50.12 0.4 Pn  1.70
 XJATS 88.18 0.4 Sn  1.89
 XJBAC 154.36 1.0 Sn  0.26
 XJBAC 87.21 1.0 Pn  0.96
 XJBCH 47.53 1.0 Pn -0.33
 XJBCH 85.03 1.0 Sn -0.25
 XJBLT 133.05 1.0 Pn  0.58
 XJBLT 236.31 1.0 Sn -0.50
 XJBPM 47.09 1.0 Pn  0.41
 XJBPM 82.22 1.0 Sn -0.94
 XJCBC 106.21 0.4 Pn  1.53
 XJCBC 187.84 1.0 Sn  0.73
 XJHTA 35.29 0.4 Pg  1.30
 XJHTA 62.34 0.4 Sg  1.92
 XJHTTZ0 26.36 1.0 Pg  0.34
 XJHTTZ0 47.85 0.4 Sg  1.68
 XJKMS 139.89 1.0 Pn  0.06
 XJKMS 249.21 1.0 Sn -0.81
 XJKOL 116.64 1.0 Pn -0.18
 XJKOL 207.71 0.4 Sn -1.13
 XJKSH 41.51 1.0 Pn -0.47
 XJKSH 72.51 0.4 Sn -2.22
 XJKSZ 45.44 1.0 Pn  0.03
 XJKSZ 78.96 0.4 Sn -1.92
 XJKUC 168.67 1.0 Sn  0.80
 XJKUC 95.25 0.4 Pn  1.31
 XJLHG 141.86 1.0 Pn  0.66
 XJLHG 251.47 1.0 Sn -0.98
 XJLTA 105.97 1.0 Pn  1.00
 XJLTA 187.19 1.0 Sn -0.44
 XJQMO 166.08 0.4 Sn -1.38
 XJQMO 92.88 1.0 Pn -0.85
 XJRUQ 130.89 1.0 Pn -0.61
 XJRUQ 232.49 0.4 Sn -2.62
 XJSCH 135.27 0.4 Pn  1.60
 XJSCH 239.83 1.0 Sn  0.85
 XJSMY 133.92 1.0 Sn  0.80
 XJSMY 75.97 0.4 Pn  1.42
 XJTAG 31.47 0.4 Pg -1.73
 XJTAG 57.32 0.4 Sg -1.67
 XJTCH 150.82 1.0 Pn -0.44
 XJTCH 269.26 0.4 Sn -1.37
 XJWNQ 121.94 1.0 Pn  0.55
 XJWNQ 215.93 0.4 Sn -1.08
 XJWSU 129.47 1.0 Pn  0.57
 XJWSU 228.57 0.4 Sn -1.87
 XJWUQ 50.11 1.0 Pn -0.42
 XJWUQ 89.27 1.0 Sn -0.79
 XJWUS 119.9 1.0 Sn  0.17
 XJWUS 68.08 1.0 Pn  1.00
 XJXKR 46.13 1.0 Pn  0.50
 XJXKR 82.32 0.4 Sn  1.02
 XJXNY 115.61 1.0 Pn  0.92
 XJXNY 204.94 1.0 Sn -0.08
 XJYCH 16.42 0.4 Pg -1.20
 XJYCH 30.38 1.0 Sg -0.81
 XJYJB 48.88 1.0 Pn -0.06
 XJYJB 87.53 1.0 Sn  0.32
 XJYJS 29.75 1.0 Pg -0.90
 XJYJS 53.26 0.4 Sg -1.18
 XJYPH 38.76 1.0 Pn  0.61
 XJYPH 69.16 0.4 Sn  1.28
 XJYUT 56.69 1.0 Pn  0.15
 XJYUT 99.56 0.4 Sn -1.27
 XJZSU 162.88 0.4 Sn  2.28
 XJZSU 91.64 0.4 Pn  1.75
 XZSQHE 126.25 0.4 Sn -1.91
 XZSQHE 69.87 0.4 Pn -1.95
# 2009 03 05 01 28 58.780 36.414 78.025 130 2.8 0 0 0.714646 110 XJ.200903050928.0001 eq
 XJBCH 52.19 1.0 Pn -0.15
 XJBCH 93 1.0 Sn -0.30
 XJBPM 54.52 1.0 Pn  0.03
 XJBPM 97.24 1.0 Sn  0.08
 XJHTTZ0 24.22 1.0 Pg -0.13
 XJHTTZ0 43.3 1.0 Sg  0.10
 XJKSH 51.56 1.0 Pn  0.14
 XJKSH 91.72 1.0 Sn  0.06
 XJTAG 42.63 1.0 Pn -0.17
 XJTAG 76.19 1.0 Sn  0.01
 XJXKR 52.89 1.0 Pn  0.54
 XJXKR 93.73 1.0 Sn  0.40
 XJYCH 22.59 0.4 Pg -1.76
 XJYCH 41.11 0.4 Sg -2.08
 XJYPH 46.72 1.0 Pn  0.31
 XJYPH 82.71 1.0 Sn  0.03
# 2009 03 06 04 10 36.380 37.257 76.247 88 1.5 0 0 0.280802 111 XJ.200903061210.0001 eq
 XJTAG 20.7 1.0 Pg  0.51
 XJTAG 35.56 1.0 Sg -0.14
 XJYCH 18.35 1.0 Pg -0.41
 XJYCH 33.29 1.0 Sg  0.12
 XJYJS 23.01 1.0 Pg -0.10
 XJYJS 40.98 1.0 Sg  0.03
# 2009 03 07 08 38 49.880 37.294 79.124 12 0 0 0 1.48915 112 XJ.200903071638.0001 eq
 XJBCH 44.41 1.0 Pn -0.31
 XJBCH 78.22 1.0 Sn  0.87
 XJHTA 12.49 1.0 Pg  0.39
 XJHTA 22.14 0.4 Sg  1.94
 XJHTTZ0 3.55 1.0 Pg  0.43
 XJHTTZ0 6.91 0.4 Sg  1.69
 XJTAG 55.16 0.4 Pn  1.65
 XJTAG 95.39 0.4 Sn  2.87
 XJXKR 49.23 1.0 Pn  0.59
 XJXKR 86.61 0.4 Sn  2.41
 XJYCH 26.12 1.0 Pg -0.20
 XJYCH 44.24 1.0 Sg  0.51
 XJYJS 42.26 0.4 Pn -1.18
 XJYJS 75.11 0.2 Sn  0.00
 XJYUT 42.57 0.4 Pn -1.36
 XJYUT 73.88 0.4 Sn -2.19
# 2009 03 08 17 02 12.650 36.461 78.176 127 4.2 0 0 1.77827 113 XJ.200903090102.0003 eq
GSAXX 199.15 0.4 -P 1.20
GSAXX 203.75 0.4 pP -3.80
GSAXX 354.55 0.2 S 0.00
XJBCH 51.45 0.2 P 0.00
XJBCH 91.55 1.0 S 0.30
XJBKO 186.85 0.4 P 1.30
XJBKO 332.95 0.4 S 1.10
HLFUY 185.05 0.4 eP -1.70
HLFUY 330.05 0.4 S -4.30
QHGOM 186.05 0.2 eP 0.00
GSGTA 236.15 0.4 eP 1.70
XJKMY 145.15 0.4 P -1.70
XJKMY 158.85 1.0 PP -0.50
XJKMY 257.25 0.4 S -5.50
XJKOL 113.85 0.4 P -3.50
XZLSA 175.65 0.4 P -1.60
 CBTCG1 271.75 1.0 P -0.10
 CBTCG1 296.25 1.0 pP -0.10
 CBTCG1 312.95 1.0 sP  0.40
 CBTCG1 491.75 1.0 S  0.50
 CBTCG1 528.65 0.4 sS -1.80
 CBTCG1 535.75 0.4 SS  2.70
 CBTCG1 944.05 0.4 ScS  2.80
XJWMQ 145.25 1.0 P -0.10
XJWMQ 258.65 0.4 S -1.30
 XJAHQ 118.79 1.0 Sn  0.52
 XJAHQ 67.33 0.4 Pn  1.05
 XJAKS 129.82 0.4 Sn  1.21
 XJAKS 73.33 0.4 Pn  1.29
 XJALS 129.65 1.0 Pn  0.14
 XJALS 231.4 1.0 Sn -0.25
 XJATS 104.11 0.4 Sn  1.66
 XJATS 59.09 0.4 Pn  1.64
 XJBAC 156.03 1.0 Sn  0.71
 XJBAC 87.92 1.0 Pn  0.97
 XJBCH 51.43 1.0 Pn  0.04
 XJBCH 91.13 1.0 Sn -0.47
 XJBLT 129.87 1.0 Pn -0.14
 XJBLT 231.47 0.4 Sn -1.07
 XJBPM 54.28 1.0 Pn  0.03
 XJBPM 96.63 1.0 Sn -0.10
 XJCBC 107.86 0.4 Pn  1.17
 XJCBC 191.63 1.0 Sn  0.96
 XJDSZ 132.85 0.4 Pn  1.33
 XJDSZ 237.31 0.4 Sn  2.03
 XJHTA 29.77 0.4 Pg  1.38
 XJHTA 52.41 0.4 Sg  1.99
 XJHTTZ0 23.63 1.0 Pg  0.74
 XJHTTZ0 42.65 0.4 Sg  2.05
 XJJHE 127.01 1.0 Pn  0.57
 XJJHE 226.53 1.0 Sn  0.38
 XJKOL 113.69 1.0 Pn -0.28
 XJKOL 202.33 0.4 Sn -1.40
 XJKSH 50.83 1.0 Pn -0.94
 XJKSH 90.09 0.4 Sn -2.18
 XJKSZ 54.18 1.0 Pn -0.29
 XJKSZ 96.2 1.0 Sn -0.92
 XJKUC 167.14 1.0 Sn  0.39
 XJKUC 93.97 1.0 Pn  0.64
 XJLTA 104.41 0.4 Pn  1.02
 XJLTA 185.12 1.0 Sn  0.36
 XJQMO 151.19 0.4 Sn -2.04
 XJQMO 85.07 1.0 Pn -0.73
 XJRUQ 123.06 0.4 Pn -1.58
 XJRUQ 220.23 0.4 Sn -2.67
 XJSCH 133.21 1.0 Pn  0.69
 XJSCH 237.19 1.0 Sn  0.11
 XJSMY 139.82 0.4 Sn  1.41
 XJSMY 79.14 0.4 Pn  1.62
 XJSTZ 137.02 1.0 Pn  0.03
 XJSTZ 243.87 0.4 Sn -1.27
 XJTAG 41.5 0.4 Pn -2.21
 XJTAG 73.51 0.4 Sn -4.30
 XJWNQ 124.48 1.0 Pn  0.14
 XJWNQ 220.81 0.4 Sn -1.53
 XJWSC 141.57 1.0 Pn -0.29
 XJWSC 252.81 0.4 Sn -1.17
 XJWUQ 104.51 0.4 Sn -2.83
 XJWUQ 59.11 0.4 Pn -1.07
 XJWUS 126.81 1.0 Sn  0.81
 XJWUS 71.72 0.4 Pn  1.14
 XJXKR 52.5 1.0 Pn  0.66
 XJXKR 92.73 1.0 Sn  0.32
 XJXNY 115.56 1.0 Pn  0.50
 XJXNY 205.13 1.0 Sn -0.56
 XJYCH 23.57 1.0 Pg -0.74
 XJYCH 42.48 1.0 Sg -0.64
 XJYJB 39.78 1.0 Pn -0.49
 XJYJB 70.36 0.4 Sn -1.31
 XJYJS 38.84 1.0 Pn -0.93
 XJYJS 68.67 0.4 Sn -2.11
 XJYPH 46.86 1.0 Pn  0.56
 XJYPH 82.76 1.0 Sn  0.28
 XJYUT 47.51 1.0 Pn -0.42
 XJYUT 83.81 0.4 Sn -1.57
 XJZSU 166.53 0.4 Sn  1.13
 XJZSU 94.14 0.4 Pn  1.56
 XZSQHE 105.09 0.4 Sn -7.84
 XZSQHE 59.81 0.4 Pn -3.52
# 2009 03 10 02 42 22.760 37.704 76.064 110 2.4 0 0 1.02705 114 XJ.200903101042.0001 eq
 XJATS 35.69 0.4 Pn  1.07
 XJATS 64.06 0.4 Sn  2.50
 XJBCH 45.16 1.0 Pn -0.72
 XJBCH 79.93 0.4 Sn -1.81
 XJKSH 27.09 1.0 Pg  0.10
 XJKSH 47.95 1.0 Sg  0.05
 XJKSZ 31.89 1.0 Pg  0.05
 XJKSZ 55.66 1.0 Sg -0.91
 XJTAG 18.13 0.4 Pg -1.05
 XJTAG 32.41 0.4 Sg -1.53
 XJWUQ 35.42 1.0 Pn  0.34
 XJWUQ 63.43 0.4 Sn  1.07
 XJXKR 38.37 1.0 Pn -0.31
 XJXKR 67.78 0.4 Sn -1.05
 XJYCH 23.14 1.0 Pg  0.73
 XJYCH 41.25 0.4 Sg  1.53
 XJYJS 20.12 1.0 Pg -0.22
 XJYJS 36.37 1.0 Sg  0.35
 XJYPH 28.26 1.0 Pg  0.12
 XJYPH 49.64 1.0 Sg -0.32
# 2009 03 11 05 09 21.500 36.437 77.424 10 2.1 0 0 1.05277 115 XJ.200903111309.0001 eq
 XJHTTZ0 28.03 1.0 Pg -0.05
 XJHTTZ0 47.46 1.0 Sg  0.83
 XJTAG 41.52 1.0 Pn  0.39
 XJTAG 71.98 1.0 Sn  0.83
 XJYCH 18.16 1.0 Pg  0.36
 XJYCH 32.01 0.4 Sg  2.31
 XJYJS 40.69 1.0 Pg -0.69
 XJYJS 67.68 0.4 Sg -1.18
# 2009 03 13 04 05 51.030 37.368 79.311 9 2.4 0 0 0.824909 116 XJ.200903131205.0001 eq
 XJBCH 43.8 1.0 Pn -0.20
 XJBCH 76.38 1.0 Sn  0.21
 XJHTA 10.84 1.0 Pg  0.74
 XJHTA 18.65 0.4 Sg  1.85
 XJHTTZ0 5.11 1.0 Pg -0.45
 XJHTTZ0 8.38 1.0 Sg -0.86
 XJYCH 29.4 1.0 Pg  0.35
 XJYCH 48.51 1.0 Sg  0.26
 XJYJS 44.45 1.0 Pn -0.22
 XJYJS 77.65 1.0 Sn  0.40
 XJYUT 42.22 1.0 Pn -0.22
 XJYUT 71.83 0.4 Sn -1.65
# 2009 03 13 04 59 08.820 37.232 79.332 6 2.8 0 0 1.14331 117 XJ.200903131258.0001 eq
 XJAHQ 107.82 0.4 Sn  1.68
 XJAHQ 62.17 1.0 Pn  0.79
 XJBCH 45.06 1.0 Pn -0.79
 XJBCH 78.67 1.0 Sn -0.64
 XJHTA 17.14 0.4 Sg  2.46
 XJHTA 9.66 1.0 Pg  0.88
 XJHTTZ0 4.03 1.0 Pg -0.50
 XJHTTZ0 7.15 1.0 Sg -0.44
 XJTAG 56.48 1.0 Pn  0.65
 XJTAG 97.17 1.0 Sn  0.58
 XJWUQ 114.75 0.4 Sn  1.64
 XJWUQ 66.74 0.4 Pn  1.29
 XJXKR 50 1.0 Pn -0.36
 XJXKR 87.48 1.0 Sn  0.39
 XJYCH 29.91 1.0 Pg  0.39
 XJYCH 50.15 0.4 Sg  1.13
 XJYJS 44.89 1.0 Pn -0.88
 XJYJS 78 0.4 Sn -1.15
 XJYUT 40.11 0.4 Pn -1.47
 XJYUT 70.13 0.4 Sn -1.82
# 2009 03 13 06 12 46.140 37.023 79.295 6 2.2 0 0 0.946818 118 XJ.200903131412.0001 eq
 XJHTA 17.1 0.4 Sg  1.90
 XJHTA 9.89 1.0 Pg  0.76
 XJHTTZ0 5 1.0 Pg  0.39
 XJHTTZ0 8.26 1.0 Sg  0.45
 XJKSH 102.02 1.0 Sn -0.85
 XJKSH 58.36 0.4 Pn -1.12
 XJTAG 55.51 1.0 Pn -0.53
 XJTAG 97.57 1.0 Sn  0.63
 XJYCH 30.45 1.0 Pg  0.77
 XJYCH 51.03 0.4 Sg  1.75
 XJYJS 46.16 1.0 Pn -0.78
 XJYJS 81.86 1.0 Sn  0.65
 XJYUT 41.67 1.0 Pn  0.52
 XJYUT 71.83 1.0 Sn  0.63
# 2009 03 13 09 46 26.460 37.217 79.388 6 2.5 0 0 1.23573 119 XJ.200903131746.0001 eq
 XJBCH 46.44 1.0 Pn  0.33
 XJBCH 79.91 1.0 Sn  0.09
 XJHTA 15.65 0.4 Sg  2.21
 XJHTA 9.13 0.4 Pg  1.09
 XJHTTZ0 4.59 1.0 Pg -0.65
 XJHTTZ0 7.95 1.0 Sg -0.75
 XJTAG 56.85 1.0 Pn  0.39
 XJTAG 98.64 0.4 Sn  1.01
 XJYCH 31.12 1.0 Pg  0.70
 XJYCH 52.43 0.4 Sg  1.97
 XJYJB 31.73 0.4 Pg -1.09
 XJYJB 53.65 1.0 Sg -0.82
 XJYJS 45.09 0.4 Pn -1.25
 XJYJS 77.35 0.4 Sn -2.83
 XJYUT 41.48 1.0 Pn  0.48
 XJYUT 71.13 1.0 Sn  0.23
