# 2009 04 18 12 29 47.810 36.981 77.005 96 1.6 0 0 0.478771 153 XJ.200904182029.0001 eq
 XJBPM 43.71 1.0 Pn -0.81
 XJBPM 79.53 1.0 Sn  0.22
 XJHTTZ0 28.53 1.0 Pg  0.28
 XJHTTZ0 50.22 1.0 Sg  0.07
 XJKSH 38.72 1.0 Pn  0.28
 XJKSH 69.03 1.0 Sg  0.61
 XJTAG 29.15 1.0 Pg  0.44
 XJTAG 50.88 1.0 Sg -0.07
 XJYCH 15.06 1.0 Pg -0.70
 XJYCH 28.13 1.0 Sg  0.28
 XJYJS 27 1.0 Pg -0.46
 XJYJS 48.03 1.0 Sg -0.71
 XJYPH 36.35 1.0 Pg  0.69
 XJYPH 63.33 1.0 Sg -0.11
# 2009 04 18 22 02 38.220 37.842 76.402 5 2.8 0 0 1.3254 154 XJ.200904190602.0002 eq
 XJATS 37.66 1.0 Pn -0.33
 XJATS 66.29 1.0 Sn  0.54
 XJBCH 48.1 1.0 Pn  0.99
 XJBCH 83.54 0.4 Sn  2.03
 XJBPM 35.84 0.4 Pn -2.94
 XJBPM 64.23 0.4 Sn -2.84
 XJHTTZ0 40.82 1.0 Pn  0.11
 XJHTTZ0 70.98 1.0 Sn  0.47
 XJKSH 27.03 1.0 Pg -0.27
 XJKSH 46.34 1.0 Sg  0.94
 XJKSZ 34.2 1.0 Pg  0.76
 XJKSZ 57.29 0.4 Sg  1.77
 XJTAG 19.01 1.0 Pg  0.76
 XJTAG 31.6 0.4 Sg  1.25
 XJWUQ 38.72 1.0 Pn -0.54
 XJWUQ 67.56 1.0 Sn -0.39
 XJXKR 39.87 1.0 Pn -0.46
 XJXKR 68.78 1.0 Sn -1.00
 XJYCH 17.72 0.4 Pg  1.20
 XJYCH 29.43 0.4 Sg  1.97
 XJYJS 12.69 1.0 Pg -0.06
 XJYJS 22.44 0.4 Sg  1.21
 XJYPH 26.85 1.0 Pg  0.79
 XJYPH 45.25 0.4 Sg  1.96
# 2009 04 20 00 44 48.590 37.888 76.445 8 2.8 0 0 1.66682 155 XJ.200904200844.0001 eq
 XJATS 37.85 1.0 Pn  0.33
 XJATS 66.98 0.4 Sn  2.08
 XJBCH 44.81 0.4 Pn -1.52
 XJBCH 78.85 0.4 Sn -1.32
 XJBPM 35.82 0.4 Pn -2.31
 XJBPM 63.18 0.4 Sn -2.78
 XJKSH 27.16 1.0 Pg  0.31
 XJKSH 45.94 0.4 Sg  1.37
 XJKSZ 32.5 1.0 Pg -0.25
 XJKSZ 55.05 1.0 Sg  0.68
 XJTAG 19.19 1.0 Pg  0.26
 XJTAG 32.51 1.0 Sg  0.98
 XJWUQ 39.52 1.0 Pn  0.64
 XJWUQ 70.18 0.4 Sn  2.87
 XJXKR 38.91 1.0 Pn -0.71
 XJXKR 69.14 1.0 Sn  0.58
 XJYCH 17.85 0.4 Pg  1.39
 XJYCH 30.01 0.4 Sg  2.65
 XJYJS 12.86 0.4 Pg  1.01
 XJYJS 22.48 0.4 Sg  2.74
 XJYPH 25.95 1.0 Pg  0.85
 XJYPH 44.59 0.4 Sg  2.89
# 2009 04 21 22 11 16.040 37.788 77.670 9 1.4 0 0 1.45216 156 XJ.200904220611.0001 eq
 XJHTTZ0 23.5 1.0 Pg -0.25
 XJHTTZ0 40.45 0.4 Sg  1.03
 XJTAG 35.95 0.4 Pg -1.08
 XJTAG 61.48 1.0 Sg -0.02
 XJYCH 17.08 0.4 Sg  2.51
 XJYCH 8.99 1.0 Pg  0.30
 XJYJS 23.2 0.4 Pg  1.03
 XJYJS 39.58 0.4 Sg  2.67
# 2009 04 24 01 34 55.790 37.766 76.510 5 2.1 0 0 0.602536 157 XJ.200904240934.0001 eq
 XJKSH 28.66 1.0 Pg -0.63
 XJKSH 49.14 1.0 Sg  0.47
 XJTAG 20.33 1.0 Pg  0.47
 XJTAG 33.72 1.0 Sg  0.76
 XJYCH 14.46 1.0 Pg  0.08
 XJYCH 25.15 0.4 Sg  1.12
 XJYJS 14.17 1.0 Pg  0.08
 XJYJS 23.96 1.0 Sg  0.47
# 2009 04 24 05 44 13.760 37.780 77.113 5 1.6 0 0 1.48573 158 XJ.200904241344.0001 eq
 XJHTTZ0 30.29 1.0 Pg -0.87
 XJHTTZ0 52.95 0.4 Sg  1.21
 XJTAG 28.07 1.0 Pg -0.71
 XJTAG 49.03 0.4 Sg  1.21
 XJYCH 15.68 0.4 Sg  1.93
 XJYCH 8.92 1.0 Pg  0.67
 XJYJS 17.51 1.0 Pg  0.91
 XJYJS 30.59 0.4 Sg  2.91
# 2009 04 25 05 01 36.580 37.643 77.732 5 1.7 0 0 1.46092 159 XJ.200904251301.0002 eq
 XJHTTZ0 22.35 1.0 Pg  0.69
 XJHTTZ0 38.59 0.4 Sg  2.60
 XJTAG 37.18 1.0 Pg -0.88
 XJTAG 64.49 0.4 Sg  1.24
 XJYCH 13.57 0.4 Sg  1.24
 XJYCH 7.12 1.0 Pg -0.29
 XJYJS 25.14 1.0 Pg  0.49
 XJYJS 43.36 0.4 Sg  2.38
# 2009 04 27 01 44 43.990 37.195 76.327 60 1.7 0 0 0.655715 160 XJ.200904270944.0001 eq
 XJHTTZ0 33.59 1.0 Pn -0.63
 XJHTTZ0 60.34 1.0 Sn -0.51
 XJKSH 33.3 0.4 Pg  1.09
 XJKSH 56.75 1.0 Sg -0.50
 XJTAG 19.96 1.0 Pg  0.14
 XJTAG 34.23 1.0 Sg -0.75
 XJYJS 23.48 1.0 Pg  0.80
 XJYJS 40.48 1.0 Sg  0.35
# 2009 04 28 03 28 46.800 37.324 76.202 107 2.0 0 0 0.184459 161 XJ.200904281128.0001 eq
 XJHTTZ0 36.85 1.0 Pn  0.04
 XJHTTZ0 65.19 1.0 Sn -0.29
 XJTAG 20.88 1.0 Pg -0.07
 XJTAG 36.98 1.0 Sg -0.12
 XJYCH 20.95 1.0 Pg  0.36
 XJYCH 36.59 1.0 Sg  0.14
 XJYJS 23.48 1.0 Pg -0.12
 XJYJS 41.89 1.0 Sg  0.06
# 2009 04 28 11 37 11.630 36.820 76.828 110 2.9 0 0 1.10576 162 XJ.200904281937.0001 eq
 XJBCH 49.88 1.0 Pn -0.82
 XJBCH 88.8 0.4 Sn -1.58
 XJBPM 45.63 0.4 Pn -1.32
 XJBPM 82.89 1.0 Sn -0.76
 XJHTA 39.54 1.0 Pn  0.20
 XJHTA 71.7 0.4 Sn  1.68
 XJHTTZ0 30.95 1.0 Pg -0.03
 XJHTTZ0 55.56 1.0 Sg  0.52
 XJKSH 40.83 1.0 Pn  0.84
 XJKSH 73.26 0.4 Sn  2.08
 XJTAG 28.55 1.0 Pg -0.44
 XJTAG 52.41 1.0 Sg  0.96
 XJXKR 47.69 1.0 Pn  0.74
 XJXKR 85.35 0.4 Sn  1.68
 XJYCH 17.86 1.0 Pg -0.96
 XJYCH 32.47 1.0 Sg -0.85
 XJYJS 29.14 1.0 Pg -0.59
 XJYJS 51.43 0.4 Sg -1.37
# 2009 05 03 18 37 54.020 36.202 77.216 9 3.0 0 0 1.25525 163 XJ.200905040237.0001 eq
 XJBCH 105.16 0.4 Sn -1.76
 XJBCH 60.2 0.4 Pn -1.63
 XJHTA 43.15 1.0 Pn  0.83
 XJHTA 74.03 1.0 Sn  0.78
 XJHTTZ0 32.68 1.0 Pg -0.32
 XJHTTZ0 55.52 1.0 Sg  0.62
 XJKSH 55.6 0.4 Pn  1.48
 XJKSH 96.67 0.4 Sn  3.08
 XJTAG 40.84 1.0 Pn -0.60
 XJTAG 72.11 1.0 Sn  0.35
 XJYCH 22.01 1.0 Pg -0.31
 XJYCH 38.45 0.4 Sg  1.33
 XJYJS 43.61 1.0 Pn  0.55
 XJYJS 74.96 1.0 Sn  0.44
# 2009 05 06 04 50 13.640 36.491 78.186 122 3.5 0 0 2.05137 164 XJ.200905061250.0003 eq
XJBCH 50.46 1.0 Pn 0.40
XJBKO 187.66 0.4 P -2.20
XJBKO 334.36 0.4 S -5.10
XJKOL 113.46 0.4 P -3.30
XJKOL 201.56 0.4 S -7.10
XJWNQ 124.56 0.4 eP -2.50
XJWUS 125.66 0.4 Sn -2.30
XJWUS 70.76 1.0 -Pn 0.90
GDXNY 114.56 0.4 eP -1.40
GDXNY 203.76 0.4 S -3.50
 XJAKS 128.25 1.0 Sn  0.51
 XJAKS 72.76 0.4 Pn  1.21
 XJBCH 50.4 1.0 Pn -0.46
 XJBCH 90.81 1.0 Sn  0.16
 XJBPM 51.61 0.4 Pn -2.18
 XJBPM 92.12 0.4 Sn -3.78
 XJHTA 28.51 1.0 Pg  0.63
 XJHTA 51.02 0.4 Sg  1.52
 XJHTTZ0 21.7 1.0 Pg -0.56
 XJHTTZ0 39.21 1.0 Sg -0.25
 XJKSH 51.73 1.0 Pn  0.33
 XJKSH 91.08 1.0 Sn -0.52
 XJKSZ 54.78 1.0 Pn  0.72
 XJKSZ 97.59 0.4 Sn  1.20
 XJKUC 166.99 0.4 Sn  1.01
 XJKUC 94.7 0.4 Pn  1.80
 XJQMO 151.01 0.4 Sn -1.83
 XJQMO 85.64 1.0 Pn  0.06
 XJRUQ 123.65 1.0 Pn -0.80
 XJRUQ 219.74 0.4 Sn -2.74
 XJTAG 43.79 1.0 Pn  0.33
 XJTAG 77.91 1.0 Sn  0.56
 XJYCH 22.53 0.4 Pg -1.22
 XJYCH 40.83 0.4 Sg -1.29
 XJYJB 40.39 1.0 Pn  0.37
 XJYJB 72.27 0.4 Sn  1.06
 XJYJS 38.77 1.0 Pn -0.56
 XJYJS 68.66 0.4 Sn -1.32
 XJYUT 47.19 1.0 Pn -0.50
 XJYUT 84.59 1.0 Sn -0.36
# 2009 05 06 17 50 42.980 37.930 76.759 10 1.2 0 0 1.42218 165 XJ.200905070150.0001 eq
 XJTAG 23.37 1.0 Pg -0.33
 XJTAG 40.52 0.4 Sg  1.17
 XJYCH 14.18 1.0 Pg  0.76
 XJYCH 25.35 0.4 Sg  2.92
 XJYJS 11.34 1.0 Pg -0.43
 XJYJS 20.72 0.4 Sg  1.17
# 2009 05 09 21 14 55.980 36.621 78.994 5 2.7 0 0 1.66866 166 XJ.200905100514.0001 eq
 XJBCH 50.07 0.4 Pn -3.48
 XJBCH 87.78 0.4 Sn -4.81
 XJHTA 17.33 0.4 Pg  1.12
 XJHTA 28.8 0.4 Sg  1.73
 XJHTTZ0 10.59 1.0 Pg  0.43
 XJHTTZ0 17.43 1.0 Sg  0.45
 XJTAG 55.26 1.0 Pn  0.61
 XJTAG 95 1.0 Sn  0.49
 XJWUQ 116.77 0.4 Sn -1.55
 XJWUQ 67.21 0.4 Pn -1.20
 XJXKR 56.38 1.0 Pn -0.08
 XJXKR 97.1 1.0 Sn -0.54
 XJYCH 29.04 1.0 Pg  0.70
 XJYCH 48.93 0.4 Sg  1.88
 XJYJB 33.98 1.0 Pg -0.54
 XJYJB 57.11 1.0 Sg -0.22
 XJYJS 46.71 0.4 Pn -1.15
 XJYJS 80.54 0.4 Sn -2.27
 XJYUT 43.61 1.0 Pn  0.11
 XJYUT 75.7 1.0 Sn  0.45
# 2009 05 10 10 17 48.010 36.166 77.203 0 3.5 0 0 1.0908 167 XJ.200905101817.0001 eq
 XJAHQ 134.85 0.4 Sn  1.75
 XJAHQ 75.57 1.0 Pn  0.84
 XJAKS 147.37 1.0 Sn -0.39
 XJAKS 82.94 1.0 Pn  0.05
 XJATS 105.76 1.0 Sn -0.73
 XJATS 59.42 1.0 Pn -0.51
 XJBCH 106.87 1.0 Sn -0.47
 XJBCH 59.84 1.0 Pn -0.56
 XJBPM 104.16 1.0 Sn -0.57
 XJBPM 55.97 0.4 Pn -2.98
 XJHTA 41.03 1.0 Pn  0.77
 XJHTA 71.82 1.0 Sn  0.71
 XJHTTZ0 33.13 0.4 Pg -1.50
 XJHTTZ0 58.53 0.4 Sg -1.25
 XJKSH 53.27 1.0 Pn  0.85
 XJKSH 94.27 0.4 Sn  1.27
 XJKSZ 55.98 1.0 Pn -0.81
 XJKSZ 99.93 1.0 Sn -0.92
 XJTAG 39 1.0 Pn -0.61
 XJTAG 69.01 1.0 Sn -0.91
 XJWUQ 110.47 0.4 Sn  1.28
 XJWUQ 61.64 1.0 Pn  0.20
 XJXKR 103.61 1.0 Sn  0.26
 XJXKR 57.84 1.0 Pn -0.34
 XJYCH 21.91 0.4 Pg -1.92
 XJYCH 39.1 0.4 Sg -2.04
 XJYJS 41.45 1.0 Pn  0.37
 XJYJS 73.66 0.4 Sn  1.06
 XJYUT 109.48 1.0 Sn  0.55
 XJYUT 61.15 1.0 Pn -0.14
# 2009 05 11 00 09 53.520 36.326 76.274 6 2.3 0 0 0.804746 168 XJ.200905110809.0001 eq
 XJBPM 102.56 1.0 Sn  0.50
 XJBPM 58.81 1.0 Pn -0.19
 XJHTTZ0 42.35 1.0 Pn -0.64
 XJHTTZ0 73.83 1.0 Sn -0.56
 XJKSH 50.19 1.0 Pn  0.67
 XJKSH 87.75 0.4 Sn  2.07
 XJTAG 31.67 1.0 Pg -0.19
 XJTAG 51.95 1.0 Sg -0.89
 XJYCH 26.17 1.0 Pg  0.43
 XJYCH 43.33 1.0 Sg  0.58
 XJYJS 41.12 1.0 Pg -0.08
 XJYJS 67.68 1.0 Sg -0.82
# 2009 05 11 15 45 01.130 37.303 79.263 7 1.8 0 0 3.16106 169 XJ.200905112344.0001 eq
 XJHTA 10.81 1.0 Pg  0.64
 XJHTA 18.96 0.4 Sg  1.95
 XJHTTZ0 2.94 0.4 Pg -1.40
 XJHTTZ0 5.94 0.4 Sg -1.20
 XJTAG 103.67 0.4 Sn  8.66
 XJTAG 60.04 0.4 Pn  5.09
 XJYCH 30 0.4 Pg  1.64
 XJYCH 49.86 0.4 Sg  2.77
 XJYJS 44.44 1.0 Pn -0.22
 XJYJS 77.85 1.0 Sn  0.64
 XJYUT 41.9 1.0 Pn -0.67
 XJYUT 73.38 1.0 Sn -0.35
# 2009 05 14 05 24 57.900 36.393 78.210 117 2.4 0 0 1.10266 170 XJ.200905141324.0001 eq
 XJBCH 52.46 1.0 Pn  0.49
 XJBCH 92.41 1.0 Sn -0.23
 XJHTA 27.57 1.0 Pg -0.25
 XJHTA 46.78 0.4 Sg -2.61
 XJHTTZ0 23.45 0.4 Pg  1.11
 XJHTTZ0 41.88 0.4 Sg  2.28
 XJTAG 43.41 1.0 Pn -0.70
 XJTAG 78.4 1.0 Sn -0.14
 XJXKR 53.73 0.4 Pn  1.21
 XJXKR 94.24 1.0 Sn  0.60
 XJYCH 23.93 1.0 Pg -0.34
 XJYCH 42.84 1.0 Sg -0.21
 XJYJS 40.01 1.0 Pn -0.29
 XJYJS 70.81 1.0 Sn -0.92
# 2009 05 16 17 15 08.520 37.563 78.535 5 2.1 0 0 1.5444 171 XJ.200905170115.0001 eq
 XJBCH 73.55 0.4 Sn  2.50
 XJHTA 23.48 0.4 Pg  1.37
 XJHTA 39.3 0.4 Sg  2.56
 XJHTTZ0 11.05 1.0 Pg  0.24
 XJHTTZ0 18.64 1.0 Sg  0.70
 XJKSH 47.49 0.4 Pn -1.23
 XJKSH 81.97 0.4 Sn -2.37
 XJXKR 41.72 0.4 Pn -1.28
 XJXKR 71.89 0.4 Sn -2.52
 XJYCH 17.56 1.0 Pg -0.16
 XJYCH 30.36 1.0 Sg  0.89
 XJYJS 36.16 0.4 Pg  1.07
 XJYJS 59.11 1.0 Sg  0.77
 XJYUT 89.01 1.0 Sn  0.70
# 2009 05 18 06 15 46.800 37.432 76.083 37 2.3 0 0 1.42802 172 XJ.200905181415.0002 eq
 XJBCH 46.48 1.0 Pn -0.98
 XJBCH 82.64 1.0 Sn -0.56
 XJBPM 38.11 1.0 Pn -0.57
 XJBPM 68.56 1.0 Sn  0.80
 XJHTTZ0 36.3 1.0 Pn -0.63
 XJHTTZ0 65.4 1.0 Sn  0.53
 XJKSH 30.06 0.4 Pg -2.05
 XJKSH 53.34 0.4 Sg -2.62
 XJTAG 15.84 1.0 Pg  0.18
 XJTAG 30.22 0.4 Sg  2.43
 XJXKR 40.31 1.0 Pn -0.34
 XJXKR 72.5 0.4 Sn  1.28
 XJYJS 21.12 1.0 Pg -0.10
 XJYJS 38.81 0.4 Sg  2.62
# 2009 05 19 08 17 41.650 36.141 78.108 32 2.8 0 0 0.93841 173 XJ.200905191617.0001 eq
 XJAHQ 122.68 1.0 Sn  0.09
 XJAHQ 69.28 1.0 Pn -0.60
 XJAKS 131.69 0.4 Sn -1.41
 XJAKS 75.22 1.0 Pn -0.63
 XJBCH 53.76 0.4 Pn -1.14
 XJBCH 95.35 1.0 Sn -0.91
 XJBPM 101.76 0.4 Sn  1.14
 XJBPM 57.72 1.0 Pn  0.34
 XJHTA 30.46 1.0 Pg -1.00
 XJHTA 53.49 0.4 Sg -1.59
 XJHTTZ0 24.01 1.0 Pg  0.55
 XJHTTZ0 42.42 0.4 Sg  1.74
 XJQMO 154.15 0.4 Sn  2.22
 XJQMO 86.85 1.0 Pn  0.29
 XJTAG 44.17 1.0 Pn  0.33
 XJTAG 76.74 1.0 Sn -0.06
 XJXKR 55.1 1.0 Pn -0.07
 XJXKR 96.91 1.0 Sn  0.18
 XJYCH 25.35 1.0 Pg  0.01
 XJYCH 45.05 1.0 Sg  0.97
 XJYJS 41.44 1.0 Pn -0.22
 XJYJS 72.72 1.0 Sn -0.26
# 2009 05 21 00 02 41.380 37.180 76.319 87 1.5 0 0 0.650932 174 XJ.200905210802.0001 eq
 XJKSH 34.05 0.4 Pg  1.04
 XJKSH 59.43 1.0 Sg  0.75
 XJTAG 20.66 1.0 Pg -0.55
 XJTAG 37.55 1.0 Sg  0.03
 XJYCH 18.09 1.0 Pg -0.19
 XJYCH 32.75 1.0 Sg  0.44
 XJYJS 23.33 1.0 Pg -0.62
 XJYJS 41.53 1.0 Sg -0.91
# 2009 05 21 12 33 54.300 36.370 77.720 89 4.6 0 0 2.32377 175 CB.200905212033.0001 eq
GSAXX 203.5 0.4 +P -2.10
GSAXX 223.5 0.4 pP 4.10
GSAXX 231.8 1.0 sP -0.10
GSAXX 361.7 0.4 S -5.00
XJBCH 53.5 1.0 P -0.50
XJBCH 94.1 1.0 S -0.30
BUBJI 364.5 1.0 P -0.70
BUBJI 660.5 0.4 S 3.80
XJBKO 193.2 1.0 -iP 0.60
XJBKO 202.3 0.4 pP -3.60
XJBKO 214.7 0.4 sP -4.00
XJBKO 343 1.0 S 0.10
HLBNX 431.8 1.0 -P -0.20
HLBNX 454.3 0.4 pP 1.10
HLBNX 466 0.4 sP 1.90
HLBNX 521 0.4 PP -1.90
HLBNX 777.7 1.0 S 0.60
HLBNX 816.7 0.4 sS 1.90
SCBTA 257.1 1.0 +P -0.40
SCBTA 274 1.0 pP 0.50
SCBTA 287.2 0.4 sP 1.30
SCBTA 461.2 1.0 S -0.50
SCBTA 485 0.4 sS -3.70
SCBTA 490 1.0 SS -1.00
SCBTA 945 0.2 ScS 0.00
NMBTO 323.5 1.0 eP 1.00
SCCD2 291.7 1.0 P 0.30
SCCD2 310.2 1.0 pP -0.60
SCCD2 320.8 0.4 sP -1.30
SCCD2 323.1 0.4 PP 1.10
SCCD2 525 1.0 PcP 0.20
SCCD2 527.6 0.4 S 2.20
SCCD2 558.8 1.0 sS -0.40
SCCD2 575 0.4 SS 2.50
 CBCIF 383 1.0 +iP  0.80
JLCN2 422.3 1.0 eP 0.70
JLCN2 440.6 0.4 epP -2.20
JLCN2 449.5 0.4 esP -4.10
JLCN2 560.6 1.0 PcP -1.00
JLCN2 761.6 0.4 eS 3.30
HNCNS 368.6 1.0 -P -0.60
 CBCQI 318.7 1.0 P  0.10
 CBCQI 359.2 1.0 PP -0.90
 CBCQI 578.7 0.4 S  5.00
 CBDAJ 345.5 1.0 P  0.20
LNDL2 403.2 1.0 P 0.40
QHDUL 226.7 1.0 +eP -0.40
QHDUL 239.2 0.4 pP -2.80
QHDUL 249.8 0.4 sP -4.30
QHDUL 412.5 0.4 S 7.20
QHDUL 424 0.4 SS -4.10
HBENS 337.2 1.0 +P -0.10
HBENS 356.2 0.4 pP -1.30
HBENS 365.3 0.4 sP -3.20
HBENS 609.1 0.4 S 2.20
HBENS 638.1 0.4 sS -5.00
YNEYA 283.5 1.0 +eP -0.30
YNEYA 304 1.0 pP 1.00
YNEYA 312.5 1.0 PP 0.90
YNEYA 315.6 0.4 sP 1.30
YNEYA 512 1.0 S 0.70
YNEYA 523.2 1.0 PcP -0.10
YNEYA 544.6 1.0 sS 0.70
YNEYA 730.2 1.0 ScP -0.50
YNEYA 953.3 1.0 ScS -0.40
HLFUY 190.7 0.4 -iP -2.30
HLFUY 204.5 0.4 PP -1.90
HLFUY 218.5 1.0 sP -0.60
HLFUY 339.1 0.4 S -4.70
HLFUY 359 0.4 SS -3.80
HLFUY 510.6 0.2 PcP 0.00
HLFUY 714 1.0 ScP -0.70
HLFUY 724 1.0 PcS -0.10
XJGAZ 256.2 0.4 P -2.40
YNGEJ 322.6 1.0 +eP 0.50
YNGEJ 342.2 1.0 pP 0.10
YNGEJ 352.5 1.0 sP -0.80
YNGEJ 366.1 0.4 PP 1.50
YNGEJ 531.7 1.0 PcP 0.20
YNGEJ 582 0.4 S 2.20
YNGEJ 616.5 1.0 sS 0.50
YNGEJ 742 1.0 ScP 0.70
YNGEJ 752.2 0.4 PcS 1.50
QHGOM 195.1 0.4 -iP 1.40
QHGOM 208.3 0.4 pP 1.30
QHGOM 209.3 0.4 PP 2.40
QHGOM 349.8 0.4 S 5.20
QHGOM 368.3 0.4 sS 2.40
QHGOM 510.3 1.0 PcP -0.40
GSGTA 242.1 1.0 P -0.30
GSGTA 258.5 1.0 pP 0.30
GSGTA 271.2 0.4 sP 1.50
GSGTA 442 0.4 S 8.70
GXGUL 361.6 0.4 +P -1.10
 CBGUN1 283.5 0.4 P  1.50
 CBGUN1 509.7 0.4 S  1.60
BUGUY 396 1.0 -P 0.60
YNGYA 331 1.0 P -0.50
YNGYA 350.3 0.4 pP -1.30
YNGYA 361.6 0.4 sP -1.10
YNGYA 377 0.4 PP -1.40
YNGYA 533.6 1.0 PcP -0.20
YNGYA 602 0.4 S 5.50
YNGYA 627.3 0.4 sS -5.40
YNGYA 671.5 0.4 SS -2.10
YNGYA 744.6 1.0 ScP 0.40
AHHEF 388.2 1.0 P 0.90
HLHEG 1045.8 0.4 ScS 3.30
HLHEG 448.1 1.0 P 0.80
HLHEG 468.2 1.0 pP -0.40
HLHEG 542 0.4 PP -1.80
HLHEG 570.7 1.0 PcP -0.60
HLHEG 808.5 0.4 S 3.60
HLHEG 844.2 0.4 sS 1.40
NMHHC 334 1.0 eP 0.70
NMHHC 382.3 0.4 PP 1.10
NMHHC 534.3 0.2 PcP 0.00
NMHHC 603.7 0.4 S 3.90
NMHHC 633.5 0.4 sS -2.60
NMHHC 681 0.4 SS 2.50
NMHHC 746.3 0.4 ScP 1.50
NMHHC 754.7 1.0 PcS 0.40
NMHHC 976.6 0.4 ScS 2.40
 CBHHE 1033.5 0.4 ScS  2.10
 CBHHE 432.1 1.0 eP  0.70
 CBHHE 451 0.4 pP -1.70
 CBHHE 460.6 0.4 sP -2.90
 CBHHE 567.8 0.4 PcP  2.60
 CBHHE 776.3 1.0 S  0.20
 CBHHE 796.5 0.4 PcS  3.80
 CBHHE 808.8 0.4 sS -5.00
 CBHHE 937.5 1.0 SS -0.40
NMHLR 388 1.0 +P -0.80
NMHLR 406.8 0.4 pP -2.80
NMHLR 464.5 0.4 PP 3.20
NMHLR 702.3 0.4 S 3.40
HEHNS 358.6 1.0 +P 0.50
HEHNS 649 0.4 S 4.90
XJHTA 35.2 0.4 -P 3.50
XJHTA 58.6 0.4 S 4.10
QHHUY 256.5 1.0 +iP 0.30
QHHUY 269.5 0.4 pP -2.60
QHHUY 274.5 1.0 PP -0.90
QHHUY 280.5 0.4 sP -4.00
QHHUY 462.3 0.4 S 3.00
QHHUY 482.5 0.4 sS -3.60
QHHUY 491 0.4 SS 2.90
QHHUY 516.2 0.4 PcP -2.20
QHHUY 726.7 0.4 ScP 2.20
QHHUY 736 0.4 PcS 2.10
QHHUY 947.5 0.4 ScS 2.90
ZJHUZ 410.6 1.0 +P 0.10
HLJGD 414.1 1.0 +P 0.40
HLJGD 431.7 0.4 pP -3.10
HLJGD 441.5 0.4 sP -4.20
HLJGD 557.3 0.4 PcP -1.40
HLJGD 743.5 1.0 S -0.30
YNKMI 309.7 1.0 +P 0.30
YNKMI 327.7 0.4 pP -1.60
YNKMI 339.3 0.4 sP -1.10
YNKMI 347.6 0.2 PP 0.00
YNKMI 560 0.4 S 2.50
YNKMI 592.6 1.0 sS -0.60
YNKMI 619.5 0.4 SS 2.90
XJKMY 150.5 0.4 P -1.80
XJKOL 119.1 0.4 -iP -1.40
XJKOL 206.2 0.4 S -7.50
XJKSH 51.1 1.0 -iP 0.70
XJKSH 70.2 0.4 esP -2.40
XJKSH 90.1 0.4 iS 2.20
 CBLNF1 336.1 1.0 P -0.40
 CBLNF1 359 0.4 pP  2.30
 CBLNF1 369.3 0.4 sP  1.60
XZLSA 183.3 1.0 P -0.80
XZLSA 199.7 0.4 pP 2.80
JSLYG 395.3 1.0 -P 0.70
HALYN 345.7 0.4 +P -1.60
HALYN 379.8 0.4 sP 1.20
HALYN 630 0.4 S 5.10
GSLZH 279.8 1.0 +P 0.70
GSLZH 300.3 0.4 pP 2.20
GSLZH 307.5 0.4 PP 1.80
GSLZH 311.5 0.4 sP 2.10
GSLZH 506.5 0.4 S 3.90
GSLZH 532 0.4 sS -1.70
AHMCG 378 1.0 P -0.60
HLMDJ 446.2 1.0 P 0.60
HLMDJ 465 0.4 pP -1.90
HLMDJ 474.5 0.4 sP -3.30
HLMDJ 566.3 0.4 PcP -4.30
HLMDJ 806.5 0.4 S 4.60
HLMDJ 839 1.0 sS -0.70
HLMIH 457.3 1.0 P -0.20
JSNJ2 398.7 1.0 eP 0.30
JXNNC 387.5 1.0 +iP 0.20
JXNNC 700 0.4 S 3.80
HLNZN 406.3 1.0 +P 0.80
HLNZN 434.5 0.4 sP -2.90
HLNZN 487 0.4 PP 1.80
HLNZN 733.3 0.4 S 4.20
HLNZN 766.5 1.0 sS 0.20
SCPZH 294.5 1.0 +P -0.50
SCPZH 315.8 0.4 pP 1.20
SCPZH 327.7 0.4 sP 1.90
SCPZH 539 0.4 S 7.20
HIQZN 388.6 1.0 P -0.90
HIQZN 408 0.4 pP -2.30
HIQZN 416.8 0.4 sP -4.40
HIQZN 703 0.4 S 2.80
LNSNY 410.5 0.4 -P -1.30
LNSNY 743.7 0.4 S 3.20
 CBSOA1 285.1 1.0 eP  0.30
 CBSOA1 305.5 0.4 pP  1.50
 CBSOA1 314.8 0.4 PP  2.00
 CBSOA1 317.5 0.4 sP  2.20
 CBSOA1 515 0.4 S  2.00
 CBSOA1 522.7 1.0 PcP -0.80
 CBSOA1 549 0.4 sS  3.00
 CBSOA1 559.5 0.4 SS  3.90
SHSSE 416.3 1.0 P -0.80
SHSSE 444.7 0.4 sP -4.40
SHSSE 500.1 1.0 PP -1.00
SHSSE 752.8 0.4 S 2.70
 CBTCG1 279.5 1.0 +iP -0.10
 CBTCG1 297 0.4 pP -1.60
 CBTCG1 306.3 1.0 PP -0.10
 CBTCG1 308 0.4 sP -1.90
 CBTCG1 502.7 1.0 S -0.80
 CBTCG1 545.1 0.4 SS  2.40
 CBTHA1 428 1.0 +P  1.00
 CBTHA1 448.3 1.0 pP  0.10
 CBTHA1 459 1.0 sP -0.10
 CBTHA1 519.1 0.4 PP  3.10
 CBTHA1 770.7 0.4 S  2.60
 CBTHA1 806 1.0 sS  0.20
GSTSS 300.5 1.0 P 1.00
GSTSS 320.7 0.4 pP 1.50
GSTSS 332.5 0.4 sP 2.10
GSTSS 547.2 0.4 S 7.40
HLWDL 424.7 1.0 P 0.40
HLWDL 443 0.4 pP -2.40
HLWDL 452 0.4 sP -4.30
HLWDL 765.2 0.4 S 2.20
HBWHN 370.8 1.0 P -0.50
HBWHN 669.3 0.4 S 1.70
NMWJH 309.5 1.0 eP 1.00
NMWJH 329 1.0 pP 0.60
NMWJH 341.2 0.4 sP 1.70
NMWJH 347.6 0.4 PP 1.10
NMWJH 557.5 0.4 S 1.40
NMWJH 593.2 0.4 sS 1.70
XJWMQ 150.5 0.4 P -1.10
XJWMQ 161 1.0 PP -0.90
XJWMQ 172.1 0.4 sP -4.50
XJWMQ 272.5 0.4 S 3.10
XJWMQ 288.2 0.4 SS 3.00
XJWMQ 503.5 0.4 PcP -3.60
XJWMQ 716 0.4 PcS -3.40
XJWMQ 922 0.4 ScS -1.80
XJWNQ 128.3 0.2 -iP 0.00
XJWNQ 224.2 0.4 S -3.60
XJWUS 127.8 0.4 S -2.40
XJWUS 74.1 1.0 -eP 0.20
 CBXAC 267.6 1.0 P -0.60
 CBXAC 283.7 0.4 pP -2.20
 CBXAC 290 1.0 PP -0.80
 CBXAC 294.1 0.4 sP -3.80
 CBXAC 480.5 0.4 S -1.70
 CBXAC 505.3 0.4 sS -4.50
 CBXAC 513.8 0.4 SS -1.90
SNXAN 322 1.0 P -0.40
SNXAN 353.7 1.0 sP 0.10
NMXLT 364 1.0 eP 0.60
NMXLT 394.5 1.0 sP -0.40
NMXLT 426 0.4 PP 1.90
NMXLT 658.7 0.4 S 5.50
GDXNY 119.5 1.0 -P 0.90
GDXNY 210.2 1.0 S -0.10
HBYCH 294.1 0.4 +P 1.20
HBYCH 313.5 0.4 pP 1.10
HBYCH 326 0.4 sP 2.40
HBYCH 524.8 1.0 PcP -0.30
HBYCH 536.1 0.4 S 8.10
HBYCH 561.6 1.0 sS -0.60
HBYCH 957 1.0 ScS -0.10
HLYIL 442.5 0.4 P -1.80
HLYIL 462.3 0.4 pP -3.30
HLYIL 534.7 0.4 PP -5.30
HLYIL 798.5 0.4 S -1.10
HLYIL 834.2 0.4 sS -3.20
JLYNB 447.5 1.0 P 0.80
JLYNB 465.8 0.4 pP -2.30
JLYNB 474.8 0.4 sP -4.10
JLYNB 544.6 0.4 PP 1.50
JLYNB 572 1.0 PcP 1.00
JLYNB 807.3 0.4 S 3.50
JLYNB 838.8 0.4 sS -3.00
JLYNB 981.5 0.4 SS 3.70
HEZJK 356.5 1.0 P 0.40
 XJAHQ 120.31 1.0 Sn -0.75
 XJAHQ 69.01 1.0 Pn  0.21
 XJAKS 133.97 1.0 Sn  0.49
 XJAKS 76.35 1.0 Pn  0.62
 XJALS 133.92 1.0 Pn  0.50
 XJALS 235.92 1.0 Sn -0.86
 XJATS 101.03 1.0 Sn  0.27
 XJATS 57.81 1.0 Pn  0.33
 XJBAC 160.59 1.0 Sn -0.75
 XJBAC 91.82 1.0 Pn  0.54
 XJBPM 55.53 1.0 Pn  0.36
 XJBPM 96.77 1.0 Sn  0.15
 XJCBC 112.05 0.4 Pn  1.49
 XJCBC 196.84 1.0 Sn  0.99
 XJDSZ 138.26 0.4 Pn  1.83
 XJDSZ 244.07 0.4 Sn  1.91
 XJHTTZ0 27.55 1.0 Pg  0.41
 XJHTTZ0 47.58 0.4 Sg  1.15
 XJJHE 131.14 1.0 Pn  0.42
 XJJHE 231.84 1.0 Sn -0.12
 XJKMS 141.7 1.0 Pn -0.39
 XJKMS 252.02 1.0 Sn -0.35
 XJKSZ 54.87 1.0 Pn  0.42
 XJKSZ 96.78 0.4 Sn  1.44
 XJKUC 172.86 1.0 Sn -0.85
 XJKUC 98.07 1.0 Pn -0.11
 XJLHG 143.01 0.4 Pn -1.55
 XJLHG 254.15 0.4 Sn -2.65
 XJLSG 147.44 1.0 Pn -0.10
 XJLSG 261.3 1.0 Sn -0.91
 XJQMO 162.17 0.4 Sn -1.49
 XJQMO 92.65 1.0 Pn  0.06
 XJRUQ 130.38 0.4 Pn -1.04
 XJRUQ 230.15 0.4 Sn -3.05
 XJSCH 138.3 1.0 Pn  0.57
 XJSCH 245.12 1.0 Sn  0.64
 XJSHZ 142.51 1.0 Pn  0.82
 XJSHZ 251.8 1.0 Sn  0.15
 XJSMY 143.6 1.0 Sn  0.93
 XJSMY 82.14 0.4 Pn  1.27
 XJSTZ 142.43 1.0 Pn -0.03
 XJSTZ 251.15 0.4 Sn -1.85
 XJTAG 40.95 1.0 Pn -0.80
 XJTAG 72.22 1.0 Sn -0.33
 XJWSC 147.62 1.0 Pn  0.04
 XJWSC 261.3 1.0 Sn -0.98
 XJWSU 134.17 1.0 Pn  0.70
 XJWSU 236.46 1.0 Sn -0.40
 XJWUQ 104.87 1.0 Sn  0.04
 XJWUQ 59.51 1.0 Pn -0.25
 XJXKR 53.93 1.0 Pn  0.46
 XJXKR 93.5 1.0 Sn -0.09
 XJYJB 46.03 1.0 Pn -0.61
 XJYJB 81.35 1.0 Sn  0.04
 XJYJS 39.01 1.0 Pn -0.46
 XJYJS 67.24 0.4 Sn -1.26
 XJYUT 55.28 1.0 Pn  0.81
 XJYUT 98.08 0.4 Sn  2.73
 XJZSU 171.85 0.4 Sn  1.86
 XJZSU 97.69 0.4 Pn  1.58
 XZSQHE 117.36 1.0 Sn -0.71
 XZSQHE 66.37 1.0 Pn -0.80
