# 2009 10 21 14 17 35.410 37.946 76.111 111 1.4 0 0 0.506409 246 XJ.200910212217.0001 eq
 XJATS 32.58 1.0 Pg  0.90
 XJATS 56.86 1.0 Sg  0.57
 XJKSH 24.23 1.0 Pg -0.27
 XJKSH 43.09 1.0 Sg -0.37
 XJTAG 19.46 1.0 Pg -0.25
 XJTAG 35.18 1.0 Sg  0.29
 XJWUQ 32.69 1.0 Pg  0.31
 XJWUQ 56.64 1.0 Sg -0.89
 XJYCH 23.26 1.0 Pg  0.13
 XJYCH 40.6 1.0 Sg -0.40
 XJYJS 17.84 1.0 Pg -0.53
 XJYJS 33.01 1.0 Sg  0.49
# 2009 10 21 20 16 06.390 36.966 78.370 2 2.1 0 0 0.962351 247 XJ.200910220416.0001 eq
 XJHTA 23.1 1.0 Pg  0.09
 XJHTA 38.49 1.0 Sg  0.23
 XJHTTZ0 10.29 1.0 Pg -0.61
 XJHTTZ0 18.01 1.0 Sg -0.19
 XJTAG 46.5 1.0 Pn -0.30
 XJTAG 80.14 1.0 Sn -0.90
 XJYCH 18.68 0.4 Pg  1.68
 XJYCH 30.28 0.4 Sg  1.98
 XJYJS 39.43 1.0 Pg -0.86
 XJYJS 66.35 1.0 Sg -0.64
# 2009 10 21 22 08 59.070 37.652 77.887 1 2.4 0 0 0.976636 248 XJ.200910220608.0001 eq
 XJBCH 37.08 0.4 Pn -1.20
 XJBCH 65.88 1.0 Sn -0.64
 XJBPM 40.39 1.0 Pn  0.32
 XJBPM 72.04 0.4 Sn  2.23
 XJHTA 30.4 1.0 Pg -0.01
 XJHTA 52.29 0.4 Sg -1.58
 XJHTTZ0 19.72 1.0 Pg  0.83
 XJHTTZ0 34.54 0.4 Sg  1.08
 XJTAG 36.34 1.0 Pn -0.64
 XJTAG 64.92 1.0 Sn  0.60
 XJXKR 37.64 1.0 Pn  0.27
 XJXKR 66.01 0.4 Sn  1.03
 XJYJS 25.04 1.0 Pg -0.16
 XJYJS 43.61 0.4 Sg -1.03
 XJYPH 32.12 1.0 Pg -0.12
 XJYPH 56.12 1.0 Sg -0.99
# 2009 10 27 08 31 25.170 36.930 77.155 105 2.2 0 0 0.711296 249 XJ.200910271631.0001 eq
 XJBCH 47.55 1.0 Pn -0.23
 XJBCH 84.03 0.4 Sn -1.13
 XJHTTZ0 27.76 1.0 Pg  0.45
 XJHTTZ0 48.79 1.0 Sg  0.32
 XJKSH 40.84 1.0 Pn  0.79
 XJKSH 73.14 0.4 Sn  1.84
 XJTAG 30.47 1.0 Pg -0.29
 XJTAG 54.19 1.0 Sg -0.43
 XJYCH 16.44 1.0 Pg -0.20
 XJYCH 29.46 1.0 Sg  0.03
 XJYJS 28.61 1.0 Pg -0.33
 XJYJS 51.29 1.0 Sg -0.09
# 2009 10 29 04 24 26.320 37.574 76.179 103 2.0 0 0 1.14231 250 XJ.200910291224.0002 eq
 XJBCH 45.91 1.0 Pn -0.20
 XJBCH 80.17 0.4 Sn -1.99
 XJBPM 37.73 1.0 Pn  0.14
 XJBPM 66.98 1.0 Sn  0.10
 XJHTTZ0 37.25 0.2 Pn  0.00
 XJHTTZ0 65.94 1.0 Sn -0.33
 XJKSH 30.89 0.4 Pg  2.48
 XJKSH 53.38 0.4 Sg  2.94
 XJTAG 19.11 1.0 Pg -0.44
 XJTAG 33.64 1.0 Sg -0.94
 XJXKR 39.83 1.0 Pn  0.43
 XJXKR 70.28 1.0 Sn  0.15
 XJYCH 20.88 1.0 Pg  0.28
 XJYCH 37.02 1.0 Sg  0.55
 XJYJS 20.94 1.0 Pg  0.24
 XJYJS 36.98 1.0 Sg  0.33
 XJYPH 29.74 1.0 Pg  0.78
 XJYPH 52.32 1.0 Sg  0.90
# 2009 10 31 20 13 10.540 36.817 79.433 10 2.1 0 0 1.08954 251 XJ.200911010413.0001 eq
 XJHTA 15.74 0.4 Sg  1.14
 XJHTA 8.91 1.0 Pg  0.21
 XJHTTZ0 13.36 1.0 Sg -0.93
 XJHTTZ0 7.62 1.0 Pg -0.97
 XJYCH 33.3 1.0 Pg  0.52
 XJYCH 56.78 0.4 Sg  2.37
 XJYJB 29.55 1.0 Pg  0.54
 XJYJB 49.14 1.0 Sg  0.93
 XJYUT 38.8 1.0 Pn -0.30
 XJYUT 66.47 0.4 Sn -1.26
# 2009 11 01 15 39 00.600 36.482 78.195 124 2.2 0 0 0.824192 252 XJ.200911012338.0001 eq
 XJBCH 51.03 1.0 Pn  0.02
 XJBCH 91.21 1.0 Sn  0.28
 XJHTA 28.04 1.0 Pg  0.08
 XJHTA 50.67 0.4 Sg  1.02
 XJHTTZ0 21.69 1.0 Pg -0.72
 XJHTTZ0 39.65 1.0 Sg -0.09
 XJTAG 44.4 1.0 Pn  0.76
 XJTAG 79.5 0.4 Sn  1.81
 XJYCH 23 1.0 Pg -1.00
 XJYCH 41.85 1.0 Sg -0.72
 XJYJS 39 1.0 Pn -0.53
 XJYJS 69.44 1.0 Sn -0.92
# 2009 11 02 20 00 52.220 37.575 77.811 3 0.9 0 0 0.443493 253 XJ.200911030400.0001 eq
 XJHTTZ0 19.34 1.0 Pg  0.03
 XJHTTZ0 34.25 1.0 Sg  0.05
 XJTAG 35.16 1.0 Pn -0.86
 XJTAG 62.7 0.2 Sn  0.00
 XJYCH 13.72 1.0 Sg  0.38
 XJYCH 7.08 1.0 Pg -0.18
 XJYJS 25.95 1.0 Pg  0.67
 XJYJS 44.69 1.0 Sg -0.09
# 2009 11 03 22 28 03.710 36.922 77.202 103 2.2 0 0 0.722634 254 XJ.200911040627.0001 eq
 XJBPM 46.22 1.0 Pn  0.61
 XJBPM 81.71 1.0 Sn  0.45
 XJHTA 35.99 1.0 Pg  0.92
 XJHTA 61.57 1.0 Sg -0.79
 XJHTTZ0 26.83 1.0 Pg  0.08
 XJHTTZ0 48.18 1.0 Sg  0.71
 XJKSH 41.91 0.4 Pn  1.59
 XJKSH 73.28 0.4 Sn  1.50
 XJTAG 30.66 1.0 Pg -0.46
 XJTAG 55.5 1.0 Sg  0.23
 XJXKR 44.34 1.0 Pn -0.53
 XJXKR 79.35 1.0 Sn -0.59
 XJYCH 15.69 1.0 Pg -0.68
 XJYCH 29 1.0 Sg  0.05
 XJYJS 28.79 1.0 Pg -0.28
 XJYJS 51.11 1.0 Sg -0.51
 XJYPH 37.12 1.0 Pn  0.21
 XJYPH 66.24 1.0 Sn  0.57
# 2009 11 06 13 33 00.830 37.346 77.256 1 2.3 0 0 1.32626 255 XJ.200911062132.0001 eq
 XJHTTZ0 27.92 1.0 Pg  0.84
 XJHTTZ0 47.59 0.4 Sg  2.55
 XJKSH 40.54 1.0 Pn -0.50
 XJKSH 71.51 1.0 Sn  0.52
 XJTAG 32.44 1.0 Pg  0.44
 XJTAG 55.06 0.4 Sg  1.66
 XJYCH 1.43 0.4 Pg -1.02
 XJYCH 3.24 1.0 Sg -0.81
 XJYJS 25.05 1.0 Pg  0.25
 XJYJS 43.47 0.4 Sg  2.27
# 2009 11 06 16 24 28.230 36.781 77.418 101 3.1 0 0 0.849466 256 XJ.200911070024.0002 eq
 XJAHQ 111.33 1.0 Sn -0.30
 XJAHQ 62.44 1.0 Pn -0.10
 XJAKS 125.38 1.0 Sn -0.76
 XJAKS 70.7 1.0 Pn  0.07
 XJATS 49.55 0.2 Pn  0.00
 XJATS 88.84 1.0 Sn  0.51
 XJBAC 154.3 1.0 Sn -0.95
 XJBAC 86.98 1.0 Pn  0.11
 XJBCH 47.57 1.0 Pn -0.94
 XJBCH 84.81 0.4 Sn -1.65
 XJBPM 47.99 1.0 Pn  0.29
 XJBPM 84.52 1.0 Sn -0.50
 XJHTA 34.09 0.4 Pn  1.06
 XJHTA 60.24 0.4 Sn  1.53
 XJHTTZ0 25.04 1.0 Pg  0.04
 XJHTTZ0 44.66 1.0 Sg  0.32
 XJKSH 44.48 0.4 Pn  1.45
 XJKSH 78.62 0.4 Sn  1.98
 XJKSZ 46.96 1.0 Pn  0.46
 XJKSZ 83.09 1.0 Sn  0.23
 XJSMY 135.32 1.0 Sn  0.70
 XJSMY 76.05 1.0 Pn  0.68
 XJTAG 33.4 1.0 Pg -0.46
 XJTAG 58.95 0.4 Sg -1.21
 XJWUQ 51.08 1.0 Pn -0.61
 XJWUQ 91.9 1.0 Sn -0.26
 XJXKR 46.57 1.0 Pn  0.04
 XJXKR 83.3 1.0 Sn  0.38
 XJYCH 16.54 1.0 Pg -0.59
 XJYCH 30.45 1.0 Sg  0.16
 XJYJB 47.23 1.0 Pn -0.57
 XJYJB 84.2 1.0 Sn -0.97
 XJYJS 30.75 1.0 Pg -0.68
 XJYJS 54.16 0.4 Sg -1.69
 XJYPH 39.86 1.0 Pn  0.78
 XJYPH 71.07 0.4 Sn  1.50
 XJYUT 55.32 1.0 Pn -0.20
 XJYUT 98.62 1.0 Sn -0.41
 XJZSU 162.72 1.0 Sn  0.52
 XJZSU 91.74 1.0 Pn  0.99
# 2009 11 09 16 07 11.230 37.612 76.057 109 1.9 0 0 0.514899 257 XJ.200911100007.0001 eq
 XJBPM 37.58 1.0 Pn -0.04
 XJBPM 66.58 1.0 Sn -0.36
 XJHTTZ0 39.1 1.0 Pn  0.31
 XJHTTZ0 68.55 1.0 Sn -0.47
 XJKSH 28.75 1.0 Pg  0.79
 XJKSH 50.65 0.4 Sg  1.01
 XJTAG 18.41 1.0 Pg -0.73
 XJTAG 33.57 1.0 Sg -0.31
 XJYCH 22.4 1.0 Pg  0.26
 XJYCH 39.96 1.0 Sg  0.73
 XJYJS 20.69 1.0 Pg -0.41
 XJYJS 37 1.0 Sg -0.38
 XJYPH 28.99 1.0 Pg -0.17
 XJYPH 51.56 1.0 Sg -0.22
# 2009 11 11 21 42 26.600 37.809 77.368 7 1.7 0 0 1.25497 258 XJ.200911120542.0001 eq
 XJHTTZ0 28.59 1.0 Pg  0.71
 XJHTTZ0 48.67 0.4 Sg  2.35
 XJTAG 32.13 1.0 Pg -0.40
 XJTAG 55.13 0.4 Sg  1.08
 XJYCH 14.34 0.4 Sg  1.08
 XJYCH 7.48 1.0 Pg -0.43
 XJYJS 18.72 1.0 Pg  0.12
 XJYJS 32.92 0.4 Sg  1.97
# 2009 11 14 02 46 35.450 37.076 79.236 5 3.7 0 0 3.20374 259 XJ.200911141046.0002 eq
XJBCH 43.35 0.4 Pn -1.50
XJBCH 77.95 0.4 Sn -2.50
XJBKO 174.95 0.4 P -5.00
XJBKO 311.55 0.4 S -7.10
XJKOL 100.45 0.4 Pn -2.90
XJKOL 178.85 0.4 Sn -7.20
XJWMQ 142.05 0.4 eP 3.60
XJWMQ 235.05 0.4 S -9.60
XJWNQ 121.35 0.4 eP 1.40
XJWNQ 202.05 0.4 S -9.30
XJWUS 112.35 0.4 Sn -2.40
XJWUS 125.45 0.4 Sg -3.80
XJWUS 65.65 0.4 Pn 1.80
GDXNY 106.35 0.4 ePn 2.40
GDXNY 184.45 0.4 Sn -2.50
 XJBCH 43.85 1.0 Pn -0.78
 XJBCH 76.86 0.4 Sn -1.16
 XJBPM 53.1 1.0 Pn -0.18
 XJBPM 93.15 1.0 Sn -0.08
 XJHTA 10.03 1.0 Pg  0.47
 XJHTA 18.68 0.4 Sg  1.11
 XJHTTZ0 2.4 1.0 Pg -0.78
 XJHTTZ0 5.12 0.4 Sg -1.35
 XJKSH 55.97 1.0 Pn  0.26
 XJKSH 98.45 1.0 Sn  0.96
 XJTAG 53.47 0.4 Pn  1.05
 XJTAG 93.5 0.4 Sn  1.78
 XJXKR 48.23 1.0 Pn -0.52
 XJXKR 85.31 1.0 Sn  0.05
 XJYCH 27.14 1.0 Pg -0.28
 XJYCH 47.3 0.4 Sg -1.28
 XJYJB 31.36 1.0 Pg -0.83
 XJYJB 54.13 0.4 Sg -2.90
 XJYJS 43.45 1.0 Pn  0.49
 XJYJS 75.23 1.0 Sn  0.15
 XJYPH 47.3 1.0 Pn  0.44
 XJYPH 82.69 1.0 Sn  0.76
 XJYUT 39.59 1.0 Pn  0.87
 XJYUT 69.15 0.4 Sn  1.76
# 2009 11 14 03 02 05.750 37.137 79.220 5 4.0 0 0 1.68633 260 XJ.200911141102.0002 eq
XJBCH 45.05 1.0 Pn 0.80
XJBCH 79.35 1.0 Sn 0.20
XJBKO 176.05 0.4 P -3.80
XJBKO 312.55 0.4 S -5.90
GSGTA 228.55 0.4 eP -3.90
GSGTA 234.25 0.4 pP -2.20
GSGTA 237.55 0.4 sP -2.40
XJKMY 140.05 1.0 P -1.00
XJKOL 103.25 1.0 Pn 0.10
XJKOL 181.25 0.4 Sn -4.30
XJWMQ 141.35 0.4 eP 3.20
XJWMQ 237.75 0.4 S -6.30
 XJAHQ 107.5 1.0 Sn -0.50
 XJAHQ 62.01 1.0 Pn -0.43
 XJAKS 112.67 1.0 Sn -0.40
 XJAKS 64.85 1.0 Pn -0.57
 XJALR 107.2 0.4 Sn  1.73
 XJALR 62.03 0.4 Pn  1.04
 XJALS 122.71 1.0 Pn  0.95
 XJALS 212.4 0.4 Sn  1.65
 XJBAC 136.18 1.0 Sn -0.12
 XJBAC 78.52 1.0 Pn -0.22
 XJBCH 45.25 0.4 Pn -1.69
 XJBCH 78.87 0.4 Sn -2.34
 XJBLT 120.04 1.0 Pn  0.67
 XJBLT 207.9 0.4 Sn  1.28
 XJBPM 54.4 0.4 Pn -1.06
 XJBPM 94.01 0.4 Sn -1.93
 XJCBC 172.22 1.0 Sn  0.77
 XJCBC 99.54 1.0 Pn  0.39
 XJHTA 11.29 0.4 Pg  1.15
 XJHTA 19.33 0.4 Sg  2.41
 XJHTTZ0 3.77 1.0 Pg  0.82
 XJHTTZ0 6.54 0.4 Sg  1.59
 XJJHE 118.13 1.0 Pn -0.09
 XJJHE 204.93 1.0 Sn  0.26
 XJKMS 126.17 1.0 Pn  0.74
 XJKMS 218.29 0.4 Sn  1.28
 XJKOL 103.41 1.0 Pn -0.38
 XJKOL 179.99 1.0 Sn  0.50
 XJKSH 100.84 1.0 Sn  0.64
 XJKSH 58.32 1.0 Pn  0.38
 XJKSZ 102.58 0.4 Sn  1.21
 XJKSZ 58.68 1.0 Pn  0.10
 XJKUC 146.38 1.0 Sn  0.45
 XJKUC 84.48 1.0 Pn  0.22
 XJLHG 129.31 1.0 Pn  0.81
 XJLHG 224.37 0.4 Sn  1.87
 XJQMO 132.51 0.4 Sn -1.61
 XJQMO 76.09 0.4 Pn -1.40
 XJRUQ 114.28 1.0 Pn -0.58
 XJRUQ 197.99 1.0 Sn -0.82
 XJSMY 124.69 0.4 Sn  1.18
 XJSMY 71.81 1.0 Pn  0.47
 XJSTZ 127.1 1.0 Pn  0.52
 XJSTZ 219.28 1.0 Sn  0.25
 XJTAG 54.86 1.0 Pn -0.06
 XJTAG 95.85 1.0 Sn  0.89
 XJWNQ 117.28 1.0 Pn -0.07
 XJWNQ 200.39 0.4 Sn -2.76
 XJWSU 120.11 0.4 Pn  1.07
 XJWSU 207.26 0.4 Sn  1.19
 XJWUQ 114.49 0.4 Sn  1.53
 XJWUQ 65.73 1.0 Pn  0.37
 XJWUS 112.88 1.0 Sn -0.11
 XJWUS 65.17 1.0 Pn -0.21
 XJXKR 50.33 1.0 Pn -0.64
 XJXKR 86.64 0.4 Sn -1.54
 XJXNY 106.38 1.0 Pn  0.10
 XJXNY 183.24 1.0 Sn -0.56
 XJYCH 28.42 1.0 Pg  0.26
 XJYCH 48.16 0.4 Sg  1.43
 XJYJB 34.34 1.0 Pg  0.07
 XJYJB 57.21 1.0 Sg  0.27
 XJYJS 43.89 0.4 Pn -1.51
 XJYJS 76.26 0.4 Sn -2.33
 XJYPH 48.67 1.0 Pn -0.48
 XJYPH 84.26 1.0 Sn -0.79
 XJYUT 40.88 0.4 Pn -1.45
 XJYUT 71.19 0.4 Sn -2.08
 XJZSU 150.17 0.4 Sn  1.44
 XJZSU 86.54 1.0 Pn  0.72
# 2009 11 14 03 04 11.960 37.084 79.193 5 3.0 0 0 1.08474 261 XJ.200911141104.0001 eq
 XJBCH 47.05 1.0 Pn -0.53
 XJBCH 83.14 1.0 Sn  0.81
 XJHTA 11.34 1.0 Pg  0.81
 XJHTA 19.92 0.4 Sg  2.39
 XJHTTZ0 2.75 1.0 Pg -0.23
 XJHTTZ0 5.64 1.0 Sg  0.59
 XJTAG 54.96 1.0 Pn  0.16
 XJTAG 96.01 0.4 Sn  1.24
 XJXKR 51.27 1.0 Pn -0.22
 XJXKR 89.97 1.0 Sn  0.91
 XJYCH 28.4 1.0 Pg  0.47
 XJYCH 48.67 0.4 Sg  2.28
 XJYUT 41.94 1.0 Pn -0.45
 XJYUT 72.55 1.0 Sn -0.84
# 2009 11 14 03 18 35.150 36.920 79.226 12 2.2 0 0 1.29661 262 XJ.200911141118.0001 eq
 XJHTA 11.92 0.4 Pg  1.30
 XJHTA 19.79 0.4 Sg  2.16
 XJHTTZ0 3.4 0.4 Pg -1.99
 XJHTTZ0 6.15 0.4 Sg -2.83
 XJQMO 134.18 1.0 Sn -0.30
 XJQMO 77.74 1.0 Pn  0.05
 XJTAG 55.71 1.0 Pn  0.01
 XJTAG 95.86 1.0 Sn -0.50
 XJYCH 29.85 1.0 Pg  0.63
 XJYCH 49.21 1.0 Sg  0.75
 XJYUT 41.55 1.0 Pn  0.01
 XJYUT 71.14 1.0 Sn -0.74
# 2009 11 14 03 28 53.810 37.283 79.249 10 2.1 0 0 0.913271 263 XJ.200911141128.0001 eq
 XJBCH 45.29 1.0 Pn  0.30
 XJBCH 78.3 1.0 Sn  0.32
 XJHTA 10.77 1.0 Pg  0.55
 XJHTA 18.9 0.4 Sg  1.76
 XJHTTZ0 3.66 1.0 Pg -0.27
 XJHTTZ0 6.46 1.0 Sg -0.10
 XJYCH 28.59 1.0 Pg  0.37
 XJYCH 48.38 0.4 Sg  1.54
 XJYJB 35.05 1.0 Pg -0.13
 XJYJB 57.71 1.0 Sg -0.76
 XJYJS 44.91 1.0 Pn  0.25
 XJYJS 77.54 1.0 Sn  0.32
 XJYUT 41.55 0.4 Pn -1.06
 XJYUT 71.91 0.4 Sn -1.90
# 2009 11 14 03 46 11.830 37.153 79.225 10 3.8 0 0 1.80747 264 XJ.200911141146.0002 eq
XJBCH 45.57 0.4 Pn 2.20
XJBCH 79.47 0.4 Sn 1.70
XJBKO 176.47 0.4 P -2.50
XJBKO 313.07 0.4 S -3.80
HLFUY 176.77 0.4 eP -4.00
HLFUY 184.07 0.4 pP -1.10
HLFUY 187.97 0.4 PP -2.50
HLFUY 189.47 1.0 sP 0.90
HLFUY 312.17 0.4 S -8.20
XJKOL 102.97 1.0 Pn 0.70
XJKOL 181.47 0.4 Sn -2.60
XJWNQ 119.07 1.0 eP 0.60
XJWNQ 204.27 0.4 S -4.40
GDXNY 103.27 1.0 ePn 0.70
GDXNY 185.57 1.0 Sn 1.00
 XJAHQ 108.21 1.0 Sn  0.54
 XJAHQ 62.22 1.0 Pn -0.02
 XJAKS 113.16 1.0 Sn  0.45
 XJAKS 64.7 1.0 Pn -0.51
 XJATS 107.85 0.4 Sn  2.11
 XJATS 61.35 1.0 Pn  0.21
 XJBAC 135.99 1.0 Sn  0.08
 XJBAC 78.59 1.0 Pn  0.07
 XJBCH 45.49 0.4 Pn -1.20
 XJBCH 79.05 0.4 Sn -1.82
 XJBPM 54.51 1.0 Pn -0.80
 XJBPM 94.66 0.4 Sn -1.01
 XJHTA 11.57 0.4 Pg  1.46
 XJHTA 19.53 0.4 Sg  2.69
 XJHTTZ0 3.93 1.0 Pg  0.96
 XJHTTZ0 6.68 0.4 Sg  1.67
 XJKOL 103.66 1.0 Pn  0.05
 XJKOL 180.73 0.4 Sn  1.55
 XJKSH 101.15 0.4 Sn  1.09
 XJKSH 58.59 1.0 Pn  0.73
 XJKSZ 103.09 0.4 Sn  1.92
 XJKSZ 58.92 1.0 Pn  0.45
 XJKUC 146.08 1.0 Sn  0.49
 XJKUC 84.58 1.0 Pn  0.53
 XJQMO 132.53 0.4 Sn -1.47
 XJQMO 76.24 0.4 Pn -1.19
 XJRUQ 114.33 1.0 Pn -0.42
 XJRUQ 199.38 1.0 Sn  0.76
 XJSMY 123.67 1.0 Sn  0.52
 XJSMY 71.96 1.0 Pn  0.83
 XJTAG 55.07 1.0 Pn  0.14
 XJTAG 96.12 0.4 Sn  1.15
 XJWUQ 113.19 1.0 Sn  0.39
 XJWUQ 65.33 1.0 Pn  0.07
 XJWUS 113.34 1.0 Sn  0.70
 XJWUS 65.61 1.0 Pn  0.44
 XJXKR 51.12 1.0 Pn  0.32
 XJXKR 87.75 1.0 Sn -0.15
 XJYCH 28.51 1.0 Pg  0.33
 XJYCH 49.22 0.4 Sg  2.45
 XJYJB 34.42 1.0 Pg  0.06
 XJYJB 57.6 1.0 Sg  0.55
 XJYJS 43.92 0.4 Pn -1.42
 XJYJS 76.43 0.4 Sn -2.04
 XJYPH 48.86 1.0 Pn -0.17
 XJYPH 84.35 1.0 Sn -0.50
 XJYUT 40.95 0.4 Pn -1.40
 XJYUT 71.88 0.4 Sn -1.41
 XJZSU 150.82 0.4 Sn  2.45
 XJZSU 86.14 1.0 Pn  0.50
# 2009 11 14 03 59 03.520 36.984 79.242 5 2.3 0 0 0.976394 265 XJ.200911141159.0001 eq
 XJHTA 10.76 1.0 Pg  0.71
 XJHTA 17.86 0.4 Sg  1.14
 XJHTTZ0 3.42 0.4 Pg -1.15
 XJHTTZ0 6.14 0.4 Sg -1.59
 XJYCH 29.46 1.0 Pg  0.36
 XJYCH 49.62 0.4 Sg  1.32
 XJYJS 46.83 1.0 Pn  0.09
 XJYJS 81.97 0.4 Sn  1.01
 XJYUT 41.54 0.2 Pn  0.00
 XJYUT 72.05 1.0 Sn  0.16
# 2009 11 14 04 04 39.380 37.004 79.163 7 1.7 0 0 0.800578 266 XJ.200911141202.0001 eq
 XJHTA 11.7 1.0 Pg  0.57
 XJHTA 19.72 0.4 Sg  1.17
 XJHTTZ0 3.03 1.0 Pg -0.67
 XJHTTZ0 5.68 1.0 Sg -0.52
 XJYCH 28.21 1.0 Pg  0.37
 XJYCH 47.47 0.4 Sg  1.21
 XJYUT 42.16 1.0 Pn -0.27
 XJYUT 72.44 0.4 Sn -1.02
# 2009 11 14 04 14 06.080 37.289 79.189 10 2.5 0 0 1.12606 267 XJ.200911141214.0001 eq
 XJBCH 44.94 1.0 Pn  0.09
 XJBCH 78.37 1.0 Sn  0.74
 XJHTA 11.82 1.0 Pg  0.65
 XJHTA 20.34 0.4 Sg  1.73
 XJHTTZ0 4.78 0.4 Pg  1.29
 XJHTTZ0 7.31 0.4 Sg  1.52
 XJTAG 54.38 1.0 Pn  0.18
 XJTAG 94.51 1.0 Sn  0.78
 XJYCH 26.72 1.0 Pg -0.55
 XJYCH 45.25 1.0 Sg -0.11
 XJYJS 44.02 1.0 Pn -0.03
 XJYJS 76.32 1.0 Sn  0.09
 XJYUT 43.38 0.4 Pg -1.61
 XJYUT 72.88 0.4 Sg -2.50
# 2009 11 14 05 13 30.190 37.054 79.230 11 1.5 0 0 0.236361 268 XJ.200911141313.0002 eq
 XJHTA 17.12 1.0 Sg  0.45
 XJHTA 9.91 1.0 Pg -0.10
 XJHTTZ0 3.56 1.0 Pg -0.08
 XJHTTZ0 6.28 1.0 Sg  0.19
 XJYCH 28.8 1.0 Pg  0.19
 XJYCH 47.68 1.0 Sg  0.21
# 2009 11 14 14 26 33.290 37.085 79.216 5 1.5 0 0 0.519769 269 XJ.200911142226.0001 eq
 XJHTA 10.17 0.2 Pg  0.00
 XJHTA 17.39 1.0 Sg  0.39
 XJHTTZ0 2.99 1.0 Pg -0.25
 XJHTTZ0 5.76 1.0 Sg  0.39
 XJYCH 28.5 1.0 Pg  0.25
 XJYCH 47.87 1.0 Sg  0.96
# 2009 11 14 20 37 52.150 37.432 76.148 84 2.0 0 0 1.04645 270 XJ.200911150437.0002 eq
 XJKSH 30.59 0.4 Pg  1.37
 XJKSH 53.4 0.4 Sg  1.51
 XJTAG 17.42 1.0 Pg -0.78
 XJTAG 32.18 1.0 Sg  0.04
 XJWUQ 37.9 1.0 Pn  0.04
 XJWUQ 67.51 1.0 Sn  0.14
 XJYCH 19.21 1.0 Pg -0.05
 XJYCH 35.02 1.0 Sg  0.97
 XJYJS 19.4 0.4 Pg -1.58
 XJYJS 35.48 0.4 Sg -1.65
# 2009 11 14 21 00 02.970 37.093 79.160 6 1.3 0 0 0.886642 271 XJ.200911150500.0002 eq
 XJHTA 10.64 1.0 Pg -0.39
 XJHTA 19.1 1.0 Sg  0.71
 XJHTTZ0 2.39 1.0 Pg -0.20
 XJHTTZ0 5.09 1.0 Sg  0.71
 XJYCH 27.99 1.0 Pg  0.59
 XJYCH 47.28 0.4 Sg  1.78
# 2009 11 15 00 01 11.960 37.165 79.174 7 3.1 0 0 1.86932 272 XJ.200911150800.0001 eq
 XJAHQ 105.24 1.0 Sn -0.43
 XJAHQ 59.83 1.0 Pn  0.42
 XJAKS 111.65 1.0 Sn  0.43
 XJAKS 62.77 1.0 Pn  0.28
 XJATS 103.21 1.0 Sn -0.08
 XJATS 59.19 0.4 Pn  1.10
 XJBCH 42.85 1.0 Pn -0.42
 XJBCH 73.7 0.4 Sn -2.96
 XJBPM 52.31 1.0 Pn  0.30
 XJBPM 92.48 1.0 Sn  0.11
 XJHTA 16.83 0.4 Sg -2.92
 XJHTA 9.38 0.4 Pg -2.06
 XJHTTZ0 1.58 1.0 Pg -0.77
 XJHTTZ0 3.81 1.0 Sg -0.27
 XJSMY 122.59 0.2 Sn  0.00
 XJSMY 69.49 1.0 Pn  0.67
 XJTAG 52.71 1.0 Pn  0.75
 XJTAG 92.83 1.0 Sn  0.59
 XJWUQ 112.43 0.4 Sn  1.38
 XJWUQ 63.73 0.4 Pn  1.33
 XJYCH 27.1 0.4 Pg -1.24
 XJYCH 46.99 0.4 Sg -1.94
 XJYJB 32.18 0.4 Pg -4.13
 XJYJB 55.94 0.4 Sg -6.75
 XJYJS 42.43 1.0 Pn  0.72
 XJYJS 73.26 1.0 Sn -0.58
 XJYPH 44.78 1.0 Pn -0.70
 XJYPH 79.15 0.4 Sn -1.48
 XJYUT 39.36 1.0 Pn -0.52
 XJYUT 70.04 1.0 Sn -0.51
# 2009 11 15 00 03 59.540 37.134 79.177 7 1.4 0 0 1.41405 273 XJ.200911150803.0002 eq
 XJHTA 19.05 0.4 Sg  1.10
 XJHTA 9.96 1.0 Pg -0.86
 XJHTTZ0 2.44 1.0 Pg -0.05
 XJHTTZ0 5.17 1.0 Sg  0.99
 XJYCH 28.43 1.0 Pg  0.91
 XJYCH 48.5 0.4 Sg  2.87
# 2009 11 15 00 07 14.520 37.187 79.261 4 3.7 0 0 1.70899 274 XJ.200911150806.0001 eq
XJBCH 45.28 0.4 Pn 1.30
XJBCH 79.58 0.4 Sn 1.20
XJBKO 176.78 0.4 P -2.60
XJBKO 313.28 0.4 S -3.90
HLFUY 177.58 0.4 +P -3.60
HLFUY 185.58 1.0 pP 0.50
HLFUY 191.48 0.4 sP 3.10
HLFUY 193.88 0.4 PP 3.10
HLFUY 315.78 0.4 S -4.80
HLFUY 329.48 0.4 sS 1.70
XJKMY 137.48 0.4 P -3.00
XJKOL 102.78 1.0 Pn 0.20
XJKOL 181.88 0.4 Sn -2.30
XJWMQ 136.48 0.4 eP -1.10
XJWMQ 239.78 0.4 S -2.90
XJWNQ 118.28 1.0 eP -0.60
XJWNQ 204.78 0.4 S -4.30
GDXNY 105.98 0.4 ePn 3.00
 XJAHQ 106.57 1.0 Sn -0.38
 XJAHQ 61.79 1.0 Pn -0.06
 XJAKS 111.78 1.0 Sn -0.08
 XJAKS 64.46 1.0 Pn -0.23
 XJALR 105.54 0.4 Sn  1.41
 XJALR 60.71 1.0 Pn  0.52
 XJATS 106.1 1.0 Sn  0.47
 XJATS 61.31 1.0 Pn  0.23
 XJBCH 45.19 0.4 Pn -1.09
 XJBCH 78.25 0.4 Sn -1.86
 XJBPM 54.65 1.0 Pn -0.49
 XJBPM 94.71 1.0 Sn -0.65
 XJHTA 11.49 0.4 Pg  1.85
 XJHTA 19.01 0.4 Sg  2.92
 XJHTTZ0 3.88 1.0 Pg  0.38
 XJHTTZ0 6.63 1.0 Sg  0.83
 XJKSH 100.98 1.0 Sn  0.85
 XJKSH 57.95 1.0 Pn  0.05
 XJKSZ 101.65 1.0 Sn  0.57
 XJKSZ 58.72 1.0 Pn  0.29
 XJKUC 145.26 1.0 Sn  0.65
 XJKUC 84.54 0.4 Pn  1.08
 XJQMO 132.65 1.0 Sn -0.61
 XJQMO 75.86 0.4 Pn -1.15
 XJSMY 124.85 0.4 Sn  2.51
 XJSMY 72.15 0.4 Pn  1.51
 XJTAG 54.99 1.0 Pn -0.21
 XJTAG 95.31 1.0 Sn -0.16
 XJWUQ 113.25 1.0 Sn  0.47
 XJWUQ 65.96 1.0 Pn  0.71
 XJWUS 112.23 1.0 Sn  0.35
 XJWUS 64.96 1.0 Pn  0.25
 XJXKR 49.62 1.0 Pn -0.93
 XJXKR 87.38 1.0 Sn -0.06
 XJYCH 28.49 1.0 Pg -0.10
 XJYCH 48.62 0.4 Sg  1.19
 XJYJB 34.14 0.2 Pg  0.00
 XJYJB 57.12 1.0 Sg  0.34
 XJYJS 43.83 0.4 Pn -1.57
 XJYJS 76.99 0.4 Sn -1.60
 XJYPH 47.84 0.4 Pn -1.12
 XJYPH 83.61 0.4 Sn -1.12
 XJYUT 40.93 0.4 Pn -1.20
 XJYUT 72.49 1.0 Sn -0.40
 XJZSU 148.37 1.0 Sn  0.85
 XJZSU 86.44 0.4 Pn  1.29
# 2009 11 15 00 07 38.690 37.060 79.202 10 3.3 0 0 1.12469 275 XJ.200911150807.0003 eq
 XJHTA 11.04 1.0 Pg  0.64
 XJHTA 19.42 0.4 Sg  2.02
 XJHTTZ0 2.17 0.4 Pg -1.16
 XJHTTZ0 4.96 1.0 Sg -0.59
 XJYCH 28.7 1.0 Pg  0.50
 XJYCH 48.63 0.4 Sg  1.83
 XJYJB 33.87 1.0 Pg  0.02
 XJYJB 56.89 1.0 Sg  0.58
# 2009 11 15 00 09 37.890 37.134 79.213 7 2.2 0 0 0.559255 276 XJ.200911150809.0001 eq
 XJHTA 10.34 1.0 Pg  0.14
 XJHTA 17.95 1.0 Sg  0.85
 XJHTTZ0 2.3 1.0 Pg -0.60
 XJHTTZ0 5.07 1.0 Sg  0.27
 XJYCH 28.5 1.0 Pg  0.46
 XJYCH 47.27 1.0 Sg  0.70
# 2009 11 15 00 12 14.970 37.138 79.193 7 1.6 0 0 1.20785 277 XJ.200911150811.0001 eq
 XJHTA 18.78 0.4 Sg  1.21
 XJHTA 9.81 1.0 Pg -0.76
 XJHTTZ0 2.74 1.0 Pg  0.11
 XJHTTZ0 5.43 1.0 Sg  1.00
 XJYCH 28.38 1.0 Pg  0.64
 XJYCH 48.31 0.4 Sg  2.30
# 2009 11 15 00 15 11.880 37.209 79.131 10 2.0 0 0 1.05085 278 XJ.200911150815.0001 eq
 XJBCH 41.69 1.0 Pn -0.50
 XJBCH 73.14 1.0 Sn -0.62
 XJHTA 11.31 1.0 Pg  0.01
 XJHTA 19.72 0.4 Sg -1.21
 XJHTTZ0 1.53 1.0 Pg -0.94
 XJHTTZ0 3.97 0.4 Sg -1.01
 XJYCH 26.95 0.4 Pg  1.38
 XJYCH 46.11 1.0 Sg  0.85
 XJYUT 39.82 1.0 Pn -0.06
 XJYUT 71.72 0.4 Sn  2.10
# 2009 11 15 00 19 27.940 36.942 79.182 9 2.0 0 0 1.15179 279 XJ.200911150819.0002 eq
 XJHTA 11.84 1.0 Pg  0.73
 XJHTA 20.27 0.4 Sg  1.75
 XJHTTZ0 3.6 0.4 Pg -1.20
 XJHTTZ0 6.41 0.4 Sg -1.59
 XJYCH 28.82 1.0 Pg  0.36
 XJYCH 48.89 0.4 Sg  1.66
 XJYUT 42.18 1.0 Pn  0.11
 XJYUT 72.4 1.0 Sn -0.39
# 2009 11 15 00 20 59.980 37.445 79.284 11 2.4 0 0 1.68295 280 XJ.200911150820.0001 eq
 XJHTA 12.44 0.4 Pg  1.21
 XJHTA 19.84 0.4 Sg  1.14
 XJHTTZ0 4.86 0.4 Pg -1.54
 XJHTTZ0 7.57 0.4 Sg -3.03
 XJYCH 29.91 0.4 Pg  1.25
 XJYCH 50.03 0.4 Sg  2.49
 XJYJS 43.74 1.0 Pn -0.15
 XJYJS 76.13 1.0 Sn  0.11
 XJYUT 42.35 1.0 Pn -0.77
 XJYUT 72.25 0.4 Sn -2.37
# 2009 11 15 00 39 35.450 37.146 79.172 10 1.6 0 0 0.626512 281 XJ.200911150839.0001 eq
 XJHTA 11.23 1.0 Pg  0.36
 XJHTA 18.51 1.0 Sg  0.40
 XJHTTZ0 1.6 1.0 Pg -0.81
 XJHTTZ0 4.32 1.0 Sg  0.37
 XJYCH 27.84 1.0 Pg  0.46
 XJYCH 46.51 0.4 Sg  1.03
# 2009 11 15 00 59 37.550 37.140 79.167 23 1.3 0 0 0.82365 282 XJ.200911150859.0002 eq
 XJHTA 11.04 1.0 Pg  0.12
 XJHTA 19.17 1.0 Sg  0.94
 XJHTTZ0 1.63 1.0 Pg -0.75
 XJHTTZ0 4.41 1.0 Sg  0.53
 XJYCH 27.95 1.0 Pg  0.63
 XJYCH 46.81 0.4 Sg  1.39
