# 2009 05 24 04 52 20.240 36.425 78.263 113 3.3 0 0 0.679632 176 XJ.200905241252.0002 eq
 XJATS 103.34 1.0 Sn -0.11
 XJATS 57.66 1.0 Pn -0.34
 XJBCH 50.51 1.0 Pn -0.85
 XJBCH 90.75 1.0 Sn -0.82
 XJBPM 55.27 1.0 Pn  0.63
 XJBPM 98.27 1.0 Sn  0.83
 XJHTA 27.48 1.0 Pg  0.54
 XJHTA 48.65 1.0 Sg  0.84
 XJHTTZ0 21.41 1.0 Pg -0.05
 XJHTTZ0 38.48 1.0 Sg  0.45
 XJKSH 52.19 1.0 Pn -0.14
 XJKSH 93.16 1.0 Sn -0.15
 XJKSZ 55.21 1.0 Pn  0.21
 XJKSZ 98.57 1.0 Sn  0.49
 XJTAG 44.61 1.0 Pn  0.36
 XJTAG 80.29 0.4 Sn  1.51
 XJXKR 52.47 1.0 Pn  0.40
 XJXKR 93.21 1.0 Sn  0.36
 XJYCH 23.25 1.0 Pg -0.69
 XJYCH 41.27 0.4 Sg -1.18
 XJYJS 39.43 1.0 Pn -0.67
 XJYJS 70.27 0.4 Sn -1.10
 XJYUT 82.47 1.0 Sn -0.51
# 2009 05 24 20 50 50.810 37.566 76.646 9 1.8 0 0 1.37292 177 XJ.200905250450.0001 eq
 XJTAG 22.64 1.0 Pg  0.44
 XJTAG 39.65 0.4 Sg  2.65
 XJYCH 11.21 1.0 Pg  0.10
 XJYCH 20.04 0.4 Sg  1.53
 XJYJS 17.45 1.0 Pg -0.55
 XJYJS 31.19 0.4 Sg  1.20
# 2009 05 24 21 38 54.180 37.769 77.486 11 1.2 0 0 0.980057 178 XJ.200905250538.0001 eq
 XJTAG 33.06 0.4 Pg -1.24
 XJTAG 55.92 0.4 Sg -1.05
 XJXKR 38.81 1.0 Pn  0.11
 XJXKR 67.25 1.0 Sn  0.35
 XJYCH 13.47 0.4 Sg  1.08
 XJYCH 7.8 1.0 Pg  0.35
 XJYJS 21.16 1.0 Pg  0.77
 XJYJS 35.62 0.4 Sg  1.74
# 2009 05 25 22 32 22.050 36.831 76.898 102 1.4 0 0 0.688431 179 XJ.200905260632.0001 eq
 XJHTTZ0 30.27 1.0 Pg  0.39
 XJHTTZ0 53.99 1.0 Sg  0.93
 XJTAG 29.3 1.0 Pg  0.24
 XJTAG 52.42 1.0 Sg  0.85
 XJYCH 16.68 0.4 Pg -1.02
 XJYCH 30.74 1.0 Sg -0.56
 XJYJS 28.52 1.0 Pg -0.80
 XJYJS 52.04 1.0 Sg -0.02
# 2009 05 28 16 08 14.290 36.537 79.167 10 3.4 0 0 1.36625 180 XJ.200905290007.0001 eq
 XJAHQ 118.5 0.4 Sn  1.25
 XJAHQ 65.72 0.4 Pn -1.20
 XJAKS 122.81 0.2 Sn  0.00
 XJAKS 68.58 0.4 Pn -1.51
 XJATS 112.75 0.4 Sn  1.27
 XJATS 62.5 0.4 Pn -1.14
 XJBAC 147.71 0.4 Sn  1.47
 XJBAC 82.16 0.4 Pn -1.25
 XJBCH 49.65 0.4 Pn -1.60
 XJBCH 89.21 1.0 Sn -0.47
 XJBPM 104.11 0.4 Sn  1.44
 XJBPM 58.12 1.0 Pn -0.51
 XJHTA 14.37 1.0 Pg -0.30
 XJHTA 26.27 1.0 Sg -0.15
 XJHTTZ0 10.65 1.0 Pg -0.79
 XJHTTZ0 19.54 0.4 Sg -1.61
 XJKOL 105.03 0.4 Pn -2.36
 XJKOL 190.01 0.4 Sn  1.60
 XJKSH 104.6 1.0 Sn  0.77
 XJKSH 58.55 1.0 Pn -0.74
 XJKSZ 108.28 0.4 Sn  1.80
 XJKSZ 60.57 1.0 Pn -0.23
 XJKUC 157.22 0.4 Sn  1.81
 XJKUC 87.21 0.4 Pn -1.41
 XJQMO 134.2 1.0 Sn  0.70
 XJQMO 74.64 0.4 Pn -1.52
 XJRUQ 114.1 0.4 Pn -1.63
 XJRUQ 205.12 0.4 Sn  2.05
 XJTAG 53.36 1.0 Pn -0.06
 XJTAG 95.24 0.4 Sn  1.73
 XJWUQ 120.04 0.4 Sn  2.17
 XJWUQ 67.14 1.0 Pn -0.14
 XJWUS 124.19 0.4 Sn  1.45
 XJWUS 68.29 0.4 Pn -1.75
 XJXKR 53.97 1.0 Pn -0.68
 XJXKR 96.27 1.0 Sn  0.61
 XJYCH 29.24 1.0 Pg -0.90
 XJYCH 51.32 0.4 Sg -2.03
 XJYJB 29.63 1.0 Pg -0.84
 XJYJB 52.62 0.4 Sg -1.32
 XJYJS 45.84 1.0 Pn -0.61
 XJYJS 81.47 1.0 Sn  0.23
 XJYPH 51.11 1.0 Pn -0.45
 XJYPH 91.47 0.4 Sn  1.24
 XJYUT 38.01 1.0 Pn  0.19
 XJYUT 68.42 0.4 Sn  2.60
 XZSQHE 111.59 0.4 Sn  2.82
 XZSQHE 62.1 0.2 Pn  0.00
# 2009 06 06 12 14 52.160 37.128 79.246 6 2.0 0 0 1.24952 181 XJ.200906062014.0001 eq
 XJHTA 17.39 0.4 Sg  1.18
 XJHTA 9.8 1.0 Pg  0.10
 XJHTTZ0 2.32 1.0 Pg -0.98
 XJHTTZ0 4.98 1.0 Sg -0.52
 XJTAG 54.72 1.0 Pn -0.49
 XJTAG 96.13 1.0 Sn  0.64
 XJYCH 29.13 1.0 Pg  0.59
 XJYCH 49.93 0.4 Sg  2.56
 XJYJS 46.25 1.0 Pn  0.53
 XJYJS 81.84 0.4 Sn  2.75
 XJYUT 42.28 1.0 Pn  0.26
 XJYUT 73.5 1.0 Sn  0.80
# 2009 06 09 01 50 40.450 36.582 76.191 20 3.0 0 0 1.30283 182 XJ.200906090950.0002 eq
 XJHTTZ0 42.84 1.0 Pn  0.09
 XJHTTZ0 74.22 1.0 Sn  0.21
 XJKSH 47.56 0.4 Pn  1.56
 XJKSH 82.6 0.4 Sn  3.00
 XJTAG 25.68 0.4 Pg -1.40
 XJTAG 45.28 1.0 Sg  0.25
 XJYJS 36.3 1.0 Pg -0.25
 XJYJS 60.83 1.0 Sg  0.09
# 2009 06 09 18 36 11.240 37.169 76.350 95 2.1 0 0 0.379078 183 XJ.200906100236.0001 eq
 XJHTTZ0 34.64 1.0 Pn -0.14
 XJHTTZ0 61.65 1.0 Sn -0.20
 XJTAG 22.24 1.0 Pg  0.25
 XJTAG 38.92 0.2 Sg  0.00
 XJYCH 18.69 1.0 Pg  0.05
 XJYCH 33.27 1.0 Sg  0.29
 XJYJS 24.08 1.0 Pg -0.37
 XJYJS 42.63 1.0 Sg -0.72
 XJYPH 33.5 1.0 Pg  0.18
 XJYPH 59.88 1.0 Sg  0.63
# 2009 06 16 03 25 55.510 37.616 76.095 98 2.1 0 0 1.05243 184 XJ.200906161125.0001 eq
 XJATS 35.5 1.0 Pn  0.18
 XJATS 63.89 0.4 Sn  1.08
 XJBCH 44.84 0.4 Pn -1.35
 XJBCH 79.32 0.4 Sn -2.99
 XJHTTZ0 37.78 1.0 Pn -0.27
 XJHTTZ0 67.7 0.2 Sn  0.00
 XJKSH 27.92 1.0 Pg  0.48
 XJKSH 48.51 1.0 Sg -0.19
 XJKSZ 32.88 1.0 Pg  0.43
 XJKSZ 57.41 1.0 Sg -0.26
 XJTAG 17.84 1.0 Pg -0.56
 XJTAG 32.15 1.0 Sg -0.38
 XJWUQ 37.71 0.4 Pn  1.91
 XJWUQ 66 0.4 Sn  2.34
 XJXKR 38.65 1.0 Pn -0.50
 XJXKR 69 1.0 Sn -0.69
 XJYCH 21.38 1.0 Pg  0.36
 XJYCH 37.52 1.0 Sg  0.31
 XJYJS 19.98 1.0 Pg -0.12
 XJYJS 35.94 1.0 Sg  0.36
 XJYPH 28.35 1.0 Pg -0.11
 XJYPH 50.39 1.0 Sg -0.13
# 2009 06 17 19 42 53.540 37.807 77.922 6 1.8 0 0 1.42506 185 XJ.200906180342.0001 eq
 XJBCH 37.6 0.4 Pg -1.65
 XJBCH 65.45 1.0 Sg  0.21
 XJHTTZ0 21.79 0.4 Pg  1.06
 XJHTTZ0 37.04 0.4 Sg  2.60
 XJTAG 40.42 1.0 Pg -0.33
 XJTAG 68.73 0.4 Sg  1.01
 XJXKR 37.84 1.0 Pg -0.35
 XJXKR 64.45 0.4 Sg  1.01
 XJYCH 11.24 1.0 Pg -0.13
 XJYCH 19.51 1.0 Sg  0.57
 XJYJS 25.17 1.0 Pg  0.13
 XJYJS 43.8 0.4 Sg  2.27
 XJYPH 32.72 0.4 Pg  1.26
 XJYPH 55.24 0.4 Sg  2.90
# 2009 06 19 08 31 29.270 37.525 78.465 3 2.0 0 0 0.155483 186 XJ.200906191631.0001 eq
 XJHTTZ0 11.8 1.0 Pg  0.16
 XJHTTZ0 19.91 1.0 Sg -0.19
 XJTAG 44 1.0 Pn  0.14
 XJTAG 77.57 1.0 Sn -0.06
 XJYCH 17.23 1.0 Pg -0.09
 XJYCH 29.97 1.0 Sg  0.06
 XJYJS 35.95 1.0 Pg  0.22
 XJYJS 61.47 1.0 Sg -0.22
# 2009 06 19 11 56 06.590 37.461 76.148 93 2.1 0 0 0.980071 187 XJ.200906191955.0001 eq
 XJBPM 38.56 1.0 Pn -0.23
 XJBPM 69.32 1.0 Sn  0.27
 XJHTTZ0 37.47 1.0 Pg  0.44
 XJHTTZ0 64.47 0.4 Sg -1.42
 XJKSH 31.41 0.4 Pg  2.21
 XJKSH 54.81 0.4 Sg  2.95
 XJTAG 19.09 1.0 Pg  0.33
 XJTAG 32.77 1.0 Sg -0.40
 XJWUQ 37.61 1.0 Pn -0.11
 XJWUQ 66.57 1.0 Sn -0.55
 XJXKR 40.51 1.0 Pn -0.08
 XJXKR 71.68 1.0 Sn -0.60
 XJYCH 19.81 1.0 Pg -0.09
 XJYCH 35.39 1.0 Sg  0.18
 XJYJS 21.32 1.0 Pg  0.12
 XJYJS 37.91 1.0 Sg  0.36
 XJYPH 30.22 1.0 Pg  0.27
 XJYPH 53.61 1.0 Sg  0.40
# 2009 06 19 14 06 56.170 37.297 79.317 9 1.9 0 0 1.53816 188 XJ.200906192206.0001 eq
 XJBCH 45.14 1.0 Pn  0.21
 XJBCH 78.26 1.0 Sn  0.44
 XJHTA 10.41 1.0 Pg  1.00
 XJHTA 18.51 0.4 Sg  2.80
 XJHTTZ0 2.51 0.4 Pg -2.33
 XJHTTZ0 5.46 0.4 Sg -2.59
 XJTAG 55.86 1.0 Pn  0.33
 XJTAG 97.47 0.4 Sn  1.41
 XJYCH 30.29 0.4 Pg  1.07
 XJYCH 51.11 0.4 Sg  2.67
 XJYJS 45.44 1.0 Pn  0.28
 XJYJS 79.18 1.0 Sn  0.97
 XJYUT 41.48 1.0 Pn -0.57
 XJYUT 73.19 1.0 Sn  0.44
# 2009 06 20 19 09 50.360 37.082 76.559 9 1.4 0 0 0.411096 189 XJ.200906210309.0002 eq
 XJTAG 24.61 1.0 Pg  0.11
 XJTAG 40.05 1.0 Sg -0.55
 XJYCH 13.2 1.0 Pg -0.05
 XJYCH 21.2 1.0 Sg -0.82
 XJYJS 26.93 1.0 Pg -0.07
 XJYJS 44.66 1.0 Sg -0.14
# 2009 06 21 05 28 04.240 37.767 77.089 1 2.0 0 0 1.141 190 XJ.200906211328.0001 eq
 XJHTTZ0 31.44 1.0 Pg  0.10
 XJHTTZ0 53.77 0.4 Sg  1.61
 XJKSH 34.26 1.0 Pg  0.16
 XJKSH 57.78 0.4 Sg  1.05
 XJTAG 27.71 1.0 Pg -0.72
 XJTAG 48.18 1.0 Sg  0.99
 XJYCH 15.09 0.4 Sg  1.42
 XJYCH 8.14 1.0 Pg -0.08
 XJYJS 17.13 1.0 Pg  0.54
 XJYJS 30.03 0.4 Sg  2.34
# 2009 06 28 20 24 01.300 36.857 77.054 102 2.1 0 0 1.08673 191 XJ.200906290423.0001 eq
 XJBCH 48.31 1.0 Pn -0.73
 XJBCH 85.03 0.4 Sn -2.40
 XJHTA 38.37 0.4 Pn  1.70
 XJHTA 67.68 0.4 Sn  2.43
 XJHTTZ0 28.72 1.0 Pg  0.41
 XJHTTZ0 50.73 1.0 Sg  0.48
 XJKSH 40.16 1.0 Pn -0.15
 XJKSH 71.65 1.0 Sn -0.12
 XJTAG 30.56 1.0 Pg  0.35
 XJTAG 54.13 1.0 Sg  0.49
 XJXKR 45.66 1.0 Pn -0.23
 XJXKR 82.25 1.0 Sn  0.47
 XJYCH 16.56 1.0 Pg -0.51
 XJYCH 29.83 1.0 Sg -0.35
 XJYJS 28.65 1.0 Pg -0.73
 XJYJS 50.57 0.4 Sg -1.61
 XJYPH 37.53 0.2 Pn  0.00
 XJYPH 67.42 1.0 Sn  0.64
# 2009 06 29 23 25 48.520 37.210 76.329 96 2.0 0 0 0.896107 192 XJ.200906300725.0001 eq
 XJBPM 41.68 1.0 Pn -0.13
 XJBPM 73.89 1.0 Sn -0.57
 XJKSH 35.25 0.4 Pg  2.30
 XJKSH 60.4 0.4 Sg  1.82
 XJTAG 21.21 1.0 Pg -0.45
 XJTAG 38.04 1.0 Sg -0.30
 XJYCH 18.84 1.0 Pg  0.03
 XJYCH 33.6 1.0 Sg  0.32
 XJYJS 23.79 1.0 Pg -0.25
 XJYJS 42.18 1.0 Sg -0.44
 XJYPH 32.99 1.0 Pg  0.12
 XJYPH 58.27 1.0 Sg -0.16
# 2009 07 05 20 44 33.520 37.801 77.233 8 4.3 0 0 2.13702 193 XJ.200907060444.0001 eq
GSAXX 208.58 0.4 +P -2.50
GSAXX 368.58 0.4 S -5.70
XJBKO 189.58 0.4 P -3.50
TJCAD 247.58 0.4 P -3.00
GSGTA 253.78 0.4 eP 3.50
GSGTA 263.38 0.4 sP 5.00
XJKMY 141.18 0.4 P -2.80
XJKMY 146.88 0.4 pP -1.70
XJKMY 151.88 1.0 sP 0.50
XJKMY 153.88 0.4 PP 2.20
XJKMY 244.18 0.4 S -9.70
 CBSOA1 296.38 0.4 eP -2.90
GSTSS 312.18 1.0 P 0.90
GSTSS 318.18 0.4 pP 1.60
NMWJH 321.78 0.4 eP 4.40
NMWJH 328.08 0.4 pP 5.40
NMWJH 568.68 0.4 S -1.90
NMWJH 579.08 0.4 sS -1.30
XJWNQ 114.78 0.4 ePn 1.20
 CBXAC 281.78 0.4 P -4.00
 XJAHQ 54.93 1.0 Pn  0.08
 XJAHQ 94.55 1.0 Sn -0.30
 XJAKS 112.44 1.0 Sn  0.54
 XJAKS 64.17 1.0 Pn -0.55
 XJALR 116.08 1.0 Sn  0.88
 XJALR 66.75 1.0 Pn  0.11
 XJATS 41.32 1.0 Pn -0.23
 XJATS 72.5 1.0 Sn  0.60
 XJBAC 141.5 1.0 Sn  0.47
 XJBAC 81.81 1.0 Pn  0.37
 XJBCH 40.54 0.4 Pn -1.75
 XJBCH 71.07 0.4 Sn -2.11
 XJBPM 38.67 1.0 Pn -0.62
 XJBPM 68.51 1.0 Sn  0.52
 XJCBC 172.7 0.4 Sn  2.53
 XJCBC 99.12 1.0 Pn  0.76
 XJHTA 40.48 1.0 Pn -0.49
 XJHTA 70.99 1.0 Sn  0.13
 XJHTTZ0 30.41 1.0 Pg  0.73
 XJHTTZ0 51.42 0.4 Sg  2.15
 XJKOL 113.84 1.0 Pn -0.39
 XJKOL 198.54 1.0 Sn  0.79
 XJKSH 35 1.0 Pg -0.04
 XJKSH 59.02 1.0 Sg  0.76
 XJKSZ 37.93 1.0 Pn -0.70
 XJKSZ 66.88 1.0 Sn  0.12
 XJKUC 157.42 0.4 Sn  1.59
 XJKUC 89.91 1.0 Pn -0.03
 XJLTA 102.23 1.0 Pn  0.64
 XJLTA 178.05 0.4 Sn  2.43
 XJQMO 170.66 1.0 Sn  0.53
 XJQMO 97.89 1.0 Pn -0.45
 XJRUQ 132.51 1.0 Pn -0.61
 XJRUQ 231.82 0.4 Sn -2.46
 XJSMY 118.07 1.0 Sn -0.19
 XJSMY 68.27 1.0 Pn -0.11
 XJTAG 30.01 1.0 Pg -0.54
 XJTAG 51.09 1.0 Sg  0.31
 XJWSU 124.92 0.4 Pn  1.45
 XJWSU 215.48 0.4 Sn  1.83
 XJWUQ 43.69 1.0 Pn -0.64
 XJWUQ 76.72 1.0 Sn -0.03
 XJWUS 104.82 1.0 Sn -0.55
 XJWUS 60.1 1.0 Pn -0.82
 XJXKR 37.75 1.0 Pn -0.73
 XJXKR 65.79 1.0 Sn -0.76
 XJXNY 110.45 0.4 Pn  1.06
 XJXNY 192.23 0.4 Sn  3.02
 XJYCH 13.99 1.0 Sg  0.59
 XJYCH 8.31 1.0 Pg  0.31
 XJYJB 101.27 1.0 Sn  0.25
 XJYJB 57.76 1.0 Pn -0.63
 XJYJS 18.51 0.4 Pg  1.15
 XJYJS 31.43 0.4 Sg  2.55
 XJYPH 29.26 0.4 Pg  1.89
 XJYPH 48.44 0.4 Sg  2.97
 XJYUT 112.4 1.0 Sn -0.04
 XJYUT 64.61 1.0 Pn -0.43
 XJZSU 146.04 0.4 Sn  1.37
 XJZSU 84.3 1.0 Pn  0.80
 XZSQHE 152.98 0.4 Sn  1.10
 XZSQHE 88.09 1.0 Pn  0.46
# 2009 07 05 21 03 10.320 37.565 76.989 6 2.1 0 0 0.766779 194 XJ.200907060503.0001 eq
 XJATS 42.43 1.0 Pn -0.96
 XJATS 73.26 0.4 Sn -1.72
 XJHTTZ0 31.96 1.0 Pg  0.22
 XJHTTZ0 52.81 1.0 Sg  0.15
 XJKSH 36.41 1.0 Pg  0.22
 XJKSH 60.16 1.0 Sg -0.03
 XJYJS 19.93 1.0 Pg  0.53
 XJYJS 32.85 1.0 Sg  0.65
# 2009 07 05 22 40 06.140 37.346 76.826 8 2.3 0 0 0.685201 195 XJ.200907060640.0001 eq
 XJHTTZ0 33.7 1.0 Pg  0.24
 XJHTTZ0 55.07 1.0 Sg -0.51
 XJKSH 37.9 1.0 Pg -0.51
 XJKSH 62.41 0.4 Sg -1.42
 XJYJS 22.85 1.0 Pg  0.28
 XJYJS 37.08 1.0 Sg -0.38
# 2009 07 05 23 00 59.040 37.465 76.920 10 2.9 0 0 0.751186 196 XJ.200907060700.0001 eq
 XJHTA 43.26 1.0 Pn  0.08
 XJHTA 74.13 1.0 Sn -0.58
 XJHTTZ0 32.82 1.0 Pg  0.42
 XJHTTZ0 54.07 1.0 Sg  0.27
 XJKSH 37.63 1.0 Pg  0.41
 XJKSH 62.44 1.0 Sg  0.59
 XJKSZ 40.12 0.4 Pn -1.18
 XJKSZ 69.77 0.4 Sn -1.74
 XJYJS 21.04 1.0 Pg  0.28
 XJYJS 34.68 1.0 Sg  0.19
# 2009 07 06 04 42 06.160 37.760 77.198 1 2.2 0 0 1.14645 197 XJ.200907061241.0001 eq
 XJBCH 42.14 1.0 Pn -0.80
 XJBCH 73.93 1.0 Sn -0.34
 XJHTTZ0 29.92 1.0 Pg  0.12
 XJHTTZ0 51.66 0.4 Sg  2.06
 XJKSH 35.08 1.0 Pg -0.21
 XJKSH 60.11 0.4 Sg  1.48
 XJTAG 29.51 1.0 Pg -0.54
 XJTAG 50.43 1.0 Sg  0.56
 XJXKR 39.09 1.0 Pn  0.07
 XJXKR 68.58 1.0 Sn  0.95
 XJYCH 13.79 0.4 Sg  1.39
 XJYCH 7.86 1.0 Pg  0.41
 XJYJS 18.64 1.0 Pg  0.94
 XJYJS 31.99 0.4 Sg  2.58
# 2009 07 06 04 43 29.770 37.768 77.172 9 2.3 0 0 1.03737 198 XJ.200907061243.0001 eq
 XJBCH 42.83 1.0 Pn -0.15
 XJBCH 74.61 1.0 Sn  0.26
 XJHTTZ0 30.58 1.0 Pg  0.28
 XJHTTZ0 51.48 0.4 Sg  1.23
 XJKSH 34.24 1.0 Pg -0.64
 XJKSH 57.06 1.0 Sg -0.94
 XJTAG 29.31 1.0 Pg -0.38
 XJTAG 49.91 1.0 Sg  0.63
 XJXKR 38.82 1.0 Pn -0.14
 XJXKR 68.05 1.0 Sn  0.56
 XJYCH 13.49 1.0 Sg  0.63
 XJYCH 7.46 1.0 Pg -0.26
 XJYJS 18 1.0 Pg  0.71
 XJYJS 31.83 0.4 Sg  3.04
 XJYPH 28.34 1.0 Pg  0.58
 XJYPH 47.74 0.4 Sg  1.68
# 2009 07 13 20 04 28.990 37.206 79.210 5 2.3 0 0 1.4416 199 XJ.200907140404.0001 eq
 XJBCH 44.7 0.4 Pn -1.29
 XJBCH 79.01 1.0 Sn -0.58
 XJHTA 11.6 0.4 Pg  1.16
 XJHTA 20.05 0.4 Sg  2.61
 XJHTTZ0 2.97 1.0 Pg  0.06
 XJHTTZ0 5.74 1.0 Sg  0.91
 XJXKR 51.01 1.0 Pn  0.91
 XJXKR 88.89 0.4 Sn  2.26
 XJYCH 28.8 0.4 Pg  1.03
 XJYCH 47.97 0.4 Sg  1.85
 XJYJB 34.93 1.0 Pg -0.01
 XJYJB 59.55 0.4 Sg  1.45
 XJYUT 40.82 0.4 Pn -1.85
 XJYUT 72.42 0.4 Sn -1.47
# 2009 07 14 01 06 02.850 37.369 79.138 9 2.5 0 0 2.90601 200 XJ.200907140905.0002 eq
 XJAKS 108.37 1.0 Sn  0.21
 XJAKS 62.88 1.0 Pn  0.34
 XJBCH 42.13 0.4 Pn -1.59
 XJBCH 74.21 0.4 Sn -1.52
 XJHTA 12.58 1.0 Pg  0.21
 XJHTA 21.12 1.0 Sg  0.51
 XJHTTZ0 3.24 0.4 Pg -1.12
 XJHTTZ0 5.35 0.4 Sg -1.81
 XJTAG 54.3 1.0 Pn  0.80
 XJTAG 95.28 0.4 Sn  2.78
 XJYCH 28 0.4 Pg  1.51
 XJYCH 46.65 0.4 Sg  2.66
 XJYJS 42.88 1.0 Pn -0.15
 XJYJS 73.67 1.0 Sn -0.80
 XJYUT 36.26 0.4 Pn -7.90
 XJYUT 69.75 0.4 Sn -6.67
# 2009 07 14 04 18 26.270 36.810 77.208 110 2.9 0 0 0.964118 201 XJ.200907141218.0001 eq
 XJAHQ 109.42 0.4 Sn -2.59
 XJAHQ 61.8 1.0 Pn -0.97
 XJAKS 127.95 1.0 Sn  0.50
 XJAKS 72.21 1.0 Pn  0.83
 XJATS 49.05 1.0 Pn  0.43
 XJATS 88.03 0.4 Sn  1.39
 XJBAC 156.87 1.0 Sn -0.03
 XJBAC 88.44 1.0 Pn  0.63
 XJBCH 49.34 1.0 Pn  0.19
 XJBCH 86.94 1.0 Sn -0.67
 XJBPM 83.77 1.0 Sn -0.48
 XJHTA 36.09 1.0 Pn  0.62
 XJHTA 64.92 0.4 Sn  1.84
 XJHTTZ0 27.62 1.0 Pg  0.22
 XJHTTZ0 49.08 1.0 Sg  0.46
 XJKSH 41.99 1.0 Pn  0.12
 XJKSH 74.68 1.0 Sn  0.14
 XJKSZ 45.35 1.0 Pn -0.24
 XJKSZ 81.51 1.0 Sn  0.29
 XJQMO 169.16 0.4 Sn -1.27
 XJQMO 94.73 1.0 Pn -0.65
 XJRUQ 131.76 0.4 Pn -1.51
 XJRUQ 236.39 0.4 Sn -1.89
 XJTAG 31.34 1.0 Pg -0.89
 XJTAG 57.07 1.0 Sg -0.18
 XJWUS 121.34 1.0 Sn -0.70
 XJWUS 68.48 1.0 Pn  0.12
 XJXKR 47.42 1.0 Pn  0.89
 XJXKR 84.28 0.4 Sn  1.37
 XJYCH 16.91 0.4 Pg -1.02
 XJYCH 30.86 1.0 Sg -0.87
 XJYJS 30.1 1.0 Pg -0.68
 XJYJS 53.47 0.4 Sg -1.21
 XJYPH 39.84 0.4 Pn  1.22
 XJYPH 69.52 1.0 Sn  0.80
 XJYUT 104.19 1.0 Sn  0.78
 XJYUT 58.13 1.0 Pn  0.15
# 2009 07 14 11 56 04.800 37.177 79.276 10 2.6 0 0 0.666842 202 XJ.200907141956.0001 eq
 XJBCH 45.78 1.0 Pn -0.71
 XJBCH 78.93 0.4 Sn -1.45
 XJHTTZ0 2.99 1.0 Pg -0.63
 XJHTTZ0 5.58 1.0 Sg -0.47
 XJTAG 55.21 1.0 Pn -0.18
 XJTAG 96.57 1.0 Sn  0.75
 XJXKR 51.64 1.0 Pn  0.89
 XJXKR 89 0.4 Sn  1.19
 XJYCH 29.19 1.0 Pg  0.39
 XJYCH 47.95 1.0 Sg  0.06
 XJYJS 45.72 1.0 Pn  0.10
 XJYJS 78.88 1.0 Sn -0.07
 XJYUT 42.04 1.0 Pn  0.15
 XJYUT 72.41 1.0 Sn -0.07
# 2009 07 15 03 28 33.650 36.640 76.950 8 3.6 0 0 1.08875 203 XJ.200907151128.0002 eq
 XJAHQ 120.94 0.4 Sn -1.10
 XJAHQ 69.63 1.0 Pn -0.84
 XJAKS 138.02 1.0 Sn  0.37
 XJAKS 79.67 1.0 Pn  0.14
 XJATS 54.87 1.0 Pn -0.08
 XJATS 95.72 1.0 Sn  0.70
 XJBAC 166.11 1.0 Sn  0.50
 XJBAC 95.87 1.0 Pn  0.21
 XJBCH 55.28 0.4 Pn -2.14
 XJBCH 96.87 0.4 Sn -2.47
 XJBPM 54.69 1.0 Pn  0.23
 XJBPM 94.11 1.0 Sn -0.09
 XJCBC 114.69 0.4 Pn  1.18
 XJCBC 199.03 0.4 Sn  2.58
 XJHTA 44.4 0.4 Pn  1.12
 XJHTA 76.32 0.4 Sn  1.48
 XJHTTZ0 32.71 1.0 Pg -0.35
 XJHTTZ0 55.15 1.0 Sg  0.15
 XJKSH 48.24 1.0 Pn  0.60
 XJKSH 82.94 1.0 Sn  0.51
 XJKSZ 50.6 0.4 Pn -1.35
 XJKSZ 87.61 0.4 Sn -2.20
 XJTAG 34.22 1.0 Pg  0.21
 XJTAG 57.05 1.0 Sg  0.44
 XJWUQ 56.3 1.0 Pn  0.04
 XJWUQ 98.35 0.4 Sn  1.05
 XJXKR 53.75 1.0 Pn -0.47
 XJXKR 92.85 1.0 Sn -0.91
 XJYCH 15.84 1.0 Pg  0.54
 XJYCH 26.13 1.0 Sg  0.63
 XJYJS 36.25 1.0 Pg  0.40
 XJYJS 61.13 0.4 Sg  1.49
 XJYPH 45.69 1.0 Pn  0.18
 XJYPH 78.63 1.0 Sn -0.19
 XJYUT 115.05 0.4 Sn  2.11
 XJYUT 65.75 1.0 Pn  0.41
# 2009 07 17 03 45 03.320 37.255 79.274 7 2.1 0 0 0.68291 204 XJ.200907171145.0001 eq
 XJBCH 45.56 1.0 Pn  0.13
 XJBCH 78.84 1.0 Sn  0.18
 XJHTTZ0 3.47 1.0 Pg -0.49
 XJHTTZ0 6.18 1.0 Sg -0.43
 XJXKR 49.25 1.0 Pn -0.56
 XJXKR 84.5 0.4 Sn -1.65
 XJYCH 29.19 1.0 Pg  0.54
 XJYCH 48.59 0.4 Sg  1.07
 XJYJS 44.69 1.0 Pn -0.33
 XJYJS 78.16 1.0 Sn  0.14
 XJYUT 43 1.0 Pn  0.71
 XJYUT 73.31 1.0 Sn  0.13
# 2009 07 20 22 40 57.640 36.974 77.228 90 2.7 0 0 0.735043 205 XJ.200907210639.0003 eq
 XJBCH 45.35 0.4 Pn -1.25
 XJBCH 81.48 0.4 Sn -1.58
 XJBPM 45.02 1.0 Pn  0.37
 XJBPM 80.14 1.0 Sn  0.58
 XJHTTZ0 25.61 1.0 Pg -0.14
 XJHTTZ0 46.27 1.0 Sg  0.61
 XJKSH 39.36 1.0 Pn -0.15
 XJKSH 69.61 1.0 Sn -0.72
 XJXKR 43.71 1.0 Pn -0.13
 XJXKR 78.74 1.0 Sn  0.62
 XJYCH 13.94 1.0 Pg -0.70
 XJYCH 25.59 1.0 Sg -0.25
 XJYJS 28.51 1.0 Pg  0.55
 XJYJS 50.42 1.0 Sg  0.79
 XJYPH 37 0.4 Pg  1.13
 XJYPH 63.96 1.0 Sg  0.15
# 2009 07 22 02 29 21.610 36.858 76.926 95 2.1 0 0 0.586503 206 XJ.200907221029.0001 eq
 XJBPM 46.39 1.0 Pn  0.29
 XJBPM 82.28 1.0 Sn  0.13
 XJHTTZ0 29.38 1.0 Pg  0.16
 XJHTTZ0 51.74 1.0 Sg -0.14
 XJKSH 39.27 1.0 Pn -0.23
 XJKSH 69.8 1.0 Sn -0.51
 XJTAG 29.06 1.0 Pg  0.29
 XJTAG 51.5 1.0 Sg  0.44
 XJYCH 16.4 1.0 Pg -0.33
 XJYCH 29.83 1.0 Sg  0.27
 XJYJS 28 1.0 Pg -0.72
 XJYJS 49.71 0.4 Sg -1.29
 XJYPH 37.55 1.0 Pn  0.39
 XJYPH 67.38 0.4 Sn  1.25
# 2009 07 22 08 05 09.710 37.406 79.253 4 2.6 0 0 1.32909 207 XJ.200907221604.0001 eq
 XJBCH 43.58 1.0 Pn  0.14
 XJBCH 76.27 0.4 Sn  1.18
 XJBPM 52.41 1.0 Pn -0.31
 XJBPM 90.02 0.4 Sn -1.17
 XJHTA 11.25 1.0 Pg  0.03
 XJHTA 19.08 1.0 Sg  0.40
 XJHTTZ0 4.28 0.4 Pg -1.30
 XJHTTZ0 7.02 0.4 Sg -2.25
 XJYCH 30.52 0.4 Pg  2.32
 XJYCH 49.59 0.4 Sg  2.79
 XJYJS 43.65 1.0 Pn -0.17
 XJYJS 75.46 1.0 Sn -0.47
 XJYUT 42.52 1.0 Pn -0.71
 XJYUT 73.76 0.4 Sn -1.01
# 2009 07 25 15 07 16.140 36.252 78.127 35 3.9 0 0 1.93931 208 XJ.200907252307.0002 eq
XJBKO 187.86 0.4 P -2.90
XJBKO 334.66 0.4 S -5.80
GSGTA 237.86 0.4 eP -2.50
GSGTA 243.86 0.4 pP -4.60
XJKOL 114.36 0.4 P -3.50
XJWMQ 146.36 0.4 P -3.50
XJWMQ 262.66 0.4 S -4.70
XJWNQ 125.86 0.4 +iP -2.60
XJWNQ 220.66 0.4 S -8.20
 XJAHQ 119.43 0.2 Sn  0.00
 XJAHQ 67.58 1.0 Pn -0.49
 XJAKS 128.53 0.4 Sn -1.42
 XJAKS 73.52 1.0 Pn -0.53
 XJATS 102.36 1.0 Sn -0.34
 XJATS 58.75 1.0 Pn  0.20
 XJBAC 155.03 0.4 Sn -1.02
 XJBAC 88.02 1.0 Pn -0.88
 XJBCH 51.5 0.4 Pn -1.59
 XJBCH 91.61 0.4 Sn -1.47
 XJBPM 55.33 1.0 Pn -0.35
 XJBPM 97.78 1.0 Sn  0.13
 XJCBC 108.54 1.0 Pn -0.18
 XJCBC 191.35 1.0 Sn  0.44
 XJHTA 29.1 0.4 Pg -1.20
 XJHTA 51.97 1.0 Sg -0.83
 XJHTTZ0 22.54 1.0 Pg  0.60
 XJHTTZ0 40.9 0.4 Sg  3.25
 XJKOL 114.38 0.4 Pn -1.24
 XJKOL 203.24 1.0 Sn  0.19
 XJKSH 52.23 1.0 Pn -0.29
 XJKSH 92.98 1.0 Sn  0.90
 XJKSZ 56.15 1.0 Pn  0.61
 XJKSZ 98.37 1.0 Sn  0.97
 XJKUC 167.91 1.0 Sn  0.70
 XJKUC 95.2 1.0 Pn -0.04
 XJLTA 104.86 1.0 Pn -0.31
 XJLTA 184.68 0.2 Sn  0.00
 XJQMO 151.6 0.4 Sn  1.14
 XJQMO 85.66 1.0 Pn -0.05
 XJSMY 139.59 1.0 Sn  0.24
 XJSMY 79.56 1.0 Pn  0.16
 XJTAG 43.45 1.0 Pn  0.59
 XJTAG 75.52 1.0 Sn  0.43
 XJWUQ 107.23 1.0 Sn  0.13
 XJWUQ 60.92 1.0 Pn -0.14
 XJWUS 127.25 1.0 Sn -0.06
 XJWUS 72.09 1.0 Pn -0.46
 XJXKR 53.15 1.0 Pn -0.25
 XJXKR 93.2 1.0 Sn -0.44
 XJXNY 116.02 0.4 Pn -1.08
 XJXNY 205.93 1.0 Sn  0.27
 XJYCH 23.31 1.0 Pg -0.59
 XJYCH 42.45 0.4 Sg  1.24
 XJYJS 39.46 1.0 Pn -0.69
 XJYJS 69.08 0.4 Sn -1.25
 XJYPH 47.75 1.0 Pn  0.37
 XJYPH 84.44 0.4 Sn  1.38
 XJYUT 47.22 1.0 Pn  0.12
 XJYUT 82.7 1.0 Sn  0.14
 XJZSU 167.17 0.4 Sn  1.14
 XJZSU 94.95 1.0 Pn  0.38
 XZSQHE 105.14 0.4 Sn  1.04
 XZSQHE 59.8 1.0 Pn  0.44
# 2009 07 26 23 45 37.920 37.682 76.695 5 3.4 0 0 1.42735 209 XJ.200907270745.0002 eq
 XJATS 40.25 1.0 Pn -0.62
 XJATS 71.36 1.0 Sn  0.64
 XJBCH 44.79 0.4 Pn -1.96
 XJBCH 78.74 0.4 Sn -2.22
 XJBPM 39.92 1.0 Pn -0.67
 XJBPM 69.11 0.4 Sn -1.12
 XJHTA 46.21 1.0 Pn  0.18
 XJHTA 80.49 1.0 Sn  0.84
 XJHTTZ0 36.37 1.0 Pg -0.10
 XJHTTZ0 62.26 0.4 Sg  1.65
 XJKSH 32.51 1.0 Pg  0.51
 XJKSH 55.9 0.4 Sg  2.50
 XJKSZ 37.39 1.0 Pg -0.02
 XJKSZ 63.59 0.4 Sg  1.38
 XJTAG 22.74 1.0 Pg  0.03
 XJTAG 38.46 1.0 Sg  0.80
 XJWUQ 42.52 1.0 Pn -0.01
 XJWUQ 73.52 1.0 Sn -0.14
 XJXKR 40.72 1.0 Pn -0.53
 XJXKR 71.04 1.0 Sn -0.35
 XJYCH 13.13 0.4 Pg  1.82
 XJYCH 23.02 0.4 Sg  4.21
 XJYJS 16.44 1.0 Pg  0.43
 XJYJS 28.49 0.4 Sg  1.88
 XJYPH 29.58 1.0 Pg  0.93
 XJYPH 49.3 0.4 Sg  1.77
