# 2008 12 19 19 58 33.210 36.517 76.215 5 4.3 0 0 1.58784 47 XJ.200812200358.0003 eq
 XJATS 55.51 1.0 Pn  0.30
 XJATS 97.96 0.4 Sn  2.48
 XJBCH 107.11 0.4 Sn -1.01
 XJBCH 60.54 0.4 Pn -1.98
 XJBPM 100.78 0.4 Sn  2.98
 XJBPM 56.62 1.0 Pn  0.06
 XJHTA 51.57 1.0 Pn  0.27
 XJHTA 91.38 0.4 Sn  2.64
 XJHTTZ0 41.86 1.0 Pn -0.89
 XJHTTZ0 72.68 0.4 Sn -1.32
 XJKSH 47.9 1.0 Pn  0.97
 XJKSH 83.78 0.4 Sn  2.57
 XJKSZ 53.21 1.0 Pn  0.91
 XJKSZ 93.1 0.4 Sn  2.66
 XJTAG 26.75 0.4 Pg -1.55
 XJTAG 46.99 1.0 Sg -0.01
 XJWUQ 57.27 0.4 Pn  1.88
 XJXKR 58.51 1.0 Pn  0.91
 XJYCH 23.45 1.0 Pg -0.28
 XJYCH 41.37 0.4 Sg  1.98
 XJYJB 115.82 0.4 Sn  2.94
 XJYJB 65.2 1.0 Pn -0.11
 XJYJS 36.9 1.0 Pg -0.80
 XJYJS 62.56 1.0 Sg -0.14
 XJYPH 47.82 1.0 Pn  0.30
 XJYPH 82.77 1.0 Sn  0.54
# 2008 12 19 20 00 58.220 36.364 76.133 8 3.7 0 0 1.47338 48 XJ.200812200400.0001 eq
 XJHTA 53.67 0.4 Pn  1.03
 XJHTA 93.8 0.4 Sn  2.73
 XJHTTZ0 43.04 0.4 Pn -1.19
 XJHTTZ0 76.68 1.0 Sn  0.12
 XJKSH 49.29 1.0 Pn  0.52
 XJKSH 87.03 0.4 Sn  2.62
 XJKSZ 56.99 0.4 Pn  2.71
 XJTAG 28.72 0.4 Pg -1.46
 XJTAG 50.3 1.0 Sg  0.24
 XJYCH 25.53 0.4 Pg -1.06
 XJYCH 44.59 1.0 Sg  0.41
 XJYJS 40.2 1.0 Pg -0.55
 XJYJS 67.84 1.0 Sg  0.12
# 2008 12 19 20 34 01.150 36.293 76.034 6 2.7 0 0 1.19561 49 XJ.200812200433.0001 eq
 XJHTA 52.87 0.4 Pn -1.04
 XJHTA 91.57 0.4 Sn -1.64
 XJHTTZ0 46.42 1.0 Pn  0.87
 XJHTTZ0 80.66 0.4 Sn  1.79
 XJTAG 31.19 1.0 Pg  0.49
 XJTAG 52.55 0.4 Sg  1.55
 XJYCH 29.06 1.0 Pg  0.42
 XJYCH 48.49 1.0 Sg  0.98
 XJYJS 42.75 1.0 Pg  0.53
 XJYJS 70.7 1.0 Sg  0.42
 XJYPH 49.52 0.4 Pn -1.27
 XJYPH 85.99 0.4 Sn -1.89
# 2008 12 19 20 39 38.830 36.585 76.119 8 3.3 0 0 0.939076 50 XJ.200812200439.0001 eq
 XJHTA 52.08 1.0 Pn -0.05
 XJHTA 90.93 1.0 Sn  0.79
 XJHTTZ0 42.04 0.4 Pn -1.48
 XJHTTZ0 73.7 0.4 Sn -1.60
 XJTAG 26.37 1.0 Pg -0.13
 XJTAG 44.24 1.0 Sg  0.24
 XJYCH 23.52 1.0 Pg -0.38
 XJYCH 40.1 1.0 Sg  0.30
 XJYJS 37.38 1.0 Pn  0.05
 XJYJS 64.62 1.0 Sn  0.11
 XZSQHE 82.1 0.4 Pn  2.00
# 2008 12 19 21 00 50.760 36.306 76.044 6 2.3 0 0 1.15149 51 XJ.200812200500.0001 eq
 XJHTA 53.53 1.0 Pn -0.23
 XJHTA 93.83 1.0 Sn  0.89
 XJHTTZ0 45.65 1.0 Pn  0.25
 XJHTTZ0 79.65 0.4 Sn  1.05
 XJTAG 30.02 1.0 Pg -0.48
 XJTAG 51.54 1.0 Sg  0.84
 XJYCH 27.25 0.4 Pg -1.05
 XJYCH 47.19 1.0 Sg  0.19
 XJYJS 42.64 0.4 Pn  1.52
 XJYJS 73.76 0.4 Sn  2.62
# 2008 12 19 21 09 30.190 36.421 76.095 8 3.3 0 0 1.12428 52 XJ.200812200509.0002 eq
 XJATS 56.33 1.0 Pn -0.06
 XJATS 97.85 1.0 Sn  0.33
 XJHTA 53.6 1.0 Pn  0.76
 XJHTA 93.7 0.4 Sn  2.30
 XJHTTZ0 43.65 1.0 Pn -0.71
 XJHTTZ0 76.93 1.0 Sn  0.15
 XJKSH 48.53 1.0 Pn  0.58
 XJKSH 85.71 0.4 Sn  2.73
 XJKSZ 53.4 1.0 Pn -0.11
 XJKSZ 92.86 1.0 Sn  0.35
 XJTAG 28.43 1.0 Pg -0.52
 XJTAG 49.04 1.0 Sg  0.92
 XJWUQ 56.76 1.0 Pn  0.39
 XJWUQ 98.5 0.4 Sn  1.02
 XJYCH 25.46 1.0 Pg -0.78
 XJYCH 43.77 1.0 Sg  0.15
 XJYJS 39.53 1.0 Pn  0.04
 XJYJS 69.08 1.0 Sn  0.69
 XJYPH 85.92 0.4 Sn  1.14
 XZSQHE 138.72 0.4 Sn  2.69
 XZSQHE 78.99 1.0 Pn  0.40
# 2008 12 19 22 15 19.730 36.135 76.065 7 2.2 0 0 0.407165 53 XJ.200812200615.0001 eq
 XJTAG 33.19 1.0 Pg -0.34
 XJTAG 55.63 1.0 Sg -0.12
 XJYCH 30.27 1.0 Pg -0.23
 XJYCH 50.4 1.0 Sg -0.30
 XJYJS 43.93 1.0 Pn  0.57
 XJYJS 75.58 1.0 Sn  0.63
# 2008 12 19 23 16 08.120 36.424 76.014 1 3.3 0 0 1.57541 54 XJ.200812200715.0002 eq
 XJHTA 50.83 1.0 Pn -0.40
 XJHTA 92.46 0.4 Sn  2.87
 XJHTTZ0 41.84 1.0 Pn -0.76
 XJHTTZ0 75.88 0.4 Sn  1.47
 XJKSH 44.22 1.0 Pn -0.89
 XJKSH 80.64 0.4 Sn  1.81
 XJTAG 26.25 1.0 Pg -0.85
 XJTAG 48.34 1.0 Sg  0.34
 XJYCH 23.58 0.4 Pg -2.37
 XJYCH 43.57 0.4 Sg -2.41
 XJYJS 36.2 1.0 Pn -0.31
 XJYJS 65.03 0.4 Sn  1.49
# 2008 12 23 04 36 25.210 37.761 77.775 8 1.8 0 0 1.18946 55 XJ.200812231236.0001 eq
 XJHTTZ0 22.4 1.0 Pg  0.27
 XJHTTZ0 38.99 0.4 Sg  2.20
 XJTAG 38.19 1.0 Pg -0.34
 XJTAG 65.07 0.4 Sg  1.01
 XJYCH 16.41 0.4 Sg  1.01
 XJYCH 8.57 1.0 Pg -0.63
 XJYJS 24.46 1.0 Pg  0.71
 XJYJS 41.26 0.4 Sg  1.83
# 2008 12 23 19 46 28.960 37.830 76.410 5 1.7 0 0 1.56424 56 XJ.200812240346.0001 eq
 XJTAG 19.42 0.4 Pg  1.11
 XJTAG 33.32 0.4 Sg  2.80
 XJYCH 15.67 1.0 Pg -0.62
 XJYCH 28.62 0.4 Sg  1.43
 XJYJS 12.25 1.0 Pg -0.65
 XJYJS 22.93 0.4 Sg  1.33
 XJYPH 26.42 1.0 Pg  0.16
 XJYPH 46.06 0.4 Sg  2.42
# 2008 12 25 12 47 34.730 37.961 77.545 11 2.0 0 0 1.12822 57 XJ.200812252047.0001 eq
 XJHTTZ0 26.77 1.0 Pg -0.24
 XJHTTZ0 45.69 1.0 Sg  0.86
 XJTAG 34.26 0.4 Pg -1.03
 XJTAG 59.07 1.0 Sg  0.44
 XJYCH 11.59 1.0 Pg  0.59
 XJYCH 20.64 0.4 Sg  2.29
 XJYJS 18.95 1.0 Pg  0.21
 XJYJS 32.09 1.0 Sg  0.86
 XJYPH 26.65 1.0 Pg  0.47
 XJYPH 45.54 0.4 Sg  2.02
# 2008 12 27 02 35 34.940 37.566 76.360 10 2.1 0 0 1.47576 58 XJ.200812271035.0001 eq
 XJKSH 29.46 1.0 Pg -0.98
 XJKSH 55.1 0.4 Sg  1.22
 XJTAG 15.72 0.4 Pg -1.72
 XJTAG 32.63 0.4 Sg  1.72
 XJYCH 13.34 0.4 Pg -1.38
 XJYCH 28.44 0.4 Sg  1.95
 XJYJS 18.61 0.4 Pg  1.35
 XJYPH 28.02 0.4 Pg -1.91
 XJYPH 52.74 1.0 Sg -0.24
# 2008 12 27 04 18 11.040 36.730 76.406 9 1.8 0 0 1.60096 59 XJ.200812271218.0001 eq
 XJTAG 27.46 1.0 Pg  0.50
 XJTAG 46.48 0.4 Sg  1.75
 XJYCH 19.4 1.0 Pg  0.60
 XJYCH 34.12 0.4 Sg  2.72
 XJYJS 32.42 0.4 Pg -1.10
 XJYJS 53.97 0.4 Sg -1.76
# 2008 12 27 11 47 48.030 37.446 76.150 13 2.8 0 0 1.64956 60 XJ.200812271947.0001 eq
 XJATS 38.08 1.0 Pn -0.66
 XJATS 70.06 0.4 Sn  2.50
 XJBPM 38.77 0.4 Pn -1.77
 XJBPM 71.86 1.0 Sn  1.00
 XJKSH 30.06 0.4 Pg -1.52
 XJKSH 55.02 1.0 Sg -0.85
 XJTAG 15.49 1.0 Pg  0.18
 XJTAG 29.86 0.4 Sg  2.36
 XJWUQ 37.43 0.4 Pn -1.78
 XJWUQ 68.11 1.0 Sn -0.31
 XJYCH 16.85 1.0 Pg -0.60
 XJYCH 32.9 0.4 Sg  2.01
 XJYJS 20.95 0.4 Pg  1.02
 XJYJS 37.76 0.4 Sg  2.56
 XJYPH 30.25 0.4 Pg -2.45
 XJYPH 56.18 0.4 Sg -1.68
# 2008 12 27 20 51 31.300 36.200 77.340 12 2.4 0 0 0.88794 61 XJ.200812280451.0001 eq
 XJHTTZ0 31.34 1.0 Pg -0.16
 XJHTTZ0 53.46 0.4 Sg  1.06
 XJTAG 42.66 1.0 Pn  0.21
 XJTAG 75.62 0.4 Sn  2.12
 XJYCH 21.73 1.0 Pg -0.52
 XJYCH 37.23 1.0 Sg  0.18
 XJYJS 43.94 1.0 Pn  0.47
 XJYJS 75.49 1.0 Sn  0.31
# 2008 12 30 02 52 53.390 37.093 77.226 13 1.8 0 0 0.618243 62 XJ.200812301052.0001 eq
 XJHTTZ0 26.81 1.0 Pg -0.61
 XJHTTZ0 45.87 1.0 Sg  0.35
 XJTAG 33.26 1.0 Pg  0.09
 XJTAG 56.61 0.4 Sg  1.45
 XJYCH 10.49 1.0 Sg  0.35
 XJYCH 6.68 1.0 Pg  0.57
 XJYJS 28.86 1.0 Pg -0.04
 XJYJS 48 1.0 Sg -0.06
# 2008 12 31 04 57 14.820 37.550 78.702 9 1.8 0 0 0.332566 63 XJ.200812311257.0001 eq
 XJBCH 41.48 1.0 Pn  0.34
 XJBCH 70.99 1.0 Sn -0.18
 XJHTTZ0 14.93 1.0 Sg  0.05
 XJHTTZ0 8.34 1.0 Pg -0.61
 XJTAG 48.74 1.0 Pn  0.12
 XJTAG 84.38 1.0 Sn  0.22
 XJYCH 19.9 1.0 Pg -0.22
 XJYCH 34.05 1.0 Sg  0.56
 XJYJS 37.71 1.0 Pg  0.32
 XJYJS 61.88 1.0 Sg -0.30
 XJYUT 49.39 1.0 Pn  0.05
 XJYUT 85.79 1.0 Sn  0.43
# 2008 12 31 05 03 28.790 37.600 78.698 3 2.4 0 0 1.14607 64 XJ.200812311303.0001 eq
 XJBCH 41.02 1.0 Pn  0.54
 XJBCH 70.18 1.0 Sn  0.21
 XJBPM 48.04 1.0 Pn  0.76
 XJBPM 82.28 1.0 Sn  0.45
 XJHTA 20.85 1.0 Pg  0.68
 XJHTA 35.6 0.4 Sg  2.05
 XJHTTZ0 14.2 0.4 Sg -2.00
 XJHTTZ0 8.12 0.4 Pg -1.58
 XJTAG 48.36 1.0 Pn -0.15
 XJTAG 82.49 0.4 Sn -1.50
 XJYCH 20.56 1.0 Pg  0.33
 XJYCH 35.11 0.4 Sg  1.47
 XJYJS 36.75 1.0 Pg -0.13
 XJYJS 61.43 1.0 Sg  0.16
 XJYUT 49.19 1.0 Pn -0.44
 XJYUT 83.87 0.4 Sn -1.99
# 2008 12 31 05 19 34.250 37.609 78.773 4 2.2 0 0 0.925824 65 XJ.200812311319.0001 eq
 XJBCH 40.07 1.0 Pn -0.24
 XJBCH 70.72 1.0 Sn  0.98
 XJHTA 19.96 1.0 Pg  0.67
 XJHTA 33.93 0.4 Sg  1.90
 XJHTTZ0 15.58 1.0 Sg  0.03
 XJHTTZ0 9.13 1.0 Pg -0.17
 XJYCH 21.86 1.0 Pg  0.49
 XJYCH 36.57 0.4 Sg  1.01
 XJYJS 37.88 1.0 Pg  0.12
 XJYJS 63.28 1.0 Sg  0.49
 XJYUT 48.06 1.0 Pn -0.88
 XJYUT 83.01 0.4 Sn -1.70
# 2009 01 04 17 09 41.100 37.986 77.559 6 1.3 0 0 1.34541 66 XJ.200901050109.0001 eq
 XJBCH 65.01 0.4 Sn -1.48
 XJBPM 37.92 1.0 Pg  0.86
 XJBPM 64 0.4 Sg  2.46
 XJHTTZ0 26.93 1.0 Pg -0.13
 XJHTTZ0 47.09 0.4 Sg  2.10
 XJTAG 35.06 1.0 Pg -0.47
 XJTAG 60.21 0.4 Sg  1.14
 XJYCH 11.26 1.0 Pg -0.25
 XJYCH 20.3 0.4 Sg  1.14
# 2009 01 08 01 25 00.320 37.498 78.885 10 2.1 0 0 1.05213 67 XJ.200901080924.0001 eq
 XJBCH 42.21 1.0 Pn  0.38
 XJBCH 73.18 1.0 Sn  0.83
 XJBPM 49.72 1.0 Pn  0.22
 XJBPM 86.71 0.4 Sn  1.08
 XJHTA 16.88 1.0 Pg  0.08
 XJHTA 28.68 1.0 Sg  0.68
 XJHTTZ0 12.06 1.0 Sg  0.62
 XJHTTZ0 7.28 1.0 Pg  0.36
 XJTAG 51.28 1.0 Pn  0.66
 XJTAG 89.48 0.4 Sn  1.91
 XJXKR 44.43 1.0 Pn -0.69
 XJXKR 78.51 1.0 Sn  0.35
 XJYCH 23.41 1.0 Pg  0.61
 XJYCH 39.9 0.4 Sg  2.10
 XJYJS 38.61 0.4 Pg -1.62
 XJYJS 65.25 0.4 Sg -1.61
# 2009 01 08 01 38 02.080 37.354 76.213 91 1.8 0 0 1.31142 68 XJ.200901080937.0001 eq
 XJBCH 46.32 0.4 Pn -1.52
 XJBCH 82.36 0.4 Sn -2.93
 XJBPM 40.02 1.0 Pn  0.04
 XJBPM 71.06 1.0 Sn -0.13
 XJHTTZ0 64.48 1.0 Sn  0.15
 XJKSH 32.96 0.4 Pg  2.33
 XJKSH 57.05 0.4 Sg  2.64
 XJTAG 19.11 1.0 Pg -0.49
 XJTAG 34.54 1.0 Sg -0.12
 XJXKR 73.8 1.0 Sn -0.21
 XJYCH 19.33 1.0 Pg  0.16
 XJYCH 33.68 1.0 Sg -0.22
 XJYJS 22.45 1.0 Pg  0.28
 XJYJS 39.81 1.0 Sg  0.54
# 2009 01 10 11 24 41.180 36.459 78.028 108 2.0 0 0 0.803243 69 XJ.200901101924.0002 eq
 XJBPM 53.36 1.0 Pn -0.02
 XJBPM 95.33 1.0 Sn  0.14
 XJHTTZ0 22.11 1.0 Pg -0.09
 XJHTTZ0 40.32 1.0 Sg  0.97
 XJTAG 42.49 1.0 Pn  0.78
 XJTAG 75.66 0.4 Sn  1.42
 XJYCH 21.12 0.4 Pg -1.01
 XJYCH 38.12 0.4 Sg -1.09
 XJYJS 37.53 1.0 Pn -0.70
 XJYJS 67.64 1.0 Sn -0.40
# 2009 01 10 18 54 29.810 36.046 77.163 10 2.4 0 0 1.39174 70 XJ.200901110254.0001 eq
 XJHTA 39.95 1.0 Pn -0.12
 XJHTA 72.4 0.4 Sn  2.43
 XJHTTZ0 32.68 0.4 Pg -1.25
 XJHTTZ0 60.15 1.0 Sg  0.08
 XJTAG 38.04 1.0 Pn -0.79
 XJTAG 69.58 0.4 Sn  1.89
 XJYCH 22.35 0.4 Pg -1.92
 XJYCH 41.81 0.4 Sg -1.14
 XJYJS 40.64 1.0 Pn -0.67
 XJYJS 73.7 0.4 Sn  1.50
# 2009 01 13 02 51 54.890 36.905 79.450 10 2.0 0 0 1.38096 71 XJ.200901131051.0001 eq
 XJBCH 48.13 0.4 Pn  1.30
 XJBCH 85.63 0.4 Sn  2.51
 XJHTA 12.64 0.4 Sg -1.56
 XJHTA 6.35 0.4 Pg -1.88
 XJHTTZ0 13.51 1.0 Sg -0.63
 XJHTTZ0 6.79 0.4 Pg -1.40
 XJYJS 45.67 1.0 Pn -0.15
 XJYJS 80.86 1.0 Sn -0.43
 XJYUT 36.6 1.0 Pn  0.98
 XJYUT 64.21 0.4 Sn  1.26
# 2009 01 13 21 00 52.780 37.777 77.802 8 1.5 0 0 1.16631 72 XJ.200901140500.0003 eq
 XJBCH 39.83 1.0 Pg -0.50
 XJBCH 66.22 1.0 Sg -0.84
 XJBPM 41.24 1.0 Pn  0.20
 XJBPM 71.58 1.0 Sn  0.59
 XJHTTZ0 22.42 1.0 Pg  0.50
 XJHTTZ0 38.48 0.4 Sg  2.05
 XJTAG 38.96 1.0 Pg  0.01
 XJTAG 65.47 1.0 Sg  0.69
 XJYCH 15.6 1.0 Sg -0.60
 XJYCH 8.48 0.4 Pg -1.22
 XJYJS 24.87 0.4 Pg  1.01
 XJYJS 42.37 0.4 Sg  2.68
# 2009 01 21 18 57 49.670 37.408 76.423 115 1.9 0 0 0.888955 73 XJ.200901220257.0001 eq
 XJBCH 46.29 1.0 Pn -0.19
 XJBCH 81.95 1.0 Sn -0.88
 XJBPM 39.56 1.0 Pn -0.13
 XJBPM 71.43 1.0 Sn  0.78
 XJHTA 43.38 1.0 Pn -0.24
 XJHTA 77.07 1.0 Sn -0.61
 XJHTTZ0 34.88 1.0 Pn -0.07
 XJHTTZ0 63.19 0.4 Sn  1.04
 XJKSH 32.49 1.0 Pg  0.77
 XJKSH 56.29 1.0 Sg -0.07
 XJTAG 20.38 0.4 Pg -2.48
 XJYCH 19.06 1.0 Pg -0.57
 XJYCH 35.12 1.0 Sg  0.36
 XJYJS 22.4 1.0 Pg -0.64
 XJYJS 39.64 0.4 Sg -1.21
 XJYPH 31.85 1.0 Pg  0.76
 XJYPH 56.15 1.0 Sg  0.91
# 2009 01 23 10 40 00.620 37.345 79.099 7 2.1 0 0 0.846202 74 XJ.200901231839.0001 eq
 XJBCH 44.16 1.0 Pn  0.14
 XJBCH 76.2 1.0 Sn  0.01
 XJHTTZ0 2.84 1.0 Pg -0.94
 XJHTTZ0 5.29 0.4 Sg -1.02
 XJTAG 52.66 1.0 Pn -0.47
 XJTAG 90.38 0.4 Sn -1.51
 XJYCH 26.37 1.0 Pg  0.46
 XJYCH 44.8 0.4 Sg  1.84
 XJYJS 43.49 1.0 Pn  0.64
 XJYJS 74.29 1.0 Sn  0.16
 XJYUT 44.6 1.0 Pn  0.16
 XJYUT 77.18 1.0 Sn  0.30
# 2009 01 23 13 45 10.830 37.407 78.013 5 2.5 0 0 1.27684 75 XJ.200901232145.0001 eq
 XJBCH 39.79 0.4 Pn -1.13
 XJBCH 71.69 1.0 Sn -0.71
 XJBPM 43.71 1.0 Pn  0.28
 XJBPM 78.19 0.4 Sn  1.27
 XJHTA 28.65 0.4 Pg -1.01
 XJHTA 50.49 1.0 Sg -0.71
 XJHTTZ0 17.27 1.0 Pg  0.36
 XJHTTZ0 30.41 0.4 Sg  1.22
 XJKSH 43.39 1.0 Pn  0.55
 XJKSH 77.64 0.4 Sn  1.80
 XJTAG 39.45 1.0 Pn  0.45
 XJTAG 69.95 0.4 Sn  1.04
 XJYCH 16.45 0.4 Sg -1.28
 XJYCH 8.1 0.4 Pg -2.17
 XJYJS 29.72 0.4 Pg -1.95
 XJYJS 52.56 0.4 Sg -2.12
# 2009 01 24 23 41 59.860 37.454 77.991 0 1.7 0 0 0.620937 76 XJ.200901250741.0001 eq
 XJHTTZ0 17.47 1.0 Pg  0.01
 XJHTTZ0 30.4 1.0 Sg  0.25
 XJTAG 39.33 1.0 Pn  0.07
 XJTAG 70.66 0.4 Sn  1.37
 XJYCH 16.9 1.0 Sg -0.32
 XJYCH 9 1.0 Pg -0.98
 XJYJS 30.6 1.0 Pg -0.22
 XJYJS 53.04 1.0 Sg -0.17
# 2009 01 25 10 47 59.630 37.539 78.631 3 1.4 0 0 0.904659 77 XJ.200901251847.0001 eq
 XJBCH 40.21 0.4 Pn -1.07
 XJBCH 70.94 1.0 Sn -0.52
 XJBPM 48 1.0 Pn  0.40
 XJBPM 83.67 0.4 Sn  1.30
 XJHTTZ0 17.56 0.4 Sg  1.76
 XJHTTZ0 9.86 1.0 Pg  0.40
 XJTAG 47.69 1.0 Pn -0.19
 XJTAG 84.06 0.4 Sn  1.21
 XJYCH 18.86 1.0 Pg -0.19
 XJYCH 31.22 1.0 Sg -0.45
 XJYJS 37.23 1.0 Pg  0.66
 XJYJS 61.84 0.4 Sg  1.06
# 2009 01 25 13 08 13.660 36.364 78.254 107 2.1 0 0 0.690461 78 XJ.200901252108.0001 eq
 XJBCH 51.84 1.0 Pn -0.22
 XJBCH 92.36 1.0 Sn -0.46
 XJBPM 54.88 1.0 Pn -0.39
 XJBPM 98.23 1.0 Sn -0.36
 XJHTTZ0 21.91 1.0 Pg  0.37
 XJHTTZ0 38.83 1.0 Sg  0.66
 XJTAG 45.09 1.0 Pn  0.69
 XJTAG 80.22 0.4 Sn  1.15
 XJXKR 53.31 1.0 Pn  0.57
 XJXKR 94.98 1.0 Sn  0.93
 XJYCH 23.32 1.0 Pg -0.74
 XJYCH 41.62 0.4 Sg -1.04
 XJYJS 39.58 1.0 Pn -0.95
 XJYJS 71.94 1.0 Sn -0.20
# 2009 01 27 06 06 07.700 36.960 77.150 10 3.8 0 0 2.92758 79 CB.200901271406.0001 eq
GSAXX 211.6 0.4 -P -2.40
GSAXX 218.1 1.0 pP -0.60
GSAXX 221.3 0.4 sP -1.10
GSAXX 386.8 0.4 S 6.50
XJBCH 51.6 0.4 Pn 2.20
XJBCH 98.3 0.4 Sn 9.70
XJBKO 199.3 1.0 P 0.90
QHDUL 239.1 1.0 -eP 0.80
HLFUY 193.6 0.4 eP -2.20
HLFUY 351.3 0.4 S 3.70
QHGOM 205.8 0.4 eP 1.40
GSGTA 254.8 0.4 eP 2.60
GSGTA 259.1 0.4 pP 2.00
GSGTA 261.8 0.4 sP 1.10
NMHHC 343.3 1.0 eP -0.90
XJKMY 151.3 0.4 P -1.70
XJKMY 273.3 0.4 S 2.60
XJKOL 123.8 0.4 P -3.30
XJKOL 220.8 0.4 S -3.40
XJKSH 40.8 1.0 -iPn -0.50
XJKSH 77.8 0.4 Sn 3.80
 CBSOA1 297.8 1.0 eP -0.10
GSTSS 310.6 1.0 P -0.20
GSTSS 317.8 0.4 pP 1.40
NMWJH 318.8 1.0 eP -0.40
XJWNQ 125.8 1.0 eP -0.80
XJWNQ 225.1 0.4 S 1.90
XJWUS 132.6 0.4 Sn 8.70
XJWUS 72.1 0.4 Pn 3.20
GDXNY 121.6 0.4 eP 2.70
GDXNY 218.6 0.4 S 9.00
 XJAHQ 122.05 1.0 Sn -0.03
 XJAHQ 65.68 1.0 Pn -0.26
 XJATS 46.44 1.0 Pn -0.86
 XJATS 88.04 1.0 Sn -0.64
 XJBAC 170.85 1.0 Sn  0.75
 XJBAC 92.78 1.0 Pn  0.04
 XJBPM 48.76 1.0 Pn  0.56
 XJBPM 91.57 0.4 Sn  1.27
 XJCBC 110.03 1.0 Pn -0.31
 XJCBC 200.65 1.0 Sn -0.97
 XJHTA 39.96 1.0 Pn -0.11
 XJHTA 75.76 1.0 Sn  0.03
 XJHTTZ0 31.11 1.0 Pn -0.88
 XJHTTZ0 61.14 1.0 Sn -0.11
 XJKSZ 44.92 1.0 Pn  0.58
 XJKSZ 84.13 1.0 Sn  0.74
 XJQMO 100.35 1.0 Pn  0.43
 XJQMO 183.84 1.0 Sn  0.89
 XJSMY 147.52 1.0 Sn  0.43
 XJSMY 79.82 1.0 Pn -0.07
 XJTAG 20.4 0.4 Pg -4.50
 XJTAG 43.79 0.4 Sg -4.74
 XJWUQ 47.81 1.0 Pn  0.09
 XJWUQ 89.82 1.0 Sn  0.39
 XJXKR 48.71 1.0 Pn -0.19
 XJXKR 91.92 1.0 Sn  0.36
 XJYCH 14.03 0.4 Pg -5.88
 XJYCH 32.04 0.4 Sg -7.59
 XJYJS 28.94 0.4 Pn -1.31
 XJYJS 57.13 1.0 Sn -1.00
 XJYUT 114.75 1.0 Sn  0.46
 XJYUT 61.3 1.0 Pn -0.29
 XJZSU 173.81 1.0 Sn -0.77
 XJZSU 95.14 1.0 Pn -0.10
# 2009 01 28 09 33 44.840 36.342 78.355 128 2.6 0 0 0.898516 80 XJ.200901281733.0001 eq
 XJBCH 52.17 1.0 Pn -0.57
 XJBCH 93.76 1.0 Sn -0.26
 XJBPM 57.05 1.0 Pn  0.70
 XJBPM 99.75 1.0 Sn -0.73
 XJHTA 28.37 1.0 Pg  0.71
 XJHTA 51.19 0.4 Sg  2.07
 XJHTTZ0 22.18 1.0 Pg -0.78
 XJHTTZ0 40.38 1.0 Sg -0.35
 XJKSH 54.71 1.0 Pn  0.52
 XJKSH 96.61 0.2 Sn  0.00
 XJTAG 46.4 1.0 Pn  0.27
 XJTAG 83.47 0.4 Sn  1.33
 XJXKR 54.6 1.0 Pn  0.90
 XJXKR 96.76 0.4 Sn  1.02
 XJYCH 25.56 1.0 Pg -0.70
 XJYCH 45.87 1.0 Sg -0.74
 XJYJS 41.53 1.0 Pn -0.55
 XJYJS 73.66 0.4 Sn -1.26
 XJYUT 45.72 1.0 Pn -0.41
 XJYUT 81 0.4 Sn -1.16
# 2009 01 30 03 44 00.400 37.153 76.543 56 1.9 0 0 0.874351 81 XJ.200901301143.0001 eq
 XJBCH 47.31 1.0 Pn -0.23
 XJBCH 84.01 1.0 Sn -0.80
 XJBPM 41.41 1.0 Pn -0.24
 XJBPM 73.18 0.4 Sn -1.04
 XJKSH 34.74 0.4 Pg  1.29
 XJKSH 60.44 1.0 Sg  0.96
 XJTAG 21.24 1.0 Pg -0.67
 XJTAG 37.66 0.4 Sg -1.07
 XJYJS 23.82 1.0 Pg  0.77
 XJYJS 41.82 0.4 Sg  1.02
# 2009 02 01 07 25 54.040 36.168 76.398 52 1.8 0 0 0.585971 82 XJ.200902011525.0001 eq
 XJKSH 45.13 1.0 Pn -0.76
 XJKSH 82.13 1.0 Sn  0.29
 XJTAG 30.67 1.0 Pg  0.32
 XJTAG 53.17 1.0 Sg -0.71
 XJYCH 24.32 1.0 Pg  0.20
 XJYCH 42.02 1.0 Sg -0.69
 XJYJS 36.89 1.0 Pn  0.49
 XJYJS 65.63 1.0 Sn  0.85
# 2009 02 01 09 30 30.560 36.373 76.321 5 3.3 0 0 1.00506 83 XJ.200902011730.0001 eq
 XJATS 56.75 1.0 Pn -0.47
 XJATS 99.19 1.0 Sn  0.22
 XJBCH 108.33 0.4 Sn -1.62
 XJBCH 62.18 0.4 Pn -1.43
 XJBPM 101.09 1.0 Sn  0.22
 XJBPM 58.73 1.0 Pn  0.42
 XJHTA 52.18 0.4 Pn  1.53
 XJHTA 89.28 0.4 Sn  1.65
 XJHTTZ0 42.9 1.0 Pn  0.59
 XJHTTZ0 73.24 1.0 Sn  0.02
 XJKSH 49.67 1.0 Pn  0.67
 XJKSH 85.74 1.0 Sn  0.93
 XJKSZ 52.44 0.4 Pn -1.85
 XJKSZ 91.63 0.4 Sn -2.27
 XJTAG 31.27 1.0 Pg -0.14
 XJTAG 52.47 1.0 Sg  0.21
 XJWUQ 100.96 0.4 Sn  1.48
 XJWUQ 58.68 0.4 Pn  1.17
 XJXKR 102.33 1.0 Sn  0.08
 XJXKR 59.1 1.0 Pn -0.01
 XJYCH 24.44 1.0 Pg -0.16
 XJYCH 40.99 1.0 Sg  0.09
 XJYJS 39.95 1.0 Pg -0.31
 XJYJS 66.79 1.0 Sg -0.14
# 2009 02 01 09 50 26.300 36.262 76.235 6 2.4 0 0 1.10601 84 XJ.200902011750.0001 eq
 XJHTTZ0 43.44 1.0 Pn -0.24
 XJHTTZ0 76.17 1.0 Sn  0.50
 XJKSH 49.44 1.0 Pn -0.84
 XJKSH 86.52 1.0 Sn -0.43
 XJTAG 33.65 0.4 Pg  1.12
 XJTAG 56.9 0.4 Sg  2.85
 XJYCH 27.69 1.0 Pg  0.65
 XJYCH 45.51 1.0 Sg  0.58
 XJYJS 41.71 1.0 Pg -0.69
 XJYJS 70.04 1.0 Sg -0.65
# 2009 02 01 15 26 58.570 36.327 76.303 13 2.1 0 0 0.560134 85 XJ.200902012326.0001 eq
 XJHTA 51.07 1.0 Pn  0.06
 XJHTA 89.36 0.4 Sn  1.11
 XJHTTZ0 42.36 1.0 Pn -0.31
 XJHTTZ0 74.05 1.0 Sn  0.15
 XJTAG 32.15 1.0 Pg  0.15
 XJTAG 53.64 1.0 Sg  0.25
 XJYCH 25.75 1.0 Pg  0.25
 XJYCH 43.44 0.4 Sg  1.14
 XJYJS 41 1.0 Pg -0.15
 XJYJS 67.83 1.0 Sg -0.56
# 2009 02 01 19 47 11.600 36.303 76.336 15 2.6 0 0 0.829603 86 XJ.200902020347.0002 eq
 XJKSH 51.04 0.4 Pn  1.08
 XJKSH 87.74 0.4 Sn  1.34
 XJTAG 32.37 1.0 Pg -0.30
 XJTAG 54.28 1.0 Sg  0.02
 XJWUQ 101.66 1.0 Sn  0.52
 XJWUQ 58.48 1.0 Pn  0.02
 XJXKR 102.13 0.4 Sn -1.59
 XJXKR 59.09 1.0 Pn -0.88
 XJYCH 26.07 1.0 Pg  0.54
 XJYCH 43.2 1.0 Sg  0.80
 XJYJS 41.11 1.0 Pg -0.46
 XJYJS 68.41 1.0 Sg -0.70
# 2009 02 02 22 33 39.540 36.779 78.605 4 2.4 0 0 1.12717 87 XJ.200902030633.0001 eq
 XJBCH 51.39 1.0 Pn -0.05
 XJBCH 89.49 1.0 Sn  0.52
 XJHTA 21 1.0 Pg  0.72
 XJHTA 35.42 0.4 Sg  1.70
 XJHTTZ0 17.04 1.0 Sg  0.59
 XJHTTZ0 9.87 1.0 Pg  0.01
 XJTAG 51.12 0.4 Pn  1.11
 XJTAG 88.54 0.4 Sn  2.05
 XJYCH 22.17 1.0 Pg  0.37
 XJYCH 37.82 0.4 Sg  1.57
 XJYJB 38.37 0.4 Pn -1.83
 XJYJB 67.91 0.4 Sn -1.69
 XJYJS 43.15 1.0 Pn -0.32
 XJYJS 74.61 1.0 Sn -0.58
 XJYUT 83.29 1.0 Sn  0.59
# 2009 02 04 05 35 45.680 37.483 76.219 104 2.7 0 0 1.17778 88 XJ.200902041335.0001 eq
 XJATS 38.67 0.4 Pn  1.31
 XJATS 68.63 0.4 Sn  2.17
 XJBCH 45.85 1.0 Pn -0.91
 XJBCH 81.13 0.4 Sn -2.19
 XJBPM 38.38 1.0 Pn -0.30
 XJBPM 68.5 1.0 Sn -0.34
 XJHTTZ0 36.52 1.0 Pn -0.17
 XJHTTZ0 65.01 1.0 Sn -0.26
 XJKSH 31.02 0.4 Pg  1.39
 XJKSH 52.64 1.0 Sg  0.03
 XJKSZ 34.91 1.0 Pg  0.45
 XJKSZ 60.92 1.0 Sg -0.35
 XJTAG 18.62 0.4 Pg -1.51
 XJTAG 33.06 0.4 Sg -2.56
 XJWUQ 39.27 0.4 Pn  1.25
 XJWUQ 70.45 0.4 Sn  2.81
 XJXKR 40.41 1.0 Pn  0.09
 XJXKR 72.05 1.0 Sn  0.27
 XJYCH 20.13 1.0 Pg -0.04
 XJYCH 36.01 1.0 Sg  0.30
 XJYJS 21.35 1.0 Pg -0.25
 XJYJS 38.32 1.0 Sg  0.06
 XJYPH 30.15 1.0 Pg  0.17
 XJYPH 53.61 1.0 Sg  0.35
# 2009 02 04 06 40 56.950 36.275 76.294 9 3.0 0 0 0.789214 89 XJ.200902041440.0001 eq
 XJBCH 111.22 1.0 Sn -0.98
 XJBCH 64.6 1.0 Pn -0.30
 XJBPM 104.37 0.4 Sn  1.23
 XJBPM 60.47 1.0 Pn  0.82
 XJHTA 50.6 1.0 Pn -0.69
 XJHTA 88.05 1.0 Sn -0.67
 XJHTTZ0 43.98 1.0 Pn  0.94
 XJHTTZ0 75.19 1.0 Sn  0.71
 XJTAG 32.36 1.0 Pg -0.45
 XJTAG 54.47 0.2 Sg  0.00
 XJYCH 26.02 1.0 Pg -0.29
 XJYCH 43.72 0.2 Sg  0.00
 XJYJS 41.19 1.0 Pn -0.03
 XJYJS 70.05 0.4 Sn -1.28
