# 2009 03 13 23 05 28.720 37.461 77.976 15 3.6 0 0 2.03099 120 XJ.200903140705.0002 eq
GSAXX 201.78 0.4 P -1.30
GSAXX 363.08 0.4 S 5.70
XJBCH 41.18 0.4 Pn 1.60
XJBCH 72.28 0.4 Sn 5.00
XJBKO 183.58 0.4 P -3.00
XJBKO 319.08 0.4 S -8.30
HLFUY 180.58 0.4 +iP -3.60
HLFUY 190.88 0.4 PP -3.40
HLFUY 320.58 0.4 S -2.80
HLFUY 334.28 0.4 SS -4.00
HLFUY 520.88 1.0 PcP -0.60
HLFUY 731.78 1.0 ScP 0.90
HLFUY 733.68 1.0 PcS -0.80
HLFUY 946.78 1.0 ScS 0.90
GSGTA 244.28 0.4 eP 2.10
GSGTA 248.68 1.0 pP -1.00
GSGTA 251.18 0.4 sP -2.90
XJKMY 139.88 0.4 P -1.60
XJKMY 243.08 0.4 S -4.10
XJKOL 109.78 0.4 Pn -2.10
XJKOL 191.38 0.4 Sn -6.20
XJKOL 236.78 0.4 Sg -1.70
 XJAHQ 56.58 0.4 Pn -1.20
 XJAHQ 99.12 1.0 Sn -0.81
 XJAKS 112.2 1.0 Sn -0.20
 XJAKS 64.39 1.0 Pn -0.63
 XJALS 122.25 1.0 Pn  0.65
 XJALS 213.02 0.4 Sn  2.55
 XJATS 50.25 1.0 Pn  0.73
 XJATS 87.78 0.4 Sn  2.11
 XJBAC 139.19 1.0 Sn -0.54
 XJBAC 80.36 1.0 Pn -0.30
 XJBCH 41.15 0.4 Pn -2.29
 XJBCH 72.9 0.4 Sn -2.21
 XJBLT 126.39 1.0 Pn  0.75
 XJBLT 220.27 0.4 Sn  2.90
 XJBPM 44.96 1.0 Pn -0.64
 XJBPM 78.98 1.0 Sn  0.04
 XJCBC 100.4 0.4 Pn  1.22
 XJCBC 173.44 0.4 Sn  1.93
 XJGAZ 144.95 1.0 Pn -0.18
 XJGAZ 276.74 1.0 Sn  0.55
 XJHTA 30.56 0.4 Pg  1.10
 XJHTA 51.61 0.4 Sg  2.67
 XJHTTZ0 17.11 1.0 Pg  0.08
 XJHTTZ0 29.67 0.4 Sg  1.28
 XJJHE 119.92 1.0 Pn  0.53
 XJJHE 208.72 0.4 Sn  2.06
 XJKMS 132.68 1.0 Pn -0.57
 XJKMS 233.27 0.4 Sn -1.48
 XJKOL 110.33 1.0 Pn -0.30
 XJKOL 192.47 1.0 Sn  1.00
 XJKSH 44.29 1.0 Pn -0.64
 XJKSH 76.87 1.0 Sn -0.96
 XJKSZ 47.07 1.0 Pn  0.43
 XJKSZ 81.47 1.0 Sn  0.71
 XJKUC 149.5 0.4 Sn -3.12
 XJKUC 85.2 0.4 Pn -2.85
 XJLTA 172.56 0.4 Sn  1.42
 XJLTA 99.09 1.0 Pn  0.13
 XJQMO 157.13 1.0 Sn  0.49
 XJQMO 89.74 1.0 Pn -0.66
 XJRUQ 125.6 1.0 Pn -0.90
 XJRUQ 219.47 1.0 Sn  0.57
 XJSMY 121.84 0.4 Sn  1.27
 XJSMY 69.96 1.0 Pn  0.32
 XJTAC 146.65 1.0 Pn -0.44
 XJTAC 284.57 0.4 Sn  1.63
 XJTAG 41.35 1.0 Pn  0.20
 XJTAG 72.05 1.0 Sn  0.85
 XJTCH 144.31 1.0 Pn  0.31
 XJTCH 272.76 1.0 Sn  0.43
 XJWNQ 116.28 1.0 Pn  0.30
 XJWNQ 202.67 0.4 Sn  1.90
 XJWSU 123.53 0.4 Pn  1.18
 XJWSU 213.88 0.4 Sn  2.09
 XJWUQ 53.03 1.0 Pn  0.16
 XJWUQ 91.78 1.0 Sn  0.32
 XJWUS 107.98 1.0 Sn -0.42
 XJWUS 62.09 1.0 Pn -0.59
 XJXKR 42.15 1.0 Pn -0.87
 XJXKR 74.23 1.0 Sn -0.22
 XJXNY 108.87 1.0 Pn  0.15
 XJXNY 187.92 1.0 Sn -0.08
 XJYCH 10.28 0.4 Pg  1.10
 XJYCH 18.31 0.4 Sg  2.97
 XJYJB 49.06 1.0 Pn -0.34
 XJYJB 85.14 1.0 Sn -0.32
 XJYJS 31.02 0.4 Pg  1.38
 XJYJS 51.83 0.4 Sg  2.61
 XJYPH 37.77 1.0 Pg  0.34
 XJYPH 62.6 1.0 Sg  0.35
 XJYUT 54.77 0.4 Pn -1.43
 XJYUT 95.69 0.4 Sn -1.51
 XJZSU 148.83 0.4 Sn  1.94
 XJZSU 85.72 1.0 Pn  0.94
# 2009 03 16 22 44 39.160 36.093 76.938 12 3.4 0 0 1.22437 121 XJ.200903170644.0001 eq
 XJBCH 109.24 0.4 Sn -1.76
 XJBCH 62.35 0.4 Pn -1.87
 XJHTA 46.79 0.4 Pn  1.14
 XJHTA 81.83 0.4 Sn  2.83
 XJHTTZ0 36.69 1.0 Pg -0.94
 XJHTTZ0 62.62 1.0 Sg  0.03
 XJKSH 55.94 0.4 Pn  1.54
 XJKSH 96.07 0.4 Sn  1.97
 XJTAG 40.41 1.0 Pn -0.13
 XJTAG 69.86 1.0 Sn -0.25
 XJYCH 24.46 1.0 Pg -0.64
 XJYCH 41.88 1.0 Sg  0.18
 XJYJB 100.14 1.0 Sn  0.37
 XJYJB 57.83 1.0 Pn  0.14
 XJYJS 44.24 1.0 Pn  0.32
 XJYJS 76.64 1.0 Sn  0.58
 XJYPH 53.26 1.0 Pn  0.45
 XJYPH 92.97 0.4 Sn  1.62
# 2009 03 17 03 35 03.030 36.066 76.934 9 3.1 0 0 1.46317 122 XJ.200903171135.0002 eq
 XJBCH 110.44 0.4 Sn -1.21
 XJBCH 62.94 0.4 Pn -1.63
 XJBPM 110.34 0.4 Sn  2.89
 XJBPM 63.2 0.4 Pn  1.08
 XJHTA 47.67 0.4 Pn  1.82
 XJHTA 81.93 0.4 Sn  2.62
 XJHTTZ0 38.02 1.0 Pg  0.03
 XJHTTZ0 63.16 1.0 Sg  0.02
 XJKSH 53.65 0.4 Pn -1.08
 XJKSH 93.91 1.0 Sn -0.74
 XJTAG 41.32 1.0 Pn  0.53
 XJTAG 73.23 0.4 Sn  2.62
 XJYCH 25.42 1.0 Pg -0.18
 XJYCH 42.7 1.0 Sg  0.10
 XJYJS 43.72 1.0 Pn -0.55
 XJYJS 77.75 0.4 Sn  1.11
# 2009 03 18 13 23 39.750 36.985 77.105 111 1.8 0 0 0.556417 123 XJ.200903182123.0001 eq
 XJHTTZ0 27.91 1.0 Pg -0.12
 XJHTTZ0 50.63 1.0 Sg  0.86
 XJTAG 30.61 1.0 Pg  0.30
 XJTAG 54.51 1.0 Sg  0.70
 XJYCH 16.17 1.0 Pg -0.92
 XJYCH 29.77 1.0 Sg -0.46
 XJYJS 28.19 1.0 Pg -0.28
 XJYJS 50.47 1.0 Sg -0.08
# 2009 03 19 20 03 58.700 37.654 77.640 7 3.8 0 0 1.29911 124 XJ.200903200403.0004 eq
 XJAHQ 55.62 1.0 Pn -0.12
 XJAHQ 96.79 1.0 Sn  0.36
 XJAKS 111.87 1.0 Sn  0.84
 XJAKS 64.07 1.0 Pn -0.16
 XJATS 46.3 1.0 Pn  0.89
 XJATS 81.15 0.4 Sn  2.53
 XJBCH 41.78 1.0 Pn -0.34
 XJBCH 72.15 1.0 Sn -0.71
 XJBPM 41.11 1.0 Pn -0.97
 XJBPM 72.94 1.0 Sn  0.13
 XJHTA 36.92 1.0 Pn  0.64
 XJHTA 64.03 0.4 Sn  1.27
 XJHTTZ0 25.17 0.4 Pg  2.16
 XJHTTZ0 42.21 0.4 Sg  3.94
 XJKSH 39.27 0.4 Pn -1.33
 XJKSH 68.46 0.4 Sn -1.80
 XJKSZ 42.77 1.0 Pn  0.28
 XJKSZ 74.88 0.4 Sn  1.30
 XJQMO 164.06 0.4 Sn  1.39
 XJQMO 94.57 1.0 Pn  0.62
 XJSMY 117.08 0.4 Sn -1.29
 XJSMY 66.58 0.4 Pn -1.85
 XJTAG 36.34 1.0 Pg -0.31
 XJTAG 61.09 1.0 Sg  0.18
 XJWUQ 47.33 0.4 Pn -1.26
 XJWUQ 82.76 0.4 Sn -1.36
 XJWUS 106.64 1.0 Sn  0.81
 XJWUS 61.01 1.0 Pn -0.18
 XJXKR 40.65 1.0 Pn  0.50
 XJXKR 71.02 0.4 Sn  1.51
 XJYCH 11.41 1.0 Sg  0.41
 XJYCH 6.88 1.0 Pg  0.25
 XJYJB 53.04 1.0 Pn -0.63
 XJYJB 91.78 0.4 Sn -1.01
 XJYJS 24.49 1.0 Pg  0.99
 XJYJS 40.82 0.4 Sg  1.77
 XJYPH 33.24 0.4 Pg  1.26
 XJYPH 55.94 0.4 Sg  2.65
 XJYUT 104.77 1.0 Sn  0.36
 XJYUT 59.92 1.0 Pn -0.43
# 2009 03 19 20 29 30.520 37.601 77.631 3 2.2 0 0 1.40619 125 XJ.200903200429.0001 eq
 XJBCH 41.86 1.0 Pn -0.94
 XJBCH 74.12 1.0 Sn  0.06
 XJBPM 42.26 1.0 Pn -0.46
 XJBPM 74.75 1.0 Sn  0.79
 XJHTA 36.75 1.0 Pn  0.54
 XJHTA 62.67 1.0 Sn  0.06
 XJHTTZ0 24.02 0.4 Pg  1.20
 XJHTTZ0 42.37 0.4 Sg  4.51
 XJTAG 35.37 0.4 Pg -1.23
 XJTAG 58.37 0.4 Sg -2.47
 XJXKR 40.45 1.0 Pn -0.48
 XJXKR 70.58 1.0 Sn -0.23
 XJYCH 10.5 1.0 Sg  0.82
 XJYCH 6 1.0 Pg  0.16
 XJYJS 25.05 1.0 Pg  0.93
 XJYJS 41.06 0.4 Sg  1.02
 XJYPH 33.17 1.0 Pg  0.29
 XJYPH 55.67 0.4 Sg  1.10
# 2009 03 20 06 25 33.420 36.439 78.081 121 3.1 0 0 0.971751 126 XJ.200903201425.0002 eq
 XJAHQ 119.24 1.0 Sn  0.52
 XJAHQ 67.29 1.0 Pn  0.76
 XJAKS 129.5 1.0 Sn -0.02
 XJAKS 73.53 1.0 Pn  0.99
 XJATS 103.5 0.4 Sn  1.67
 XJATS 59.05 0.4 Pn  1.95
 XJBAC 155.92 1.0 Sn -0.59
 XJBAC 88.08 1.0 Pn  0.47
 XJBCH 50.99 1.0 Pn -0.68
 XJBCH 92.4 1.0 Sn  0.30
 XJBPM 54.22 1.0 Pn  0.12
 XJBPM 95.46 0.4 Sn -1.01
 XJHTA 29.5 1.0 Pg  0.57
 XJHTA 52.86 0.4 Sg  1.48
 XJHTTZ0 22.76 1.0 Pg -0.32
 XJHTTZ0 41.16 1.0 Sg  0.23
 XJKSH 51.37 1.0 Pn  0.12
 XJKSH 90.48 1.0 Sn -0.86
 XJKSZ 54.78 1.0 Pn  0.68
 XJKSZ 96.17 1.0 Sn -0.29
 XJQMO 153.64 0.4 Sn -1.41
 XJQMO 85.96 1.0 Pn -0.86
 XJTAG 42.74 1.0 Pn -0.05
 XJTAG 76.6 1.0 Sn  0.44
 XJWUQ 103.98 0.4 Sn -2.56
 XJWUQ 58.05 0.4 Pn -1.68
 XJXKR 52.1 1.0 Pn  0.25
 XJXKR 93.56 0.4 Sn  1.14
 XJYCH 22.64 1.0 Pg -0.96
 XJYCH 41.33 1.0 Sg -0.52
 XJYJB 41.37 1.0 Pn  0.36
 XJYJB 73.54 1.0 Sn  0.55
 XJYJS 38.4 1.0 Pn -0.86
 XJYJS 68.09 0.4 Sn -1.77
 XJYPH 46.78 1.0 Pn  0.77
 XJYPH 82.23 1.0 Sn  0.27
 XJYUT 48.45 1.0 Pn -0.31
 XJYUT 85.68 0.4 Sn -1.19
# 2009 03 21 03 50 08.810 36.300 79.331 10 2.4 0 0 1.01149 127 XJ.200903211150.0002 eq
 XJHTA 17.74 1.0 Pg  0.58
 XJHTA 28.77 1.0 Sg  0.11
 XJHTTZ0 16.03 1.0 Pg -0.57
 XJHTTZ0 26.4 0.4 Sg -1.30
 XJQMO 133.3 0.4 Sn -1.70
 XJQMO 77.67 1.0 Pn -0.33
 XJYCH 37.03 0.4 Pg  1.19
 XJYCH 60.72 0.4 Sg  1.08
 XJYJB 28.86 1.0 Pg -0.11
 XJYJB 48 1.0 Sg -0.15
 XJYJS 52.68 1.0 Pn -0.76
 XJYJS 90.46 0.4 Sn -1.95
 XJYUT 65.91 1.0 Sg -0.97
# 2009 03 21 12 44 13.260 36.435 78.088 118 2.2 0 0 0.728819 128 XJ.200903212044.0001 eq
 XJBCH 51.97 1.0 Pn  0.35
 XJBCH 92.02 0.2 Sn  0.00
 XJBPM 54.99 1.0 Pn  0.90
 XJBPM 96.03 1.0 Sn -0.42
 XJHTTZ0 23.18 1.0 Pg  0.37
 XJHTTZ0 41.46 0.4 Sg  1.01
 XJTAG 42.91 1.0 Pn  0.15
 XJTAG 76.45 1.0 Sn  0.34
 XJYCH 23.02 1.0 Pg -0.39
 XJYCH 40.61 1.0 Sg -0.91
 XJYJS 38.9 1.0 Pn -0.31
 XJYJS 68.21 0.4 Sn -1.56
 XJYUT 47.77 1.0 Pn -0.83
 XJYUT 86.04 1.0 Sn -0.55
# 2009 03 22 13 10 20.500 36.085 77.099 7 3.7 0 0 0.777573 129 XJ.200903222110.0002 eq
 XJBCH 109.26 1.0 Sn -0.86
 XJBCH 62.36 0.4 Pn -1.35
 XJBPM 107.31 1.0 Sn  0.24
 XJBPM 61.71 1.0 Pn -0.20
 XJHTA 45.56 0.4 Pn  1.45
 XJHTA 77.18 1.0 Sn  0.85
 XJHTTZ0 35.46 1.0 Pg -0.24
 XJHTTZ0 59.4 0.2 Sg  0.00
 XJKSH 55.82 1.0 Pn  0.73
 XJKSH 96.92 0.4 Sn  1.66
 XJKSZ 103.04 1.0 Sn  0.13
 XJKSZ 60.44 1.0 Pn  0.94
 XJTAG 41.71 1.0 Pn -0.03
 XJTAG 70.91 0.4 Sn -1.27
 XJWUQ 109.11 0.4 Sn -1.01
 XJWUQ 63.69 1.0 Pn -0.02
 XJYCH 24.32 1.0 Pg -0.44
 XJYCH 40.88 1.0 Sg -0.27
 XJYJB 55.92 1.0 Pn -0.04
 XJYJB 95.62 0.4 Sn -1.18
 XJYJS 43.82 1.0 Pn -0.48
 XJYJS 76.3 1.0 Sn -0.40
 XJYPH 53.4 1.0 Pn  0.38
 XJYPH 91.87 1.0 Sn  0.16
 XJYUT 110.94 1.0 Sn  0.23
 XJYUT 63.37 1.0 Pn -0.69
# 2009 03 22 18 48 15.590 36.192 77.124 0 2.8 0 0 1.32946 130 XJ.200903230248.0001 eq
 XJHTA 42.21 0.4 Pn  1.29
 XJHTA 74.41 0.4 Sn  2.11
 XJHTTZ0 34.15 0.4 Pg -1.23
 XJHTTZ0 59.56 0.4 Sg -1.51
 XJKSH 51.78 1.0 Pn  0.03
 XJKSH 92.73 1.0 Sn  0.94
 XJTAG 37.62 0.4 Pn -1.12
 XJTAG 67.43 1.0 Sn -0.92
 XJYCH 21.03 0.4 Pg -2.46
 XJYCH 38.87 0.4 Sg -1.69
 XJYJS 40.79 1.0 Pn  0.25
 XJYJS 73.24 0.4 Sn  1.62
 XJYPH 49.14 1.0 Pn -0.23
 XJYPH 87.96 1.0 Sn  0.45
# 2009 03 25 11 04 09.140 36.673 77.422 131 2.9 0 0 1.0147 131 XJ.200903251904.0002 eq
 XJAHQ 115.06 0.2 Sn  0.00
 XJAHQ 65.14 1.0 Pn  0.65
 XJAKS 128.24 1.0 Sn -0.92
 XJAKS 72.48 1.0 Pn  0.14
 XJATS 53.94 0.4 Pn  2.26
 XJATS 95.02 0.4 Sn  2.91
 XJBCH 50.04 1.0 Pn -0.60
 XJBCH 89.54 1.0 Sn -0.73
 XJHTA 34.71 1.0 Pg  0.06
 XJHTA 61.76 1.0 Sg  0.13
 XJHTTZ0 27.25 1.0 Pg -0.11
 XJHTTZ0 48.18 1.0 Sg -0.41
 XJKSH 44.95 1.0 Pn -0.28
 XJKSH 80.7 1.0 Sn  0.14
 XJTAG 36 1.0 Pg  0.04
 XJTAG 62.75 0.4 Sg -1.19
 XJXKR 49.24 1.0 Pn  0.44
 XJXKR 87.48 1.0 Sn  0.51
 XJYCH 20.9 1.0 Pg -0.11
 XJYCH 38 1.0 Sg  0.75
 XJYJS 34.02 1.0 Pg -0.14
 XJYJS 59.68 0.4 Sg -1.07
 XJYPH 42.47 1.0 Pn  0.92
 XJYPH 75.76 0.4 Sn  1.78
# 2009 03 28 13 20 37.700 37.101 76.570 9 1.3 0 0 1.14314 132 XJ.200903282120.0001 eq
 XJTAG 24.99 1.0 Pg  0.54
 XJTAG 42.38 0.4 Sg  1.86
 XJYCH 12.66 1.0 Pg -0.25
 XJYCH 23.39 0.4 Sg  1.78
 XJYJS 26.31 1.0 Pg -0.29
 XJYJS 45.09 1.0 Sg  0.88
# 2009 03 29 01 18 49.050 37.975 76.749 4 1.9 0 0 1.53608 133 XJ.200903290918.0001 eq
 XJATS 38.07 0.4 Pg  1.41
 XJATS 63.82 0.4 Sg  2.89
 XJBCH 44.13 1.0 Pn  0.76
 XJBCH 75.84 1.0 Sn  0.87
 XJBPM 33.94 0.4 Pg -1.77
 XJBPM 58.14 0.4 Sg -1.28
 XJKSH 27.93 0.2 Pg  0.00
 XJKSH 46.3 1.0 Sg -0.10
 XJKSZ 34.01 0.4 Pg  1.55
 XJKSZ 56.21 0.4 Sg  2.28
 XJTAG 23.98 1.0 Pg  0.33
 XJTAG 40.05 1.0 Sg  0.77
 XJWUQ 37.38 0.4 Pg -2.26
 XJWUQ 63.47 0.4 Sg -2.52
 XJXKR 35.13 0.4 Pg -1.56
 XJXKR 60.08 1.0 Sg -0.90
 XJYCH 13.77 1.0 Pg -0.42
 XJYCH 23.96 1.0 Sg  0.33
 XJYJS 11.31 1.0 Pg  0.43
 XJYJS 19.36 0.4 Sg  1.22
 XJYPH 24.65 0.4 Pg  1.54
 XJYPH 40.81 0.4 Sg  2.40
# 2009 03 31 21 51 17.250 37.817 76.941 5 2.8 0 0 1.49738 134 XJ.200904010550.0001 eq
 XJATS 39.52 1.0 Pn -0.52
 XJATS 69.82 1.0 Sn  0.54
 XJBCH 41.68 0.4 Pn -2.05
 XJBCH 73.48 0.4 Sn -2.29
 XJBPM 36.9 0.4 Pg -1.76
 XJHTTZ0 33.37 1.0 Pg -0.37
 XJHTTZ0 57.23 0.4 Sg  1.14
 XJKSH 32.86 1.0 Pg  0.86
 XJKSH 55.65 0.4 Sg  2.25
 XJTAG 26.52 1.0 Pg  0.29
 XJTAG 44.67 0.4 Sg  1.07
 XJWUQ 41.52 1.0 Pn -0.85
 XJWUQ 74.12 1.0 Sn  0.78
 XJXKR 37.89 1.0 Pn -0.92
 XJXKR 67.84 1.0 Sn  0.71
 XJYCH 10.66 1.0 Pg  0.55
 XJYCH 18.81 0.4 Sg  1.98
 XJYJS 16.3 0.4 Pg  1.54
 XJYJS 27.46 0.4 Sg  2.90
 XJYPH 27.71 0.4 Pg  1.47
 XJYPH 46 0.4 Sg  2.38
# 2009 04 01 09 54 21.400 37.810 76.960 8 2.0 0 0 1.36125 135 XJ.200904011754.0001 eq
 XJBCH 43.51 1.0 Pn -0.19
 XJBCH 76.79 0.4 Sn  1.08
 XJBPM 64 1.0 Sg -0.59
 XJHTTZ0 32.78 1.0 Pg -0.67
 XJHTTZ0 56.63 0.4 Sg  1.07
 XJKSH 32.78 1.0 Pg  0.46
 XJKSH 56.31 0.4 Sg  2.63
 XJTAG 26.1 1.0 Pg -0.43
 XJTAG 44.87 1.0 Sg  0.81
 XJXKR 37.73 0.4 Pg -1.07
 XJXKR 63.68 1.0 Sg -0.88
 XJYCH 10.19 1.0 Pg  0.39
 XJYCH 17.43 0.4 Sg  1.08
 XJYJS 15.72 1.0 Pg  0.70
 XJYJS 27.64 0.4 Sg  2.68
 XJYPH 27.25 1.0 Pg  0.81
 XJYPH 46.87 0.4 Sg  2.97
# 2009 04 01 10 44 22.700 36.191 77.299 0 2.3 0 0 1.43499 136 XJ.200904011844.0001 eq
 XJHTTZ0 32.86 1.0 Pg -0.26
 XJHTTZ0 58.18 1.0 Sg  1.00
 XJKSH 53.31 1.0 Pn  0.78
 XJKSH 95.59 0.4 Sn  2.40
 XJTAG 39.8 1.0 Pn -0.32
 XJTAG 70.08 1.0 Sn -0.77
 XJYCH 21 0.4 Pg -2.23
 XJYCH 37.84 0.4 Sg -2.27
 XJYJS 41.39 1.0 Pn  0.38
 XJYJS 73.94 0.4 Sn  1.48
# 2009 04 03 07 19 08.730 36.162 76.925 5 2.3 0 0 1.49394 137 XJ.200904031519.0001 eq
 XJHTTZ0 33.34 1.0 Pn -0.75
 XJHTTZ0 61.49 0.4 Sn  2.05
 XJTAG 35.02 0.4 Pn -1.26
 XJTAG 65.24 0.4 Sn  2.09
 XJYCH 21.34 0.4 Pg -1.52
 XJYCH 39.9 1.0 Sg -0.60
# 2009 04 06 13 29 45.970 36.967 77.139 10 1.3 0 0 0.830502 138 XJ.200904062129.0001 eq
 XJTAG 32.73 1.0 Pg -0.26
 XJTAG 53.15 0.4 Sg -1.72
 XJYCH 13.97 1.0 Sg -0.32
 XJYCH 8.31 1.0 Pg -0.28
 XJYJS 31.24 1.0 Pg  0.54
 XJYJS 51.8 1.0 Sg  0.80
# 2009 04 11 11 26 54.360 37.750 76.028 118 2.4 0 0 0.84259 139 XJ.200904111926.0001 eq
 XJATS 36.1 0.4 Pg  1.74
 XJATS 63.46 0.4 Sg  2.36
 XJBCH 45.34 1.0 Pn -0.60
 XJBCH 81.06 1.0 Sn -0.79
 XJBPM 35.93 1.0 Pg -0.42
 XJBPM 63.38 0.4 Sg -1.29
 XJHTTZ0 39.86 1.0 Pn  0.11
 XJHTTZ0 70.11 1.0 Sn -0.64
 XJKSH 27.22 1.0 Pg  0.35
 XJKSH 48.05 1.0 Sg  0.36
 XJKSZ 32.33 1.0 Pg  0.69
 XJKSZ 56.39 1.0 Sg  0.17
 XJTAG 18.88 1.0 Pg -0.81
 XJTAG 33.89 1.0 Sg -0.97
 XJWUQ 35.07 1.0 Pg  0.32
 XJWUQ 61.64 1.0 Sg -0.15
 XJXKR 38.1 1.0 Pn -0.53
 XJXKR 68.2 1.0 Sn -0.55
 XJYCH 24.1 1.0 Pg  0.65
 XJYCH 42.34 1.0 Sg  0.76
 XJYJS 21.15 1.0 Pg  0.40
 XJYJS 37.1 1.0 Sg  0.33
 XJYPH 28.9 1.0 Pg  0.71
 XJYPH 50.67 1.0 Sg  0.60
# 2009 04 13 03 11 36.300 37.673 76.019 115 2.2 0 0 1.12967 140 XJ.200904131111.0001 eq
 XJATS 34.7 1.0 Pn -0.49
 XJATS 63 1.0 Sn  0.43
 XJBCH 45.07 0.4 Pn -1.56
 XJBCH 81.57 0.4 Sn -1.52
 XJBPM 36.05 0.4 Pn -1.15
 XJBPM 64.78 0.4 Sn -1.40
 XJKSH 28.95 0.4 Pg  1.43
 XJKSH 49.51 1.0 Sg  0.65
 XJTAG 19.35 1.0 Pg -0.04
 XJTAG 32.72 0.4 Sg -1.60
 XJWUQ 36.21 1.0 Pn  0.69
 XJWUQ 65.11 0.4 Sn  1.94
 XJXKR 38.87 1.0 Pn -0.55
 XJXKR 69.87 1.0 Sn -0.30
 XJYCH 24.88 0.4 Pg  1.83
 XJYCH 42.53 0.4 Sg  1.66
 XJYJS 21.31 1.0 Pg  0.15
 XJYJS 37.32 1.0 Sg -0.17
 XJYPH 29.79 1.0 Pg  0.89
 XJYPH 52.02 1.0 Sg  0.68
# 2009 04 14 05 56 56.590 37.645 77.668 6 1.9 0 0 1.37883 141 XJ.200904141356.0001 eq
 XJHTTZ0 23.27 1.0 Pg  0.69
 XJHTTZ0 40.26 0.4 Sg  2.79
 XJTAG 36.47 1.0 Pg -0.66
 XJTAG 62.81 0.4 Sg  1.15
 XJYCH 12.42 0.4 Sg  1.18
 XJYCH 6.18 1.0 Pg -0.56
 XJYJS 24.43 1.0 Pg  0.53
 XJYJS 41.59 0.4 Sg  1.79
# 2009 04 15 06 50 50.490 37.876 76.451 9 2.3 0 0 1.33049 142 XJ.200904151450.0001 eq
 XJBCH 45.48 1.0 Pn -0.93
 XJBCH 79.33 1.0 Sn -0.95
 XJBPM 36.48 0.4 Pg -1.51
 XJBPM 61.84 0.4 Sg -1.29
 XJHTTZ0 39.84 1.0 Pn -0.53
 XJHTTZ0 70.55 1.0 Sn  0.73
 XJKSH 27.19 1.0 Pg  0.13
 XJKSH 46.23 0.4 Sg  1.25
 XJTAG 19.02 1.0 Pg  0.01
 XJTAG 32.34 1.0 Sg  0.73
 XJWUQ 39.29 1.0 Pn  0.26
 XJWUQ 68.86 0.4 Sn  1.22
 XJXKR 38.43 0.4 Pn -1.33
 XJXKR 68.13 1.0 Sn -0.61
 XJYCH 17.81 0.4 Pg  1.59
 XJYCH 29.58 0.4 Sg  2.50
 XJYJS 13.07 0.4 Pg  1.03
 XJYJS 22.26 0.4 Sg  2.15
 XJYPH 26.61 0.4 Pg  1.28
 XJYPH 44.69 0.4 Sg  2.64
# 2009 04 15 07 33 53.900 37.823 76.431 10 2.7 0 0 1.19551 143 XJ.200904151533.0001 eq
 XJATS 38.97 1.0 Pn  0.69
 XJATS 68.35 0.4 Sn  2.08
 XJBCH 46.19 1.0 Pn -0.90
 XJBCH 79.8 0.4 Sn -1.69
 XJHTTZ0 39.71 1.0 Pn -0.65
 XJHTTZ0 69.56 1.0 Sn -0.25
 XJKSH 27.17 1.0 Pg -0.63
 XJKSH 45.99 1.0 Sg -0.21
 XJKSZ 34.21 1.0 Pg  0.37
 XJKSZ 57.31 0.4 Sg  1.03
 XJTAG 19.07 1.0 Pg  0.39
 XJTAG 31.62 1.0 Sg  0.55
 XJWUQ 39.58 1.0 Pn -0.02
 XJWUQ 68.69 1.0 Sn  0.15
 XJXKR 38.84 0.4 Pn -1.63
 XJXKR 68.04 0.4 Sn -1.92
 XJYCH 17.8 0.4 Pg  1.80
 XJYCH 29.34 0.4 Sg  2.74
 XJYJS 13.27 1.0 Pg  0.24
 XJYJS 22.29 1.0 Sg  0.56
 XJYPH 26.7 1.0 Pg  0.35
 XJYPH 45.44 0.4 Sg  1.67
# 2009 04 15 09 15 40.770 37.818 76.430 8 2.1 0 0 0.710944 144 XJ.200904151715.0001 eq
 XJHTTZ0 40.79 1.0 Pn  0.46
 XJHTTZ0 70.32 1.0 Sn  0.54
 XJKSH 27.33 1.0 Pg -0.57
 XJKSH 46.99 1.0 Sg  0.63
 XJTAG 19.11 1.0 Pg  0.44
 XJTAG 32.41 0.4 Sg  1.36
 XJWUQ 39.81 1.0 Pn  0.13
 XJWUQ 69.97 0.4 Sn  1.32
 XJYJS 13.21 1.0 Pg  0.06
 XJYJS 22.34 1.0 Sg  0.46
 XJYPH 25.96 1.0 Pg -0.51
 XJYPH 44.71 1.0 Sg  0.75
# 2009 04 15 12 58 47.820 37.873 76.439 4 3.0 0 0 1.37943 145 XJ.200904152058.0001 eq
 XJATS 35.81 0.4 Pn -1.86
 XJATS 63.43 0.4 Sn -1.81
 XJBCH 46.85 1.0 Pn  0.31
 XJBCH 81.97 0.4 Sn  1.47
 XJBPM 36.53 0.4 Pn -1.77
 XJBPM 64.95 0.4 Sn -1.35
 XJHTTZ0 40.81 1.0 Pn  0.31
 XJHTTZ0 70.63 1.0 Sn  0.63
 XJKSH 27.15 1.0 Pg  0.10
 XJKSH 46.78 0.4 Sg  1.83
 XJKSZ 32.41 1.0 Pg -0.57
 XJKSZ 55 1.0 Sg  0.17
 XJTAG 19.06 1.0 Pg  0.26
 XJTAG 32.61 0.4 Sg  1.21
 XJWUQ 39.11 1.0 Pn  0.09
 XJWUQ 68.45 1.0 Sn  0.83
 XJXKR 39.5 1.0 Pn -0.35
 XJXKR 68.35 1.0 Sn -0.55
 XJYCH 17.59 0.4 Pg  1.24
 XJYCH 29.62 0.4 Sg  2.37
 XJYJS 12.73 1.0 Pg  0.60
 XJYJS 22.57 0.4 Sg  2.34
 XJYPH 27.09 0.4 Pg  1.64
 XJYPH 45.25 0.4 Sg  3.03
# 2009 04 15 17 35 41.930 37.904 76.283 5 2.2 0 0 0.551264 146 XJ.200904160135.0001 eq
 XJBCH 45.04 1.0 Pn  0.58
 XJBCH 79.56 1.0 Sn  0.80
 XJHTTZ0 39.02 1.0 Pn -0.21
 XJHTTZ0 69.16 1.0 Sn -0.19
 XJKSH 25.75 1.0 Pg -0.55
 XJKSH 45.31 1.0 Sg -0.08
 XJTAG 17.55 0.2 Pg  0.00
 XJTAG 30.81 1.0 Sg  0.51
 XJXKR 37.35 1.0 Pn  0.37
 XJXKR 66.02 1.0 Sn  0.70
 XJYJS 11.51 1.0 Pg -0.94
 XJYJS 20.89 1.0 Sg -0.60
 XJYPH 25.43 1.0 Pg -0.63
 XJYPH 45.23 1.0 Sg  0.24
# 2009 04 15 17 42 39.060 37.822 76.443 8 2.0 0 0 0.532363 147 XJ.200904160142.0001 eq
 XJHTTZ0 39.98 1.0 Pn -0.22
 XJHTTZ0 69.9 1.0 Sn  0.31
 XJKSH 27.34 1.0 Pg -0.58
 XJKSH 46.65 1.0 Sg  0.27
 XJTAG 19.02 1.0 Pg  0.23
 XJTAG 32.31 1.0 Sg  0.93
 XJYJS 12.98 1.0 Pg -0.06
 XJYJS 21.4 1.0 Sg -0.34
 XJYPH 26.97 1.0 Pg  0.63
 XJYPH 44.68 1.0 Sg  0.92
# 2009 04 15 19 45 07.980 37.896 76.329 6 1.5 0 0 1.09654 148 XJ.200904160345.0001 eq
 XJTAG 17.34 1.0 Pg  0.10
 XJTAG 30.77 0.4 Sg  2.03
 XJYCH 18.08 1.0 Pg  0.13
 XJYCH 30.9 1.0 Sg  0.97
 XJYJS 11.54 1.0 Pg -0.34
 XJYJS 20.82 1.0 Sg  0.97
 XJYPH 25.45 1.0 Pg  0.12
 XJYPH 43.91 0.4 Sg  1.86
# 2009 04 15 21 12 05.720 37.875 76.444 8 2.6 0 0 1.30418 149 XJ.200904160511.0001 eq
 XJBCH 46.44 1.0 Pn -0.06
 XJBCH 81.25 1.0 Sn  0.85
 XJBPM 36.19 0.4 Pn -2.09
 XJBPM 64.31 0.4 Sn -1.94
 XJHTTZ0 40.56 1.0 Pn  0.11
 XJHTTZ0 69.95 1.0 Sn  0.02
 XJKSH 27.08 1.0 Pg  0.03
 XJKSH 46.63 0.4 Sg  1.68
 XJKSZ 33.25 1.0 Pg  0.28
 XJKSZ 55.59 1.0 Sg  0.79
 XJTAG 18.96 1.0 Pg  0.07
 XJTAG 32.4 1.0 Sg  0.91
 XJWUQ 38.02 1.0 Pn -1.00
 XJWUQ 66.14 0.4 Sn -1.49
 XJXKR 39.7 1.0 Pn -0.12
 XJXKR 68.11 1.0 Sn -0.72
 XJYCH 17.96 0.4 Pg  1.66
 XJYCH 29.77 0.4 Sg  2.57
 XJYJS 12.61 1.0 Pg  0.52
 XJYJS 22.14 0.4 Sg  1.96
 XJYPH 25.99 1.0 Pg  0.60
 XJYPH 44.71 0.4 Sg  2.57
# 2009 04 16 09 28 17.840 37.863 76.327 10 2.5 0 0 1.25973 150 XJ.200904161727.0001 eq
 XJBPM 34.03 1.0 Pn -0.51
 XJBPM 62.28 0.4 Sn  2.06
 XJHTTZ0 37.49 1.0 Pn -0.30
 XJHTTZ0 67.05 0.4 Sn  1.27
 XJKSH 24.64 1.0 Pg -0.73
 XJKSH 43.71 0.4 Sg -1.19
 XJTAG 17.11 1.0 Pg  0.51
 XJTAG 30.44 1.0 Sg  0.89
 XJXKR 36.71 1.0 Pn  0.23
 XJXKR 66.11 0.4 Sn  2.62
 XJYCH 15.9 0.4 Pg -1.15
 XJYCH 29.45 1.0 Sg -0.84
 XJYJS 10.7 0.4 Pg -1.39
 XJYJS 20.75 0.4 Sg -1.46
# 2009 04 17 13 27 57.880 36.947 77.198 105 2.3 0 0 0.730259 151 XJ.200904172127.0001 eq
 XJAHQ 106.58 0.4 Sn -2.11
 XJAHQ 60.07 1.0 Pn -0.84
 XJBCH 47.25 1.0 Pn -0.12
 XJBCH 84.58 1.0 Sn  0.15
 XJBPM 45.13 1.0 Pn -0.18
 XJBPM 80.53 1.0 Sn -0.20
 XJHTTZ0 26.57 1.0 Pg -0.27
 XJHTTZ0 47.76 1.0 Sg  0.13
 XJKSH 40.16 1.0 Pn  0.09
 XJKSH 72.29 1.0 Sn  0.97
 XJTAG 31.38 1.0 Pg  0.36
 XJTAG 54.78 1.0 Sg -0.30
 XJXKR 45.68 0.4 Pn  1.10
 XJXKR 80.51 0.4 Sn  1.09
 XJYCH 15.75 1.0 Pg -0.67
 XJYCH 28.79 1.0 Sg -0.24
 XJYJS 29.12 1.0 Pg  0.27
 XJYJS 51.54 1.0 Sg  0.31
# 2009 04 17 14 10 49.940 36.974 77.154 111 1.8 0 0 0.574123 152 XJ.200904172210.0001 eq
 XJBPM 45.14 1.0 Pn  0.03
 XJBPM 79.37 1.0 Sn -0.99
 XJHTTZ0 28.12 1.0 Pg  0.53
 XJHTTZ0 49.64 1.0 Sg  0.66
 XJKSH 39.55 1.0 Pn -0.21
 XJKSH 71.87 0.4 Sn  1.10
 XJTAG 30.53 1.0 Pg -0.28
 XJTAG 54.92 1.0 Sg  0.21
 XJYCH 16.32 1.0 Pg -0.75
 XJYCH 29.72 1.0 Sg -0.48
 XJYJS 28.66 1.0 Pg -0.10
 XJYJS 51.34 1.0 Sg  0.28
