# 2009 07 27 01 27 56.490 37.679 76.654 7 1.5 0 0 1.16328 210 XJ.200907270927.0001 eq
 XJHTTZ0 36.89 1.0 Pg -0.19
 XJHTTZ0 62.56 1.0 Sg  0.99
 XJKSH 31.13 1.0 Pg -0.65
 XJKSH 53.71 1.0 Sg  0.99
 XJTAG 22.05 1.0 Pg -0.04
 XJTAG 37.76 0.4 Sg  1.08
 XJYCH 12.48 1.0 Pg  0.66
 XJYCH 21.82 0.4 Sg  2.18
 XJYJS 16.16 1.0 Pg  0.22
 XJYJS 28.68 0.4 Sg  2.17
# 2009 07 29 13 17 43.290 36.985 79.173 4 3.0 0 0 2.63253 211 XJ.200907292117.0002 eq
 XJAHQ 111.54 1.0 Sn  0.24
 XJAHQ 64.58 1.0 Pn  0.20
 XJAKS 118.8 0.4 Sn  2.06
 XJAKS 68.19 1.0 Pn  0.68
 XJBCH 43.3 0.4 Pn -5.57
 XJBCH 75.03 0.4 Sn -9.56
 XJBPM 56.56 1.0 Pn -0.34
 XJBPM 98.16 1.0 Sn -0.23
 XJHTA 11.28 1.0 Pg  0.24
 XJHTA 19.45 0.4 Sg  1.04
 XJHTTZ0 3.03 0.4 Pg -1.03
 XJHTTZ0 6.52 1.0 Sg -0.28
 XJTAG 55.93 0.4 Pn  1.01
 XJTAG 96.55 0.4 Sn  1.58
 XJXKR 53.28 1.0 Pn  0.66
 XJXKR 92.16 0.4 Sn  1.13
 XJYCH 28.5 1.0 Pg  0.38
 XJYCH 47.96 0.4 Sg  1.27
 XJYJS 46.25 1.0 Pn  0.12
 XJYJS 79.67 1.0 Sn -0.19
 XJYPH 48.57 0.4 Pn -1.78
 XJYPH 81.94 0.4 Sn -5.14
 XJYUT 42.17 1.0 Pn -0.12
 XJYUT 73.32 1.0 Sn  0.13
# 2009 07 31 22 05 38.150 36.936 77.274 109 2.0 0 0 0.671803 212 XJ.200908010605.0001 eq
 XJBCH 47.34 1.0 Pn  0.04
 XJBCH 84.03 1.0 Sn -0.27
 XJHTA 34.1 1.0 Pn -0.45
 XJHTA 61.91 1.0 Sn  0.48
 XJHTTZ0 26.31 1.0 Pg -0.07
 XJHTTZ0 47.01 1.0 Sg  0.19
 XJKSH 40.31 1.0 Pn -0.41
 XJKSH 72.22 1.0 Sn -0.28
 XJTAG 32.64 1.0 Pg  0.69
 XJTAG 57.15 1.0 Sg  0.39
 XJYCH 16.33 1.0 Pg -0.52
 XJYCH 29.51 1.0 Sg -0.31
 XJYJS 29.48 1.0 Pg  0.03
 XJYJS 52.22 1.0 Sg -0.09
 XJYPH 37.66 1.0 Pn  0.60
 XJYPH 68.2 0.4 Sn  2.25
# 2009 08 04 12 46 31.690 36.330 78.180 127 1.9 0 0 1.48399 213 XJ.200908042046.0001 eq
 XJBCH 53.76 1.0 Pn  0.65
 XJBCH 95.38 1.0 Sn  0.70
 XJHTTZ0 26.45 0.4 Pg  2.60
 XJHTTZ0 44.45 0.4 Sg  2.14
 XJTAG 45.17 1.0 Pn  0.54
 XJTAG 79.62 1.0 Sn  0.16
 XJYCH 26.2 1.0 Pg  0.70
 XJYCH 44.5 1.0 Sg -0.74
 XJYJS 42.36 0.4 Pg  1.13
 XJYJS 70.51 0.4 Sg -2.88
 XJYUT 47.17 1.0 Pn -0.79
 XJYUT 83.82 0.4 Sn -1.62
# 2009 08 05 22 22 31.170 36.906 77.361 105 2.2 0 0 1.15936 214 XJ.200908060622.0001 eq
 XJBCH 47.52 1.0 Pn  0.28
 XJBCH 83.5 1.0 Sn -0.70
 XJBPM 46.84 1.0 Pn  0.77
 XJBPM 81.85 1.0 Sn -0.24
 XJHTA 34.72 0.4 Pg  1.18
 XJHTA 60.95 0.4 Sg  1.33
 XJHTTZ0 25.33 1.0 Pg -0.07
 XJHTTZ0 45.88 1.0 Sg  0.82
 XJKSH 41.09 1.0 Pn -0.33
 XJKSH 72.68 0.4 Sn -1.07
 XJQMO 164.39 0.4 Sn -2.80
 XJQMO 93.02 1.0 Pn -0.53
 XJTAG 32.54 1.0 Pg -0.20
 XJTAG 58.52 1.0 Sg  0.36
 XJXKR 46.1 0.4 Pn  1.10
 XJXKR 81.78 0.4 Sn  1.60
 XJYCH 15.53 0.4 Pg -1.06
 XJYCH 28.92 1.0 Sg -0.43
 XJYJS 29.34 1.0 Pg -0.59
 XJYJS 50.9 0.4 Sg -2.27
 XJYPH 38.51 0.4 Pn  1.02
 XJYPH 68.54 0.4 Sn  1.83
# 2009 08 07 17 52 54.310 36.855 77.261 103 3.4 0 0 0.768504 215 XJ.200908080152.0002 eq
 XJAHQ 109.92 1.0 Sn -0.64
 XJAHQ 62.31 1.0 Pn  0.36
 XJAKS 126.14 1.0 Sn  0.23
 XJAKS 71.04 1.0 Pn  0.54
 XJALR 126.67 1.0 Sn  0.77
 XJALR 70.98 1.0 Pn  0.48
 XJATS 48.87 1.0 Pn  0.79
 XJATS 86.3 1.0 Sn  0.61
 XJBAC 154.44 1.0 Sn -0.94
 XJBAC 87.27 1.0 Pn  0.32
 XJBCH 47.27 1.0 Pn -0.96
 XJBCH 84.73 0.4 Sn -1.23
 XJBPM 46.82 1.0 Pn  0.25
 XJBPM 83.17 1.0 Sn  0.18
 XJHTA 35.48 1.0 Pn  0.90
 XJHTA 62.31 1.0 Sn  0.83
 XJHTTZ0 26.41 1.0 Pg  0.04
 XJHTTZ0 47.66 1.0 Sg  0.87
 XJKSH 41.29 1.0 Pn -0.12
 XJKSH 73.55 1.0 Sn -0.18
 XJKSZ 45.28 1.0 Pn  0.24
 XJKSZ 79.7 1.0 Sn -0.54
 XJKUC 168.12 0.4 Sn -1.22
 XJKUC 94.32 1.0 Pn -0.41
 XJQMO 166.63 0.4 Sn -2.62
 XJQMO 94.01 1.0 Pn -0.69
 XJSMY 134.75 1.0 Sn  0.70
 XJSMY 75.84 1.0 Pn  0.79
 XJTAG 31.21 1.0 Pg -0.87
 XJTAG 57.61 1.0 Sg  0.63
 XJWUQ 50.15 1.0 Pn  0.09
 XJWUQ 88.76 1.0 Sn -0.48
 XJWUS 120.51 1.0 Sn -0.04
 XJWUS 67.71 1.0 Pn  0.19
 XJXKR 45.83 1.0 Pn  0.12
 XJXKR 81.27 1.0 Sn -0.18
 XJXNY 115.37 1.0 Pn -0.08
 XJXNY 204.8 0.4 Sn -1.64
 XJYCH 15.9 1.0 Pg -0.92
 XJYCH 29.36 1.0 Sg -0.38
 XJYJS 29.16 1.0 Pg -0.93
 XJYJS 52.89 1.0 Sg -0.55
 XJYPH 38.33 1.0 Pn  0.44
 XJYPH 68.29 1.0 Sn  0.86
 XJYUT 102.27 0.2 Sn  0.00
 XJYUT 57.48 1.0 Pn  0.15
 XJZSU 162.14 1.0 Sn  0.50
 XJZSU 91.35 1.0 Pn  0.91
 XZSQHE 127.15 0.4 Sn -1.25
 XZSQHE 71.76 1.0 Pn -0.17
# 2009 08 08 16 16 38.230 37.711 76.278 103 2.3 0 0 0.655408 216 XJ.200908090016.0001 eq
 XJAHQ 54.94 1.0 Pn  0.30
 XJAHQ 96.81 1.0 Sn -0.65
 XJAKS 118.76 1.0 Sn -0.12
 XJAKS 67.25 1.0 Pn  0.67
 XJATS 34.76 1.0 Pn  0.25
 XJATS 62.26 1.0 Sn  0.90
 XJBCH 43.74 1.0 Pn -0.33
 XJBCH 77.78 1.0 Sn -0.74
 XJBPM 35.38 1.0 Pn -0.27
 XJBPM 63.22 1.0 Sn -0.19
 XJHTTZ0 36.71 1.0 Pn  0.11
 XJHTTZ0 65.24 1.0 Sn  0.14
 XJKSH 27.4 1.0 Pg  0.26
 XJKSH 48.71 1.0 Sg  0.54
 XJKSZ 31.35 1.0 Pg -0.28
 XJKSZ 54.55 0.4 Sg -1.65
 XJSMY 123.82 1.0 Sn -0.39
 XJSMY 69.69 1.0 Pn  0.13
 XJTAG 18.32 0.4 Pg -1.76
 XJTAG 34.25 0.4 Sg -1.29
 XJWUQ 35.82 1.0 Pn  0.38
 XJWUQ 63.23 1.0 Sn  0.21
 XJXKR 37.53 1.0 Pn  0.18
 XJXKR 66.55 1.0 Sn  0.09
 XJYCH 20.26 1.0 Pg  0.06
 XJYCH 35.7 1.0 Sg -0.06
 XJYJS 18.93 1.0 Pg -0.26
 XJYJS 34.5 1.0 Sg  0.53
 XJYPH 27.32 1.0 Pg  0.23
 XJYPH 49.32 0.4 Sg  1.23
# 2009 08 11 05 36 25.140 37.716 76.604 9 1.7 0 0 1.38799 217 XJ.200908111336.0001 eq
 XJKSH 29.71 0.4 Pg -1.05
 XJKSH 50.57 1.0 Sg -0.56
 XJTAG 21.82 1.0 Pg  0.56
 XJTAG 37.49 0.4 Sg  2.10
 XJYCH 12.44 1.0 Pg -0.34
 XJYCH 22.13 1.0 Sg  0.86
 XJYJS 15.93 1.0 Pg  0.83
 XJYJS 27.98 0.4 Sg  2.78
# 2009 08 11 05 38 05.580 37.651 76.626 8 1.7 0 0 1.35935 218 XJ.200908111338.0001 eq
 XJKSH 33.01 0.4 Pg  1.01
 XJKSH 56.38 0.4 Sg  2.98
 XJTAG 21.39 1.0 Pg -0.30
 XJTAG 37.08 0.4 Sg  1.01
 XJYCH 11.94 1.0 Pg  0.04
 XJYCH 21.65 0.4 Sg  1.77
 XJYJS 15.66 1.0 Pg -0.74
 XJYJS 27.6 1.0 Sg  0.30
# 2009 08 12 10 21 42.450 37.166 79.163 8 1.8 0 0 1.24054 219 XJ.200908121821.0001 eq
 XJHTA 12.33 0.4 Pg  1.29
 XJHTA 20.06 0.4 Sg  1.65
 XJHTTZ0 1.91 1.0 Pg -0.40
 XJHTTZ0 4.52 1.0 Sg  0.71
 XJYCH 27.88 1.0 Pg  0.74
 XJYCH 46.71 0.4 Sg  1.54
 XJYJS 44.4 1.0 Pn -0.29
 XJYJS 78 1.0 Sn  0.71
 XJYUT 41.68 0.4 Pn -1.33
 XJYUT 72.17 0.4 Sn -2.25
# 2009 08 15 18 40 33.920 37.461 76.074 103 1.8 0 0 0.682048 220 XJ.200908160240.0001 eq
 XJKSH 30.26 1.0 Pg  0.77
 XJKSH 53.78 0.4 Sg  1.41
 XJTAG 18.6 1.0 Pg -0.52
 XJTAG 33.62 1.0 Sg -0.20
 XJYCH 21.43 1.0 Pg  0.13
 XJYCH 38.36 1.0 Sg  0.63
 XJYJS 21.61 1.0 Pg -0.49
 XJYJS 38.34 1.0 Sg -0.81
 XJYPH 30.23 1.0 Pg -0.37
 XJYPH 53.8 1.0 Sg -0.56
# 2009 08 27 14 05 28.560 37.296 76.318 10 1.3 0 0 1.28311 221 XJ.200908272205.0002 eq
 XJTAG 17.46 0.4 Pg -1.12
 XJTAG 34.5 0.4 Sg  1.66
 XJYCH 14.15 1.0 Pg -0.95
 XJYCH 28.76 0.4 Sg  1.65
 XJYJS 20.64 0.4 Pg -1.48
 XJYJS 39.35 1.0 Sg  0.23
# 2009 08 30 23 55 22.010 36.366 76.701 12 1.7 0 0 1.59564 222 XJ.200908310755.0001 eq
 XJHTTZ0 37.38 0.4 Pg -1.01
 XJHTTZ0 60.69 0.4 Sg -3.09
 XJTAG 34.71 1.0 Pg -0.21
 XJTAG 56.3 0.4 Sg -1.76
 XJYCH 22.81 0.4 Pg  1.21
 XJYCH 36.12 1.0 Sg  0.32
# 2009 09 03 00 43 13.660 36.887 76.949 97 2.8 0 0 0.752018 223 XJ.200909030843.0002 eq
 XJATS 47.11 1.0 Pn  0.63
 XJATS 84.24 0.4 Sn  1.40
 XJBPM 46.2 1.0 Pn  0.43
 XJBPM 81.11 1.0 Sn -0.45
 XJHTA 38.12 1.0 Pn  0.56
 XJHTA 68.01 0.4 Sn  1.18
 XJHTTZ0 28.54 1.0 Pg -0.49
 XJHTTZ0 52.1 1.0 Sg  0.55
 XJKSH 39.13 1.0 Pn -0.19
 XJKSH 70.13 1.0 Sn  0.13
 XJKSZ 43.17 1.0 Pn -0.26
 XJKSZ 78.23 1.0 Sn  0.86
 XJTAG 28.39 1.0 Pg -0.49
 XJTAG 52.05 1.0 Sg  0.79
 XJWUQ 47.56 1.0 Pn -0.49
 XJWUQ 84.6 0.4 Sn -1.03
 XJXKR 45.84 1.0 Pn  0.30
 XJXKR 80.23 1.0 Sn -0.93
 XJYCH 15.97 1.0 Pg -0.71
 XJYCH 29.29 1.0 Sg -0.20
 XJYJS 27.65 1.0 Pg -0.88
 XJYJS 49.21 0.4 Sg -1.44
 XJYPH 37.44 1.0 Pn  0.57
 XJYPH 66.5 1.0 Sn  0.88
 XJYUT 107.13 0.4 Sn -1.06
 XJYUT 60.96 1.0 Pn  0.34
# 2009 09 06 09 16 14.380 37.779 78.006 5 2.1 0 0 0.864396 224 XJ.200909061716.0002 eq
 XJBCH 38.67 1.0 Pg -0.68
 XJBCH 64.77 1.0 Sg -0.65
 XJHTTZ0 19.9 1.0 Pg  0.47
 XJHTTZ0 34.09 0.4 Sg  1.78
 XJXKR 38.99 1.0 Pg  0.16
 XJXKR 65.67 0.4 Sg  1.07
 XJYCH 11.72 1.0 Pg -0.25
 XJYCH 20.54 1.0 Sg  0.53
 XJYJS 26.67 1.0 Pg  0.31
 XJYJS 45.05 0.4 Sg  1.26
# 2009 09 07 23 25 40.900 36.902 76.955 94 2.6 0 0 0.749194 225 XJ.200909080725.0001 eq
 XJATS 46.27 1.0 Pn  0.04
 XJATS 83.63 0.4 Sn  1.24
 XJBCH 48.37 1.0 Pn -0.40
 XJBCH 85.76 0.4 Sn -1.19
 XJBPM 45.89 1.0 Pn  0.40
 XJBPM 81.35 1.0 Sn  0.28
 XJHTA 38.33 1.0 Pg  0.96
 XJHTA 66.96 1.0 Sg  0.46
 XJHTTZ0 28.47 1.0 Pg -0.32
 XJHTTZ0 49.99 0.4 Sg -1.12
 XJKSH 39.3 1.0 Pn  0.23
 XJKSH 69.9 1.0 Sn  0.35
 XJKSZ 43.64 1.0 Pn  0.47
 XJKSZ 78.28 0.4 Sn  1.38
 XJTAG 28.63 1.0 Pg -0.05
 XJTAG 50.49 1.0 Sg -0.40
 XJWUQ 47.43 1.0 Pn -0.39
 XJWUQ 85.14 1.0 Sn -0.09
 XJXKR 45.4 1.0 Pn  0.15
 XJXKR 80.78 1.0 Sn  0.14
 XJYCH 15.83 1.0 Pg -0.39
 XJYCH 29.19 1.0 Sg  0.53
 XJYJS 27.43 1.0 Pg -0.77
 XJYJS 47.87 0.4 Sg -2.19
 XJYPH 36.97 1.0 Pg  0.40
 XJYPH 64.76 1.0 Sg -0.32
# 2009 09 08 07 53 07.070 37.214 76.491 99 1.6 0 0 0.697182 226 XJ.200909081553.0001 eq
 XJHTTZ0 34.24 1.0 Pg  0.78
 XJHTTZ0 58.09 0.4 Sg -1.39
 XJTAG 22.83 1.0 Pg -0.29
 XJTAG 40.31 1.0 Sg -0.64
 XJYCH 18.25 1.0 Pg  0.41
 XJYCH 32.32 1.0 Sg  0.78
 XJYJS 24.37 1.0 Pg  0.27
 XJYJS 42.8 1.0 Sg  0.07
# 2009 09 10 06 17 37.780 37.387 76.668 12 1.8 0 0 0.787924 227 XJ.200909101416.0001 eq
 XJKSH 36.08 1.0 Pg -0.58
 XJKSH 60.24 1.0 Sg -0.69
 XJTAG 23.83 1.0 Pg  0.43
 XJTAG 40.35 0.4 Sg  1.47
 XJYCH 10.52 1.0 Pg  0.27
 XJYCH 17.9 1.0 Sg  0.73
 XJYJS 21.28 1.0 Pg -0.12
 XJYJS 36.69 0.4 Sg  1.09
# 2009 09 10 18 55 45.900 36.824 79.384 5 1.0 0 0 0.984505 228 XJ.200909110255.0001 eq
 XJHTA 16.33 1.0 Sg  0.88
 XJHTA 9.73 1.0 Pg  0.50
 XJHTTZ0 13.58 1.0 Sg  0.07
 XJHTTZ0 7.01 0.4 Pg -1.10
 XJYCH 32.61 1.0 Pg  0.61
 XJYCH 55.19 0.4 Sg  1.79
# 2009 09 15 22 10 42.510 37.844 77.725 5 1.5 0 0 1.55974 229 XJ.200909160610.0001 eq
 XJBCH 38.51 1.0 Pn -0.91
 XJBCH 69.48 0.4 Sn  1.25
 XJHTTZ0 24.4 1.0 Pg  0.84
 XJHTTZ0 42.34 0.4 Sg  3.21
 XJTAG 37.55 1.0 Pg -0.26
 XJTAG 64.11 0.4 Sg  1.25
 XJYCH 17.56 1.0 Sg  0.83
 XJYCH 9.67 1.0 Pg -0.39
 XJYJS 22.9 1.0 Pg  0.71
 XJYJS 39.77 0.4 Sg  2.82
# 2009 09 16 10 18 14.950 37.097 79.251 7 2.0 0 0 1.14801 230 XJ.200909161818.0001 eq
 XJHTA 10.19 1.0 Pg  0.54
 XJHTA 18.22 0.4 Sg  2.11
 XJHTTZ0 2.45 0.4 Pg -1.10
 XJHTTZ0 4.81 0.4 Sg -1.09
 XJTAG 55.29 1.0 Pn -0.06
 XJTAG 96.33 1.0 Sn  0.58
 XJYCH 29.44 1.0 Pg  0.71
 XJYCH 50.15 0.4 Sg  2.46
 XJYJS 46.39 1.0 Pn  0.42
 XJYJS 80.47 1.0 Sn  0.93
 XJYUT 41.33 1.0 Pn -0.51
 XJYUT 73.08 1.0 Sn  0.69
# 2009 09 16 17 27 40.770 36.910 77.144 95 2.6 0 0 0.73914 231 XJ.200909170127.0002 eq
 XJAHQ 108.92 1.0 Sn -0.66
 XJAHQ 61.49 1.0 Pn  0.10
 XJATS 47.66 1.0 Pn  0.88
 XJATS 85.07 0.4 Sn  1.70
 XJBCH 46.71 0.4 Pn -1.14
 XJBCH 83.5 0.4 Sn -1.80
 XJBPM 45.63 1.0 Pn  0.10
 XJBPM 81.15 1.0 Sn  0.02
 XJHTA 35.68 1.0 Pn  0.25
 XJHTA 62.8 1.0 Sn -0.21
 XJHTTZ0 26.44 1.0 Pg -0.51
 XJHTTZ0 47.98 1.0 Sg  0.15
 XJKSH 39.6 1.0 Pn -0.33
 XJKSH 71.26 1.0 Sn  0.17
 XJSMY 133.68 1.0 Sn  0.15
 XJSMY 75.15 1.0 Pn  0.41
 XJTAG 30.43 1.0 Pg  0.09
 XJTAG 53.09 1.0 Sg -0.78
 XJWUQ 48.74 1.0 Pn  0.10
 XJWUQ 87.08 1.0 Sn  0.37
 XJXKR 45.06 1.0 Pn  0.16
 XJXKR 79.51 1.0 Sn -0.50
 XJYCH 15.18 1.0 Pg -0.58
 XJYCH 28.31 1.0 Sg  0.46
 XJYJS 27.92 1.0 Pg -0.75
 XJYJS 49.55 0.4 Sg -1.35
 XJYPH 37.32 1.0 Pn  0.60
 XJYPH 66.6 0.4 Sn  1.26
# 2009 09 18 20 13 27.300 37.588 76.297 118 2.4 0 0 2.11409 232 XJ.200909190413.0001 eq
 XJAHQ 57.05 1.0 Pn  0.73
 XJAHQ 99.82 1.0 Sn -0.62
 XJATS 37.44 1.0 Pn  0.76
 XJATS 66.44 0.4 Sn  1.20
 XJBCH 45.85 1.0 Pn  0.28
 XJBCH 80.99 1.0 Sn -0.19
 XJBPM 37.11 1.0 Pn -0.62
 XJBPM 66.03 0.4 Sn -1.09
 XJHTA 46.63 0.4 Pn  1.32
 XJHTA 83.43 0.4 Sn  2.73
 XJHTTZ0 36.82 1.0 Pn  0.16
 XJHTTZ0 65.92 1.0 Sn  0.71
 XJKSH 29.22 1.0 Pg -0.18
 XJKSH 52.58 1.0 Sg  0.36
 XJTAG 16.22 0.4 Pg -5.44
 XJTAG 30.14 0.4 Sg -8.23
 XJWUQ 37.32 1.0 Pn -0.23
 XJWUQ 66.86 1.0 Sn  0.07
 XJXKR 39.4 1.0 Pn  0.16
 XJXKR 69.88 1.0 Sn  0.04
 XJYCH 20.17 1.0 Pg -0.81
 XJYCH 37.01 1.0 Sg -0.16
 XJYJS 20.2 0.4 Pg -1.38
 XJYJS 37.29 1.0 Sg -0.96
 XJYPH 28.92 1.0 Pg -0.39
 XJYPH 52.85 1.0 Sg  0.79
# 2009 09 20 15 32 42.720 37.591 76.428 116 1.6 0 0 0.880413 233 XJ.200909202332.0002 eq
 XJATS 66.81 0.4 Sn  1.34
 XJBCH 79.71 1.0 Sn  0.25
 XJBPM 66.18 1.0 Sn -0.37
 XJHTTZ0 35.96 1.0 Pg  0.67
 XJHTTZ0 63.35 1.0 Sg  0.59
 XJXKR 38.05 1.0 Pn -0.57
 XJXKR 67.9 1.0 Sn -0.84
 XJYCH 17.98 0.4 Pg -1.95
 XJYCH 34.53 1.0 Sg -0.77
 XJYPH 28.44 1.0 Pg -0.51
 XJYPH 51.64 1.0 Sg  0.22
# 2009 09 21 09 58 12.400 36.784 77.016 100 1.3 0 0 0.391902 234 XJ.200909211758.0001 eq
 XJHTTZ0 28.92 1.0 Pg  0.17
 XJHTTZ0 50.38 1.0 Sg -0.66
 XJTAG 30.11 1.0 Pg -0.16
 XJTAG 53.2 1.0 Sg -0.54
 XJYCH 17.74 1.0 Pg  0.29
 XJYCH 31.29 1.0 Sg  0.42
 XJYJS 30.48 1.0 Pg  0.43
 XJYJS 53.42 1.0 Sg  0.04
# 2009 09 22 01 33 47.990 36.390 78.199 125 2.4 0 0 0.539676 235 XJ.200909220933.0001 eq
 XJBCH 51.73 1.0 Pn -0.49
 XJBCH 92.56 1.0 Sn -0.53
 XJHTA 29.16 1.0 Pg  0.74
 XJHTA 50.95 1.0 Sg  0.48
 XJHTTZ0 22.38 1.0 Pg -0.69
 XJHTTZ0 40.49 1.0 Sg -0.43
 XJXKR 53.42 1.0 Pn  0.68
 XJXKR 94.48 1.0 Sn  0.46
 XJYCH 24.36 1.0 Pg -0.47
 XJYCH 44.3 1.0 Sg  0.24
# 2009 09 23 01 34 59.890 37.579 78.861 8 2.0 0 0 1.25121 236 XJ.200909230934.0001 eq
 XJBCH 41.4 1.0 Pg -0.03
 XJBCH 69.46 1.0 Sg  0.53
 XJHTTZ0 13.98 1.0 Sg -0.03
 XJHTTZ0 8.51 1.0 Pg  0.14
 XJTAG 51.31 0.4 Pn  1.06
 XJTAG 88.07 0.4 Sn  1.18
 XJYCH 23.51 1.0 Pg  0.93
 XJYCH 39.06 0.4 Sg  1.58
 XJYJS 37.11 0.4 Pg -2.09
 XJYJS 62.91 0.4 Sg -2.26
# 2009 09 24 15 29 56.710 36.231 78.614 113 2.9 0 0 0.806155 237 XJ.200909242329.0001 eq
 XJAKS 131.28 1.0 Sn -0.12
 XJAKS 73.93 1.0 Pn  0.35
 XJATS 112.61 0.4 Sn  1.73
 XJATS 63.6 0.4 Pn  1.46
 XJBAC 155.77 0.4 Sn -1.03
 XJBAC 88.06 1.0 Pn  0.30
 XJBCH 52.88 1.0 Pn -0.77
 XJBCH 94.36 0.4 Sn -1.32
 XJBPM 104.6 1.0 Sn  0.54
 XJBPM 58.53 1.0 Pn  0.20
 XJHTA 26.03 1.0 Pg  0.53
 XJHTA 46.83 0.4 Sg  1.58
 XJHTTZ0 21.23 1.0 Pg -0.50
 XJHTTZ0 38.85 1.0 Sg  0.33
 XJKSH 101.37 1.0 Sn  0.22
 XJKSH 56.54 1.0 Pn -0.17
 XJSMY 141.85 1.0 Sn -0.14
 XJSMY 80.33 1.0 Pn  0.83
 XJTAG 48.46 1.0 Pn -0.31
 XJTAG 86.66 1.0 Sn -0.23
 XJWUQ 115.89 1.0 Sn -0.38
 XJWUQ 65.26 1.0 Pn  0.11
 XJWUS 129.76 1.0 Sn -0.29
 XJWUS 73.07 1.0 Pn  0.24
 XJXKR 55.66 1.0 Pn  0.34
 XJXKR 99.29 1.0 Sn  0.62
 XJYCH 26.63 0.4 Pg -1.12
 XJYCH 47.74 0.4 Sg -1.52
 XJYJS 43.31 1.0 Pn -0.99
 XJYJS 77.61 0.4 Sn -1.30
 XJYPH 50.94 1.0 Pn  0.39
 XJYPH 90.56 1.0 Sn  0.45
 XJYUT 42.15 1.0 Pn -0.87
 XJYUT 75.55 0.4 Sn -1.05
 XJZSU 169.06 1.0 Sn  0.31
 XJZSU 95.39 1.0 Pn  0.95
# 2009 09 28 06 45 47.210 37.369 79.223 10 2.8 0 0 1.50762 238 XJ.200909281445.0004 eq
 XJBCH 43.85 1.0 Pn  0.04
 XJBCH 75.72 1.0 Sn -0.19
 XJHTA 12.67 0.4 Pg  1.37
 XJHTA 20.86 0.4 Sg  2.06
 XJHTTZ0 2.93 0.4 Pg -1.87
 XJHTTZ0 5.44 0.4 Sg -2.56
 XJTAG 53.37 0.4 Pn -1.01
 XJTAG 91.74 0.4 Sn -2.33
 XJXKR 49.68 0.4 Pn  1.48
 XJXKR 86.02 0.4 Sn  2.58
 XJYCH 28.69 1.0 Pg  0.95
 XJYCH 48.24 0.4 Sg  2.22
 XJYJB 36.03 1.0 Pg -0.36
 XJYJB 60.47 1.0 Sg -0.02
 XJYJS 43.52 1.0 Pn -0.26
 XJYJS 75.29 1.0 Sn -0.57
 XJYUT 43.05 1.0 Pn -0.31
 XJYUT 73.23 0.4 Sn -1.72
# 2009 09 30 07 54 54.770 37.661 76.129 109 2.5 0 0 0.696699 239 XJ.200909301554.0001 eq
 XJATS 35.72 1.0 Pn  0.55
 XJATS 64.14 0.4 Sn  1.61
 XJBPM 36.15 1.0 Pn -0.66
 XJBPM 64.88 1.0 Sn -0.61
 XJHTTZ0 38.23 1.0 Pn  0.07
 XJHTTZ0 67.82 1.0 Sn -0.08
 XJKSH 28.08 1.0 Pg  0.52
 XJKSH 49.82 1.0 Sg  0.90
 XJTAG 18.9 1.0 Pg -0.63
 XJTAG 33.88 1.0 Sg -0.68
 XJXKR 38.59 1.0 Pn -0.21
 XJXKR 68.69 1.0 Sn -0.36
 XJYCH 22.2 1.0 Pg  0.55
 XJYCH 39.09 1.0 Sg  0.73
 XJYJS 20.09 1.0 Pg -0.34
 XJYJS 36.31 1.0 Sg  0.13
 XJYPH 28.25 1.0 Pg -0.10
 XJYPH 48.96 0.4 Sg -1.39
# 2009 10 02 03 46 25.220 37.426 79.179 7 2.6 0 0 1.05529 240 XJ.200910021146.0001 eq
 XJBCH 42.73 1.0 Pn -0.29
 XJBCH 73.73 1.0 Sn -0.72
 XJHTA 12.5 1.0 Pg  0.17
 XJHTA 20.8 1.0 Sg  0.31
 XJHTTZ0 3.73 0.4 Pg -1.67
 XJHTTZ0 6.38 0.4 Sg -2.62
 XJXKR 47.3 1.0 Pn -0.02
 XJXKR 81.03 1.0 Sn -0.87
 XJYCH 28.01 1.0 Pg  0.96
 XJYCH 46.59 0.4 Sg  1.62
 XJYJS 43.74 1.0 Pn  0.70
 XJYJS 74.38 1.0 Sn -0.10
 XJYUT 44.2 1.0 Pn  0.15
 XJYUT 75.61 1.0 Sn -0.62
# 2009 10 03 20 23 13.950 36.293 77.999 111 2.1 0 0 0.86805 241 XJ.200910040422.0001 eq
 XJBCH 53.6 1.0 Pn  0.12
 XJBCH 93.72 0.4 Sn -1.65
 XJHTA 30.27 1.0 Pg  0.39
 XJHTA 52.09 1.0 Sg -0.99
 XJHTTZ0 23.44 1.0 Pg -0.48
 XJHTTZ0 42.58 1.0 Sg  0.16
 XJTAG 42.94 1.0 Pn  0.19
 XJTAG 75.37 1.0 Sn -0.72
 XJXKR 53.65 1.0 Pn  0.21
 XJXKR 96.7 0.4 Sn  1.40
 XJYCH 23.5 1.0 Pg -0.41
 XJYCH 42.98 1.0 Sg  0.59
 XJYJB 41.88 1.0 Pn  0.37
 XJYJB 75.06 0.4 Sn  1.17
 XJYJS 39.84 1.0 Pn -0.27
 XJYJS 70.49 1.0 Sn -0.91
 XJYPH 48.68 0.4 Pn  1.44
 XJYPH 85.9 0.4 Sn  1.73
 XJYUT 48.93 1.0 Pn -0.51
 XJYUT 87.74 1.0 Sn -0.37
# 2009 10 04 13 37 10.280 37.808 77.305 8 3.2 0 0 1.11469 242 XJ.200910042136.0001 eq
 XJAHQ 54.62 1.0 Pn  0.07
 XJAHQ 95.23 1.0 Sn  0.88
 XJATS 42.36 1.0 Pn  0.53
 XJATS 73.7 0.4 Sn  1.34
 XJBCH 40.49 0.4 Pn -1.31
 XJBCH 70.92 0.4 Sn -1.39
 XJBPM 38.67 1.0 Pn -0.64
 XJBPM 67.58 1.0 Sn -0.44
 XJHTA 39.92 1.0 Pn -0.29
 XJHTA 70.66 0.4 Sn  1.04
 XJHTTZ0 30.11 0.4 Pg  1.36
 XJHTTZ0 49.09 0.4 Sg  1.35
 XJKSH 36.07 1.0 Pg  0.37
 XJKSH 61.32 0.4 Sg  1.92
 XJKSZ 38.27 1.0 Pg -0.58
 XJKSZ 63.85 1.0 Sg -0.77
 XJTAG 30.41 0.4 Pg -1.20
 XJTAG 51.96 1.0 Sg -0.55
 XJWUQ 43.85 1.0 Pn -0.90
 XJWUQ 76.77 1.0 Sn -0.64
 XJWUS 104.36 1.0 Sn -0.37
 XJWUS 60.56 1.0 Pn  0.02
 XJXKR 37.66 1.0 Pn -0.61
 XJXKR 65.51 1.0 Sn -0.73
 XJYCH 13.82 1.0 Sg  0.51
 XJYCH 8.02 1.0 Pg  0.08
 XJYJS 19.3 0.4 Pg  1.35
 XJYJS 32.19 0.4 Sg  2.27
 XJYPH 29.36 0.4 Pg  1.79
 XJYPH 48.59 0.4 Sg  2.89
 XJYUT 111.77 1.0 Sn  0.51
 XJYUT 64.33 1.0 Pn -0.03
# 2009 10 09 01 59 45.550 37.011 79.391 10 1.6 0 0 0.754891 243 XJ.200910090959.0002 eq
 XJBCH 44.86 1.0 Pn -0.37
 XJBCH 80.36 0.4 Sn  1.27
 XJHTA 13.72 0.4 Sg -1.22
 XJHTA 7.08 1.0 Pg -0.58
 XJHTTZ0 11.55 1.0 Sg -0.17
 XJHTTZ0 5.5 1.0 Pg -0.24
 XJYCH 30.12 1.0 Pg  0.23
 XJYCH 52.52 1.0 Sg -0.39
 XJYUT 36.34 1.0 Pn  0.10
 XJYUT 64.43 0.4 Sn  1.35
# 2009 10 14 17 27 20.120 36.371 77.696 27 4.3 0 0 2.26757 244 XJ.200910150127.0003 eq
XJBCH 50.98 0.4 P -2.30
XJBCH 91.18 0.4 S -1.50
XJBKO 191.38 1.0 P 0.30
SCBTA 254.48 0.4 eP -1.90
HLFUY 188.38 0.4 eP -2.70
HLFUY 335.18 0.4 S -5.00
GSGTA 245.28 0.4 eP 4.30
GSGTA 249.68 0.4 pP -3.70
NMHHC 332.18 0.4 eP 1.10
NMHHC 376.68 0.4 PP -3.60
NMHHC 602.48 0.4 S 7.20
NMHHC 674.88 0.4 SS -1.90
XJKMY 147.38 0.4 P -3.10
XJKMY 261.28 0.4 S -6.00
XJKOL 116.78 0.4 P -2.70
XJKOL 206.38 0.4 S -5.10
XJWMQ 148.68 0.4 P -1.50
XJWNQ 125.68 1.0 eP -1.00
XJWNQ 220.98 0.4 S -3.40
 CBXAC 264.98 0.4 P -2.00
GDXNY 117.18 0.2 +P 0.00
GDXNY 207.28 1.0 S -0.20
 XJAHQ 117.35 0.4 Sn -1.31
 XJAHQ 66.58 0.4 Pn -1.08
 XJAKS 130.43 1.0 Sn -0.84
 XJAKS 74.05 1.0 Pn -0.78
 XJALR 128.39 1.0 Sn  0.04
 XJALR 73.22 1.0 Pn  0.05
 XJATS 57.04 0.4 Pn  1.12
 XJATS 99.99 0.4 Sn  1.98
 XJBCH 50.93 0.4 Pn -2.24
 XJBCH 91.57 0.4 Sn -1.61
 XJBPM 53.11 1.0 Pn -0.72
 XJBPM 93.76 1.0 Sn -0.58
 XJHTA 32.66 0.4 Pg -1.93
 XJHTA 58.02 0.4 Sg -2.87
 XJHTTZ0 24.85 1.0 Pg  0.25
 XJHTTZ0 45.41 0.4 Sg  2.37
 XJKSH 49.04 1.0 Pn -0.36
 XJKSH 87.41 1.0 Sn  0.86
 XJKSZ 52.53 1.0 Pn -0.35
 XJKSZ 93.65 1.0 Sn  0.98
 XJQMO 159.64 1.0 Sn  0.35
 XJQMO 90.43 1.0 Pn -0.34
 XJSMY 140.79 1.0 Sn  0.81
 XJSMY 79.6 1.0 Pn -0.18
 XJTAG 38.25 1.0 Pn -0.56
 XJTAG 68.97 0.4 Sn  1.01
 XJWUQ 100.92 1.0 Sn -0.82
 XJWUQ 57.23 1.0 Pn -0.81
 XJWUS 126.63 1.0 Sn -0.85
 XJWUS 71.77 1.0 Pn -0.90
 XJXKR 51.44 1.0 Pn -0.79
 XJXKR 91.04 1.0 Sn -0.48
 XJYCH 20.62 0.4 Pg  1.28
 XJYCH 37.59 0.4 Sg  4.02
 XJYJB 45.79 0.4 Pn  1.42
 XJYJB 81.14 0.4 Sn  3.43
 XJYJS 36.36 1.0 Pn -0.88
 XJYJS 64.62 1.0 Sn -0.69
 XJYPH 44.55 1.0 Pn -0.66
 XJYPH 80.01 1.0 Sn  0.82
 XJYUT 52.4 1.0 Pn -0.07
 XJYUT 93.82 0.4 Sn  1.87
# 2009 10 21 13 51 55.780 37.696 78.049 10 1.4 0 0 1.38989 245 XJ.200910212151.0001 eq
 XJHTTZ0 17.88 1.0 Pg -0.12
 XJHTTZ0 31.54 0.4 Sg  1.54
 XJTAG 40.75 1.0 Pn -0.83
 XJTAG 71.54 1.0 Sn -0.40
 XJYCH 11.46 1.0 Pg -0.24
 XJYCH 20.92 0.4 Sg  1.47
 XJYJS 28.94 0.4 Pg  1.19
 XJYJS 48.99 0.4 Sg  2.93
